RD08 ? BHN e S c 20241212 1531 39.540 GAU 0.0 0.0 0.0 0.0
RD10 ? BHZ e P c 20241212 1531 38.710 GAU 0.0 0.0 0.0 0.0
RD11 ? BHZ e P c 20241212 1531 37.950 GAU 0.0 0.0 0.0 0.0
RD07 ? BHN e S c 20241212 1531 39.100 GAU 0.0 0.0 0.0 0.0
RD13 ? BHZ e P c 20241212 1531 38.760 GAU 0.0 0.0 0.0 0.0
RD14 ? BHZ e P c 20241212 1531 38.950 GAU 0.0 0.0 0.0 0.0
RD15 ? BHZ e P c 20241212 1531 39.060 GAU 0.0 0.0 0.0 0.0
RD11 ? BHN e S c 20241212 1531 38.970 GAU 0.0 0.0 0.0 0.0
RD07 ? BHZ e P c 20241212 1531 38.120 GAU 0.0 0.0 0.0 0.0
RD06 ? BHZ e P c 20241212 1531 38.130 GAU 0.0 0.0 0.0 0.0
RD05 ? BHN e S c 20241212 1531 39.050 GAU 0.0 0.0 0.0 0.0
RD05 ? BHZ e P c 20241212 1531 38.360 GAU 0.0 0.0 0.0 0.0
RD04 ? BHN e S c 20241212 1531 38.530 GAU 0.0 0.0 0.0 0.0
RD03 ? BHN e S c 20241212 1531 38.480 GAU 0.0 0.0 0.0 0.0
RD03 ? BHZ e P c 20241212 1531 38.030 GAU 0.0 0.0 0.0 0.0
RD06 ? BHN e S c 20241212 1531 38.780 GAU 0.0 0.0 0.0 0.0
RD02 ? BHN e S c 20241212 1531 38.470 GAU 0.0 0.0 0.0 0.0
RD01 ? BHN e S c 20241212 1531 38.530 GAU 0.0 0.0 0.0 0.0
