RD15 ? BHZ e P c 20241227 1607 09.760 GAU 0.0 0.0 0.0 0.0
RD15 ? BHN e S c 20241227 1607 09.820 GAU 0.0 0.0 0.0 0.0
RD14 ? BHZ e P c 20241227 1607 09.630 GAU 0.0 0.0 0.0 0.0
RD14 ? BHN e S c 20241227 1607 09.660 GAU 0.0 0.0 0.0 0.0
RD10 ? BHN e S c 20241227 1607 09.650 GAU 0.0 0.0 0.0 0.0
RD10 ? BHZ e P c 20241227 1607 09.630 GAU 0.0 0.0 0.0 0.0
RD09 ? BHN e S c 20241227 1607 09.540 GAU 0.0 0.0 0.0 0.0
RD08 ? BHN e S c 20241227 1607 09.880 GAU 0.0 0.0 0.0 0.0
RD13 ? BHN e S c 20241227 1607 09.420 GAU 0.0 0.0 0.0 0.0
