RD15 ? BHN e S c 20241215 2354 16.160 GAU 0.0 0.0 0.0 0.0
RD14 ? BHN e S c 20241215 2354 15.720 GAU 0.0 0.0 0.0 0.0
RD14 ? BHZ e P c 20241215 2354 15.630 GAU 0.0 0.0 0.0 0.0
RD11 ? BHZ e P c 20241215 2354 16.190 GAU 0.0 0.0 0.0 0.0
RD11 ? BHN e S c 20241215 2354 16.230 GAU 0.0 0.0 0.0 0.0
RD13 ? BHZ e P c 20241215 2354 15.720 GAU 0.0 0.0 0.0 0.0
