RD06 ? BHN e S c 20241213 2007 51.710 GAU 0.0 0.0 0.0 0.0
RD13 ? BHZ e P c 20241213 2007 51.740 GAU 0.0 0.0 0.0 0.0
RD11 ? BHN e S c 20241213 2007 51.710 GAU 0.0 0.0 0.0 0.0
RD10 ? BHZ e P c 20241213 2007 51.710 GAU 0.0 0.0 0.0 0.0
RD14 ? BHZ e P c 20241213 2007 51.980 GAU 0.0 0.0 0.0 0.0
RD08 ? BHN e S c 20241213 2007 51.990 GAU 0.0 0.0 0.0 0.0
RD08 ? BHZ e P c 20241213 2007 50.740 GAU 0.0 0.0 0.0 0.0
RD07 ? BHN e S c 20241213 2007 51.660 GAU 0.0 0.0 0.0 0.0
RD07 ? BHZ e P c 20241213 2007 51.140 GAU 0.0 0.0 0.0 0.0
RD06 ? BHZ e P c 20241213 2007 51.090 GAU 0.0 0.0 0.0 0.0
RD02 ? BHN e S c 20241213 2007 51.300 GAU 0.0 0.0 0.0 0.0
RD04 ? BHN e S c 20241213 2007 51.920 GAU 0.0 0.0 0.0 0.0
RD04 ? BHZ e P c 20241213 2007 51.180 GAU 0.0 0.0 0.0 0.0
RD05 ? BHZ e P c 20241213 2007 51.280 GAU 0.0 0.0 0.0 0.0
RD03 ? BHN e S c 20241213 2007 51.850 GAU 0.0 0.0 0.0 0.0
RD03 ? BHZ e P c 20241213 2007 51.050 GAU 0.0 0.0 0.0 0.0
RD01 ? BHZ e P c 20241213 2007 51.240 GAU 0.0 0.0 0.0 0.0
RD02 ? BHZ e P c 20241213 2007 50.840 GAU 0.0 0.0 0.0 0.0
RD01 ? BHN e S c 20241213 2007 51.960 GAU 0.0 0.0 0.0 0.0
