RD04 ? BHZ e P c 20241210 2034 51.420 GAU 0.0 0.0 0.0 0.0
RD15 ? BHZ e P c 20241210 2034 51.300 GAU 0.0 0.0 0.0 0.0
RD11 ? BHN e S c 20241210 2034 51.660 GAU 0.0 0.0 0.0 0.0
RD05 ? BHZ e P c 20241210 2034 51.970 GAU 0.0 0.0 0.0 0.0
RD06 ? BHZ e P c 20241210 2034 51.740 GAU 0.0 0.0 0.0 0.0
RD11 ? BHZ e P c 20241210 2034 51.580 GAU 0.0 0.0 0.0 0.0
RD02 ? BHZ e P c 20241210 2034 51.290 GAU 0.0 0.0 0.0 0.0
RD01 ? BHZ e P c 20241210 2034 51.600 GAU 0.0 0.0 0.0 0.0
RD02 ? BHN e S c 20241210 2034 51.660 GAU 0.0 0.0 0.0 0.0
