RD06 ? BHZ e P c 20241212 2322 48.040 GAU 0.0 0.0 0.0 0.0
RD03 ? BHZ e P c 20241212 2322 47.910 GAU 0.0 0.0 0.0 0.0
RD11 ? BHZ e P c 20241212 2322 47.800 GAU 0.0 0.0 0.0 0.0
RD05 ? BHZ e P c 20241212 2322 48.170 GAU 0.0 0.0 0.0 0.0
RD07 ? BHZ e P c 20241212 2322 48.040 GAU 0.0 0.0 0.0 0.0
RD04 ? BHN e S c 20241212 2322 48.200 GAU 0.0 0.0 0.0 0.0
RD02 ? BHN e S c 20241212 2322 47.980 GAU 0.0 0.0 0.0 0.0
RD02 ? BHZ e P c 20241212 2322 47.550 GAU 0.0 0.0 0.0 0.0
RD01 ? BHZ e P c 20241212 2322 47.800 GAU 0.0 0.0 0.0 0.0
RD04 ? BHZ e P c 20241212 2322 47.580 GAU 0.0 0.0 0.0 0.0
