RD09 ? BHN e S c 20241229 1034 24.610 GAU 0.0 0.0 0.0 0.0
RD10 ? BHN e S c 20241229 1034 24.420 GAU 0.0 0.0 0.0 0.0
RD13 ? BHZ e P c 20241229 1034 24.160 GAU 0.0 0.0 0.0 0.0
RD13 ? BHN e S c 20241229 1034 24.210 GAU 0.0 0.0 0.0 0.0
RD14 ? BHN e S c 20241229 1034 24.130 GAU 0.0 0.0 0.0 0.0
RD15 ? BHN e S c 20241229 1034 24.350 GAU 0.0 0.0 0.0 0.0
RD15 ? BHZ e P c 20241229 1034 24.220 GAU 0.0 0.0 0.0 0.0
