RD13 ? BHN e S c 20241223 1443 35.390 GAU 0.0 0.0 0.0 0.0
RD14 ? BHN e S c 20241223 1443 35.410 GAU 0.0 0.0 0.0 0.0
RD13 ? BHZ e P c 20241223 1443 35.330 GAU 0.0 0.0 0.0 0.0
RD10 ? BHN e S c 20241223 1443 34.930 GAU 0.0 0.0 0.0 0.0
RD11 ? BHN e S c 20241223 1443 35.330 GAU 0.0 0.0 0.0 0.0
RD11 ? BHZ e P c 20241223 1443 35.300 GAU 0.0 0.0 0.0 0.0
