RD08 ? BHN e S c 20241231 1010 50.690 GAU 0.0 0.0 0.0 0.0
RD10 ? BHN e S c 20241231 1010 51.150 GAU 0.0 0.0 0.0 0.0
RD11 ? BHN e S c 20241231 1010 51.140 GAU 0.0 0.0 0.0 0.0
RD13 ? BHN e S c 20241231 1010 51.230 GAU 0.0 0.0 0.0 0.0
RD14 ? BHN e S c 20241231 1010 50.860 GAU 0.0 0.0 0.0 0.0
RD15 ? BHZ e P c 20241231 1010 51.490 GAU 0.0 0.0 0.0 0.0
