RD15 ? BHN e S c 20241228 0010 02.790 GAU 0.0 0.0 0.0 0.0
RD15 ? BHZ e P c 20241228 0010 02.060 GAU 0.0 0.0 0.0 0.0
RD14 ? BHN e S c 20241228 0010 02.330 GAU 0.0 0.0 0.0 0.0
RD13 ? BHN e S c 20241228 0010 01.910 GAU 0.0 0.0 0.0 0.0
RD11 ? BHZ e P c 20241228 0010 01.710 GAU 0.0 0.0 0.0 0.0
RD13 ? BHZ e P c 20241228 0010 01.940 GAU 0.0 0.0 0.0 0.0
