RD09 ? BHN e S c 20241220 0107 12.240 GAU 0.0 0.0 0.0 0.0
RD14 ? BHN e S c 20241220 0107 11.860 GAU 0.0 0.0 0.0 0.0
RD11 ? BHN e S c 20241220 0107 12.170 GAU 0.0 0.0 0.0 0.0
RD11 ? BHZ e P c 20241220 0107 12.160 GAU 0.0 0.0 0.0 0.0
RD10 ? BHZ e P c 20241220 0107 12.660 GAU 0.0 0.0 0.0 0.0
RD09 ? BHZ e P c 20241220 0107 12.250 GAU 0.0 0.0 0.0 0.0
