RD13 ? BHZ e P c 20241231 2247 25.400 GAU 0.0 0.0 0.0 0.0
RD14 ? BHZ e P c 20241231 2247 24.920 GAU 0.0 0.0 0.0 0.0
RD11 ? BHZ e P c 20241231 2247 25.440 GAU 0.0 0.0 0.0 0.0
RD11 ? BHN e S c 20241231 2247 25.490 GAU 0.0 0.0 0.0 0.0
RD13 ? BHN e S c 20241231 2247 25.410 GAU 0.0 0.0 0.0 0.0
RD15 ? BHZ e P c 20241231 2247 25.120 GAU 0.0 0.0 0.0 0.0
