RD05 ? BHZ e P c 20241227 0040 12.160 GAU 0.0 0.0 0.0 0.0
RD05 ? BHN e S c 20241227 0040 12.740 GAU 0.0 0.0 0.0 0.0
RD06 ? BHZ e P c 20241227 0040 12.130 GAU 0.0 0.0 0.0 0.0
RD06 ? BHN e S c 20241227 0040 12.580 GAU 0.0 0.0 0.0 0.0
RD07 ? BHN e S c 20241227 0040 12.800 GAU 0.0 0.0 0.0 0.0
RD07 ? BHZ e P c 20241227 0040 12.820 GAU 0.0 0.0 0.0 0.0
