RD15 ? BHZ e P c 20241213 1147 36.410 GAU 0.0 0.0 0.0 0.0
RD14 ? BHZ e P c 20241213 1147 36.230 GAU 0.0 0.0 0.0 0.0
RD11 ? BHN e S c 20241213 1147 35.970 GAU 0.0 0.0 0.0 0.0
RD13 ? BHZ e P c 20241213 1147 36.300 GAU 0.0 0.0 0.0 0.0
RD10 ? BHZ e P c 20241213 1147 36.250 GAU 0.0 0.0 0.0 0.0
RD09 ? BHZ e P c 20241213 1147 36.370 GAU 0.0 0.0 0.0 0.0
RD06 ? BHZ e P c 20241213 1147 36.290 GAU 0.0 0.0 0.0 0.0
RD11 ? BHZ e P c 20241213 1147 35.690 GAU 0.0 0.0 0.0 0.0
