RD07 ? BHZ e P c 20241228 0858 34.770 GAU 0.0 0.0 0.0 0.0
RD06 ? BHZ e P c 20241228 0858 34.700 GAU 0.0 0.0 0.0 0.0
RD05 ? BHZ e P c 20241228 0858 34.820 GAU 0.0 0.0 0.0 0.0
RD04 ? BHZ e P c 20241228 0858 34.390 GAU 0.0 0.0 0.0 0.0
RD03 ? BHZ e P c 20241228 0858 34.510 GAU 0.0 0.0 0.0 0.0
RD02 ? BHZ e P c 20241228 0858 34.230 GAU 0.0 0.0 0.0 0.0
RD02 ? BHN e S c 20241228 0858 34.620 GAU 0.0 0.0 0.0 0.0
RD01 ? BHZ e P c 20241228 0858 34.410 GAU 0.0 0.0 0.0 0.0
