RD14 ? BHZ e P c 20241214 0648 13.800 GAU 0.0 0.0 0.0 0.0
RD11 ? BHN e S c 20241214 0648 13.350 GAU 0.0 0.0 0.0 0.0
RD10 ? BHN e S c 20241214 0648 13.090 GAU 0.0 0.0 0.0 0.0
RD09 ? BHZ e P c 20241214 0648 13.900 GAU 0.0 0.0 0.0 0.0
RD10 ? BHZ e P c 20241214 0648 13.040 GAU 0.0 0.0 0.0 0.0
RD06 ? BHZ e P c 20241214 0648 13.430 GAU 0.0 0.0 0.0 0.0
RD06 ? BHN e S c 20241214 0648 13.430 GAU 0.0 0.0 0.0 0.0
RD03 ? BHN e S c 20241214 0648 13.340 GAU 0.0 0.0 0.0 0.0
RD01 ? BHN e S c 20241214 0648 13.380 GAU 0.0 0.0 0.0 0.0
RD09 ? BHN e S c 20241214 0648 13.740 GAU 0.0 0.0 0.0 0.0
