RD15 ? BHN e S c 20241209 1818 59.440 GAU 0.0 0.0 0.0 0.0
RD14 ? BHN e S c 20241209 1818 59.360 GAU 0.0 0.0 0.0 0.0
RD13 ? BHN e S c 20241209 1818 59.180 GAU 0.0 0.0 0.0 0.0
RD11 ? BHN e S c 20241209 1818 58.360 GAU 0.0 0.0 0.0 0.0
RD09 ? BHN e S c 20241209 1818 59.110 GAU 0.0 0.0 0.0 0.0
RD08 ? BHN e S c 20241209 1818 58.870 GAU 0.0 0.0 0.0 0.0
RD10 ? BHN e S c 20241209 1818 59.380 GAU 0.0 0.0 0.0 0.0
RD07 ? BHN e S c 20241209 1818 58.500 GAU 0.0 0.0 0.0 0.0
RD06 ? BHN e S c 20241209 1818 58.420 GAU 0.0 0.0 0.0 0.0
RD05 ? BHN e S c 20241209 1818 59.030 GAU 0.0 0.0 0.0 0.0
RD03 ? BHN e S c 20241209 1818 58.490 GAU 0.0 0.0 0.0 0.0
RD02 ? BHN e S c 20241209 1818 58.170 GAU 0.0 0.0 0.0 0.0
RD07 ? BHZ e P c 20241209 1818 58.230 GAU 0.0 0.0 0.0 0.0
