RD03 ? BHZ e P c 20241208 2324 51.900 GAU 0.0 0.0 0.0 0.0
RD05 ? BHN e S c 20241208 2324 52.810 GAU 0.0 0.0 0.0 0.0
RD05 ? BHZ e P c 20241208 2324 52.140 GAU 0.0 0.0 0.0 0.0
RD07 ? BHZ e P c 20241208 2324 52.210 GAU 0.0 0.0 0.0 0.0
RD04 ? BHN e S c 20241208 2324 52.760 GAU 0.0 0.0 0.0 0.0
RD07 ? BHN e S c 20241208 2324 52.780 GAU 0.0 0.0 0.0 0.0
RD03 ? BHN e S c 20241208 2324 52.350 GAU 0.0 0.0 0.0 0.0
RD06 ? BHN e S c 20241208 2324 52.580 GAU 0.0 0.0 0.0 0.0
RD11 ? BHN e S c 20241208 2324 52.620 GAU 0.0 0.0 0.0 0.0
RD06 ? BHZ e P c 20241208 2324 51.980 GAU 0.0 0.0 0.0 0.0
RD02 ? BHN e S c 20241208 2324 52.610 GAU 0.0 0.0 0.0 0.0
RD02 ? BHZ e P c 20241208 2324 51.620 GAU 0.0 0.0 0.0 0.0
RD01 ? BHN e S c 20241208 2324 52.670 GAU 0.0 0.0 0.0 0.0
RD14 ? BHZ e P c 20241208 2324 52.810 GAU 0.0 0.0 0.0 0.0
