RD10 ? BHN e S c 20241215 1131 27.910 GAU 0.0 0.0 0.0 0.0
RD11 ? BHN e S c 20241215 1131 27.300 GAU 0.0 0.0 0.0 0.0
RD13 ? BHN e S c 20241215 1131 27.480 GAU 0.0 0.0 0.0 0.0
RD14 ? BHN e S c 20241215 1131 27.600 GAU 0.0 0.0 0.0 0.0
RD15 ? BHN e S c 20241215 1131 27.330 GAU 0.0 0.0 0.0 0.0
RD15 ? BHZ e P c 20241215 1131 27.260 GAU 0.0 0.0 0.0 0.0
