RD15 ? BHN e S c 20241231 2030 17.170 GAU 0.0 0.0 0.0 0.0
RD15 ? BHZ e P c 20241231 2030 17.040 GAU 0.0 0.0 0.0 0.0
RD13 ? BHN e S c 20241231 2030 17.500 GAU 0.0 0.0 0.0 0.0
RD11 ? BHZ e P c 20241231 2030 17.100 GAU 0.0 0.0 0.0 0.0
RD13 ? BHZ e P c 20241231 2030 17.400 GAU 0.0 0.0 0.0 0.0
RD11 ? BHN e S c 20241231 2030 17.180 GAU 0.0 0.0 0.0 0.0
