RD11 ? BHN e S c 20241230 1250 26.860 GAU 0.0 0.0 0.0 0.0
RD13 ? BHN e S c 20241230 1250 27.160 GAU 0.0 0.0 0.0 0.0
RD14 ? BHN e S c 20241230 1250 27.410 GAU 0.0 0.0 0.0 0.0
RD14 ? BHZ e P c 20241230 1250 27.440 GAU 0.0 0.0 0.0 0.0
RD15 ? BHZ e P c 20241230 1250 27.220 GAU 0.0 0.0 0.0 0.0
RD15 ? BHN e S c 20241230 1250 27.260 GAU 0.0 0.0 0.0 0.0
