RD15 ? BHZ e P c 20241231 2206 12.140 GAU 0.0 0.0 0.0 0.0
RD15 ? BHN e S c 20241231 2206 12.270 GAU 0.0 0.0 0.0 0.0
RD11 ? BHN e S c 20241231 2206 11.980 GAU 0.0 0.0 0.0 0.0
RD13 ? BHN e S c 20241231 2206 12.400 GAU 0.0 0.0 0.0 0.0
RD14 ? BHZ e P c 20241231 2206 12.730 GAU 0.0 0.0 0.0 0.0
RD14 ? BHN e S c 20241231 2206 12.920 GAU 0.0 0.0 0.0 0.0
