RD15 ? BHN e S c 20241219 1114 55.820 GAU 0.0 0.0 0.0 0.0
RD15 ? BHZ e P c 20241219 1114 54.820 GAU 0.0 0.0 0.0 0.0
RD14 ? BHN e S c 20241219 1114 56.220 GAU 0.0 0.0 0.0 0.0
RD13 ? BHN e S c 20241219 1114 55.550 GAU 0.0 0.0 0.0 0.0
RD14 ? BHZ e P c 20241219 1114 56.170 GAU 0.0 0.0 0.0 0.0
RD11 ? BHZ e P c 20241219 1114 55.220 GAU 0.0 0.0 0.0 0.0
RD11 ? BHN e S c 20241219 1114 55.310 GAU 0.0 0.0 0.0 0.0
RD10 ? BHZ e P c 20241219 1114 56.060 GAU 0.0 0.0 0.0 0.0
RD13 ? BHZ e P c 20241219 1114 55.340 GAU 0.0 0.0 0.0 0.0
