RD15 ? BHN e S c 20241210 0737 47.840 GAU 0.0 0.0 0.0 0.0
RD14 ? BHN e S c 20241210 0737 47.520 GAU 0.0 0.0 0.0 0.0
RD05 ? BHN e S c 20241210 0737 48.870 GAU 0.0 0.0 0.0 0.0
RD06 ? BHN e S c 20241210 0737 48.460 GAU 0.0 0.0 0.0 0.0
RD08 ? BHZ e P c 20241210 0737 47.990 GAU 0.0 0.0 0.0 0.0
RD11 ? BHN e S c 20241210 0737 47.380 GAU 0.0 0.0 0.0 0.0
RD10 ? BHN e S c 20241210 0737 47.980 GAU 0.0 0.0 0.0 0.0
RD07 ? BHN e S c 20241210 0737 48.260 GAU 0.0 0.0 0.0 0.0
RD08 ? BHN e S c 20241210 0737 48.120 GAU 0.0 0.0 0.0 0.0
RD12 ? BHN e S c 20241210 0737 47.650 GAU 0.0 0.0 0.0 0.0
