RD15 ? BHZ e P c 20241215 1349 10.390 GAU 0.0 0.0 0.0 0.0
RD15 ? BHN e S c 20241215 1349 10.640 GAU 0.0 0.0 0.0 0.0
RD13 ? BHN e S c 20241215 1349 10.790 GAU 0.0 0.0 0.0 0.0
RD14 ? BHZ e P c 20241215 1349 11.120 GAU 0.0 0.0 0.0 0.0
RD11 ? BHN e S c 20241215 1349 11.470 GAU 0.0 0.0 0.0 0.0
RD13 ? BHZ e P c 20241215 1349 10.590 GAU 0.0 0.0 0.0 0.0
RD10 ? BHZ e P c 20241215 1349 11.140 GAU 0.0 0.0 0.0 0.0
RD08 ? BHN e S c 20241215 1349 10.660 GAU 0.0 0.0 0.0 0.0
