RD11 ? BHZ e P c 20241213 2348 50.290 GAU 0.0 0.0 0.0 0.0
RD05 ? BHZ e P c 20241213 2348 50.490 GAU 0.0 0.0 0.0 0.0
RD04 ? BHN e S c 20241213 2348 50.530 GAU 0.0 0.0 0.0 0.0
RD04 ? BHZ e P c 20241213 2348 49.900 GAU 0.0 0.0 0.0 0.0
RD02 ? BHN e S c 20241213 2348 50.300 GAU 0.0 0.0 0.0 0.0
RD03 ? BHZ e P c 20241213 2348 50.220 GAU 0.0 0.0 0.0 0.0
RD02 ? BHZ e P c 20241213 2348 49.870 GAU 0.0 0.0 0.0 0.0
RD01 ? BHZ e P c 20241213 2348 50.120 GAU 0.0 0.0 0.0 0.0
RD06 ? BHZ e P c 20241213 2348 50.370 GAU 0.0 0.0 0.0 0.0
