RD14 ? BHZ e P c 20241215 1406 49.300 GAU 0.0 0.0 0.0 0.0
RD13 ? BHN e S c 20241215 1406 49.310 GAU 0.0 0.0 0.0 0.0
RD15 ? BHZ e P c 20241215 1406 48.990 GAU 0.0 0.0 0.0 0.0
RD11 ? BHZ e P c 20241215 1406 48.950 GAU 0.0 0.0 0.0 0.0
RD11 ? BHN e S c 20241215 1406 48.950 GAU 0.0 0.0 0.0 0.0
RD13 ? BHZ e P c 20241215 1406 49.310 GAU 0.0 0.0 0.0 0.0
