RD14 ? BHN e S c 20241229 1116 11.970 GAU 0.0 0.0 0.0 0.0
RD15 ? BHZ e P c 20241229 1116 11.550 GAU 0.0 0.0 0.0 0.0
RD14 ? BHZ e P c 20241229 1116 11.950 GAU 0.0 0.0 0.0 0.0
RD13 ? BHZ e P c 20241229 1116 11.880 GAU 0.0 0.0 0.0 0.0
RD09 ? BHN e S c 20241229 1116 12.250 GAU 0.0 0.0 0.0 0.0
RD10 ? BHZ e P c 20241229 1116 11.850 GAU 0.0 0.0 0.0 0.0
RD10 ? BHN e S c 20241229 1116 11.900 GAU 0.0 0.0 0.0 0.0
RD13 ? BHN e S c 20241229 1116 11.950 GAU 0.0 0.0 0.0 0.0
