RD07 ? BHN e S c 20241220 0118 17.680 GAU 0.0 0.0 0.0 0.0
RD11 ? BHZ e P c 20241220 0118 17.360 GAU 0.0 0.0 0.0 0.0
RD05 ? BHZ e P c 20241220 0118 17.620 GAU 0.0 0.0 0.0 0.0
RD06 ? BHZ e P c 20241220 0118 17.220 GAU 0.0 0.0 0.0 0.0
RD02 ? BHZ e P c 20241220 0118 17.000 GAU 0.0 0.0 0.0 0.0
RD03 ? BHZ e P c 20241220 0118 17.290 GAU 0.0 0.0 0.0 0.0
RD01 ? BHZ e P c 20241220 0118 17.240 GAU 0.0 0.0 0.0 0.0
RD03 ? BHN e S c 20241220 0118 17.560 GAU 0.0 0.0 0.0 0.0
RD04 ? BHZ e P c 20241220 0118 17.150 GAU 0.0 0.0 0.0 0.0
