RD10 ? BHN e S c 20241223 2151 13.490 GAU 0.0 0.0 0.0 0.0
RD11 ? BHN e S c 20241223 2151 13.670 GAU 0.0 0.0 0.0 0.0
RD13 ? BHN e S c 20241223 2151 13.380 GAU 0.0 0.0 0.0 0.0
RD13 ? BHZ e P c 20241223 2151 13.750 GAU 0.0 0.0 0.0 0.0
RD14 ? BHN e S c 20241223 2151 13.150 GAU 0.0 0.0 0.0 0.0
RD15 ? BHZ e P c 20241223 2151 13.380 GAU 0.0 0.0 0.0 0.0
RD15 ? BHN e S c 20241223 2151 13.430 GAU 0.0 0.0 0.0 0.0
