RD08 ? BHZ e P c 20241216 0325 19.480 GAU 0.0 0.0 0.0 0.0
RD09 ? BHN e S c 20241216 0325 19.600 GAU 0.0 0.0 0.0 0.0
RD10 ? BHN e S c 20241216 0325 19.730 GAU 0.0 0.0 0.0 0.0
RD12 ? BHN e S c 20241216 0325 19.790 GAU 0.0 0.0 0.0 0.0
RD13 ? BHN e S c 20241216 0325 20.230 GAU 0.0 0.0 0.0 0.0
RD14 ? BHN e S c 20241216 0325 19.620 GAU 0.0 0.0 0.0 0.0
RD15 ? BHN e S c 20241216 0325 19.890 GAU 0.0 0.0 0.0 0.0
