RD15 ? BHZ e P c 20241231 2215 33.190 GAU 0.0 0.0 0.0 0.0
RD15 ? BHN e S c 20241231 2215 33.320 GAU 0.0 0.0 0.0 0.0
RD11 ? BHZ e P c 20241231 2215 33.050 GAU 0.0 0.0 0.0 0.0
RD13 ? BHZ e P c 20241231 2215 33.370 GAU 0.0 0.0 0.0 0.0
RD13 ? BHN e S c 20241231 2215 33.480 GAU 0.0 0.0 0.0 0.0
RD11 ? BHN e S c 20241231 2215 33.120 GAU 0.0 0.0 0.0 0.0
