RD07 ? BHZ e P c 20241208 2336 34.560 GAU 0.0 0.0 0.0 0.0
RD07 ? BHN e S c 20241208 2336 35.090 GAU 0.0 0.0 0.0 0.0
RD10 ? BHZ e P c 20241208 2336 34.520 GAU 0.0 0.0 0.0 0.0
RD06 ? BHN e S c 20241208 2336 35.000 GAU 0.0 0.0 0.0 0.0
RD06 ? BHZ e P c 20241208 2336 34.540 GAU 0.0 0.0 0.0 0.0
RD13 ? BHZ e P c 20241208 2336 34.840 GAU 0.0 0.0 0.0 0.0
RD11 ? BHZ e P c 20241208 2336 34.080 GAU 0.0 0.0 0.0 0.0
RD15 ? BHZ e P c 20241208 2336 35.200 GAU 0.0 0.0 0.0 0.0
RD11 ? BHN e S c 20241208 2336 35.060 GAU 0.0 0.0 0.0 0.0
RD14 ? BHZ e P c 20241208 2336 35.200 GAU 0.0 0.0 0.0 0.0
RD05 ? BHN e S c 20241208 2336 35.300 GAU 0.0 0.0 0.0 0.0
RD01 ? BHN e S c 20241208 2336 35.090 GAU 0.0 0.0 0.0 0.0
RD05 ? BHZ e P c 20241208 2336 34.530 GAU 0.0 0.0 0.0 0.0
RD04 ? BHN e S c 20241208 2336 35.180 GAU 0.0 0.0 0.0 0.0
RD01 ? BHZ e P c 20241208 2336 34.400 GAU 0.0 0.0 0.0 0.0
RD04 ? BHZ e P c 20241208 2336 34.380 GAU 0.0 0.0 0.0 0.0
RD03 ? BHN e S c 20241208 2336 34.810 GAU 0.0 0.0 0.0 0.0
RD02 ? BHZ e P c 20241208 2336 34.060 GAU 0.0 0.0 0.0 0.0
RD02 ? BHN e S c 20241208 2336 35.120 GAU 0.0 0.0 0.0 0.0
RD03 ? BHZ e P c 20241208 2336 34.280 GAU 0.0 0.0 0.0 0.0
