RD14 ? BHN e S c 20241222 1519 27.750 GAU 0.0 0.0 0.0 0.0
RD15 ? BHN e S c 20241222 1519 27.400 GAU 0.0 0.0 0.0 0.0
RD15 ? BHZ e P c 20241222 1519 26.960 GAU 0.0 0.0 0.0 0.0
RD14 ? BHZ e P c 20241222 1519 27.520 GAU 0.0 0.0 0.0 0.0
RD13 ? BHZ e P c 20241222 1519 26.640 GAU 0.0 0.0 0.0 0.0
RD13 ? BHN e S c 20241222 1519 26.690 GAU 0.0 0.0 0.0 0.0
RD11 ? BHZ e P c 20241222 1519 26.960 GAU 0.0 0.0 0.0 0.0
RD11 ? BHN e S c 20241222 1519 27.010 GAU 0.0 0.0 0.0 0.0
