RD02 ? BHN e S c 20241210 2034 52.430 GAU 0.0 0.0 0.0 0.0
RD06 ? BHN e S c 20241210 2034 52.440 GAU 0.0 0.0 0.0 0.0
RD03 ? BHN e S c 20241210 2034 52.240 GAU 0.0 0.0 0.0 0.0
RD10 ? BHZ e P c 20241210 2034 52.220 GAU 0.0 0.0 0.0 0.0
RD05 ? BHN e S c 20241210 2034 52.820 GAU 0.0 0.0 0.0 0.0
RD07 ? BHN e S c 20241210 2034 52.770 GAU 0.0 0.0 0.0 0.0
RD01 ? BHN e S c 20241210 2034 52.350 GAU 0.0 0.0 0.0 0.0
RD04 ? BHN e S c 20241210 2034 52.140 GAU 0.0 0.0 0.0 0.0
RD09 ? BHN e S c 20241210 2034 52.610 GAU 0.0 0.0 0.0 0.0
