RD15 ? BHN e S c 20241229 2256 51.740 GAU 0.0 0.0 0.0 0.0
RD14 ? BHN e S c 20241229 2256 51.080 GAU 0.0 0.0 0.0 0.0
RD13 ? BHN e S c 20241229 2256 51.380 GAU 0.0 0.0 0.0 0.0
RD11 ? BHN e S c 20241229 2256 51.090 GAU 0.0 0.0 0.0 0.0
RD09 ? BHN e S c 20241229 2256 51.680 GAU 0.0 0.0 0.0 0.0
RD08 ? BHN e S c 20241229 2256 51.650 GAU 0.0 0.0 0.0 0.0
RD07 ? BHZ e P c 20241229 2256 51.150 GAU 0.0 0.0 0.0 0.0
RD10 ? BHN e S c 20241229 2256 50.880 GAU 0.0 0.0 0.0 0.0
