RD12 ? BHZ e P c 20241209 2016 18.640 GAU 0.0 0.0 0.0 0.0
RD15 ? BHN e S c 20241209 2016 19.060 GAU 0.0 0.0 0.0 0.0
RD15 ? BHZ e P c 20241209 2016 18.970 GAU 0.0 0.0 0.0 0.0
RD14 ? BHZ e P c 20241209 2016 18.670 GAU 0.0 0.0 0.0 0.0
RD13 ? BHN e S c 20241209 2016 18.960 GAU 0.0 0.0 0.0 0.0
RD13 ? BHZ e P c 20241209 2016 18.810 GAU 0.0 0.0 0.0 0.0
RD11 ? BHZ e P c 20241209 2016 18.330 GAU 0.0 0.0 0.0 0.0
RD10 ? BHZ e P c 20241209 2016 18.720 GAU 0.0 0.0 0.0 0.0
RD09 ? BHZ e P c 20241209 2016 18.940 GAU 0.0 0.0 0.0 0.0
RD08 ? BHZ e P c 20241209 2016 19.020 GAU 0.0 0.0 0.0 0.0
RD07 ? BHZ e P c 20241209 2016 19.120 GAU 0.0 0.0 0.0 0.0
RD06 ? BHZ e P c 20241209 2016 19.200 GAU 0.0 0.0 0.0 0.0
RD05 ? BHZ e P c 20241209 2016 19.420 GAU 0.0 0.0 0.0 0.0
RD03 ? BHZ e P c 20241209 2016 19.480 GAU 0.0 0.0 0.0 0.0
RD02 ? BHZ e P c 20241209 2016 19.340 GAU 0.0 0.0 0.0 0.0
