RD13 ? BHZ e P c 20241211 1556 11.360 GAU 0.0 0.0 0.0 0.0
RD13 ? BHN e S c 20241211 1556 10.870 GAU 0.0 0.0 0.0 0.0
RD15 ? BHN e S c 20241211 1556 11.430 GAU 0.0 0.0 0.0 0.0
RD11 ? BHZ e P c 20241211 1556 11.260 GAU 0.0 0.0 0.0 0.0
RD10 ? BHN e S c 20241211 1556 11.690 GAU 0.0 0.0 0.0 0.0
RD11 ? BHN e S c 20241211 1556 11.270 GAU 0.0 0.0 0.0 0.0
