RD15 ? BHZ e P c 20241210 0021 01.250 GAU 0.0 0.0 0.0 0.0
RD14 ? BHZ e P c 20241210 0021 01.510 GAU 0.0 0.0 0.0 0.0
RD14 ? BHN e S c 20241210 0021 01.810 GAU 0.0 0.0 0.0 0.0
RD12 ? BHZ e P c 20241210 0021 01.830 GAU 0.0 0.0 0.0 0.0
RD10 ? BHN e S c 20241210 0021 02.110 GAU 0.0 0.0 0.0 0.0
RD12 ? BHN e S c 20241210 0021 01.970 GAU 0.0 0.0 0.0 0.0
