RD15 ? BHN e S c 20241216 1811 14.960 GAU 0.0 0.0 0.0 0.0
RD10 ? BHN e S c 20241216 1811 14.410 GAU 0.0 0.0 0.0 0.0
RD11 ? BHZ e P c 20241216 1811 12.760 GAU 0.0 0.0 0.0 0.0
RD11 ? BHN e S c 20241216 1811 13.620 GAU 0.0 0.0 0.0 0.0
RD12 ? BHZ e P c 20241216 1811 13.690 GAU 0.0 0.0 0.0 0.0
RD14 ? BHN e S c 20241216 1811 14.880 GAU 0.0 0.0 0.0 0.0
RD13 ? BHZ e P c 20241216 1811 13.510 GAU 0.0 0.0 0.0 0.0
RD13 ? BHN e S c 20241216 1811 14.410 GAU 0.0 0.0 0.0 0.0
RD14 ? BHZ e P c 20241216 1811 13.790 GAU 0.0 0.0 0.0 0.0
RD15 ? BHZ e P c 20241216 1811 13.920 GAU 0.0 0.0 0.0 0.0
RD10 ? BHZ e P c 20241216 1811 13.430 GAU 0.0 0.0 0.0 0.0
RD12 ? BHN e S c 20241216 1811 14.650 GAU 0.0 0.0 0.0 0.0
RD09 ? BHN e S c 20241216 1811 14.180 GAU 0.0 0.0 0.0 0.0
RD08 ? BHZ e P c 20241216 1811 13.150 GAU 0.0 0.0 0.0 0.0
RD08 ? BHN e S c 20241216 1811 14.020 GAU 0.0 0.0 0.0 0.0
RD09 ? BHZ e P c 20241216 1811 13.280 GAU 0.0 0.0 0.0 0.0
RD02 ? BHZ e P c 20241216 1811 13.270 GAU 0.0 0.0 0.0 0.0
RD03 ? BHZ e P c 20241216 1811 13.100 GAU 0.0 0.0 0.0 0.0
RD03 ? BHN e S c 20241216 1811 13.630 GAU 0.0 0.0 0.0 0.0
RD05 ? BHZ e P c 20241216 1811 12.950 GAU 0.0 0.0 0.0 0.0
RD01 ? BHZ e P c 20241216 1811 13.460 GAU 0.0 0.0 0.0 0.0
RD06 ? BHZ e P c 20241216 1811 12.900 GAU 0.0 0.0 0.0 0.0
RD06 ? BHN e S c 20241216 1811 13.590 GAU 0.0 0.0 0.0 0.0
RD07 ? BHZ e P c 20241216 1811 13.060 GAU 0.0 0.0 0.0 0.0
RD07 ? BHN e S c 20241216 1811 13.630 GAU 0.0 0.0 0.0 0.0
RD05 ? BHN e S c 20241216 1811 13.530 GAU 0.0 0.0 0.0 0.0
