RD15 ? BHN e S c 20241227 0741 14.910 GAU 0.0 0.0 0.0 0.0
RD13 ? BHN e S c 20241227 0741 14.680 GAU 0.0 0.0 0.0 0.0
RD11 ? BHN e S c 20241227 0741 13.920 GAU 0.0 0.0 0.0 0.0
RD10 ? BHN e S c 20241227 0741 14.880 GAU 0.0 0.0 0.0 0.0
RD09 ? BHN e S c 20241227 0741 14.620 GAU 0.0 0.0 0.0 0.0
RD14 ? BHN e S c 20241227 0741 14.950 GAU 0.0 0.0 0.0 0.0
RD08 ? BHZ e P c 20241227 0741 14.120 GAU 0.0 0.0 0.0 0.0
RD07 ? BHZ e P c 20241227 0741 14.070 GAU 0.0 0.0 0.0 0.0
RD07 ? BHN e S c 20241227 0741 14.140 GAU 0.0 0.0 0.0 0.0
RD06 ? BHN e S c 20241227 0741 14.050 GAU 0.0 0.0 0.0 0.0
RD03 ? BHZ e P c 20241227 0741 13.980 GAU 0.0 0.0 0.0 0.0
RD08 ? BHN e S c 20241227 0741 14.250 GAU 0.0 0.0 0.0 0.0
