RD15 ? BHN e S c 20241223 0643 42.980 GAU 0.0 0.0 0.0 0.0
RD14 ? BHN e S c 20241223 0643 43.240 GAU 0.0 0.0 0.0 0.0
RD14 ? BHZ e P c 20241223 0643 43.010 GAU 0.0 0.0 0.0 0.0
RD13 ? BHZ e P c 20241223 0643 43.170 GAU 0.0 0.0 0.0 0.0
RD11 ? BHN e S c 20241223 0643 43.490 GAU 0.0 0.0 0.0 0.0
RD11 ? BHZ e P c 20241223 0643 43.400 GAU 0.0 0.0 0.0 0.0
RD13 ? BHN e S c 20241223 0643 43.330 GAU 0.0 0.0 0.0 0.0
