RD13 ? BHN e S c 20241221 0429 42.850 GAU 0.0 0.0 0.0 0.0
RD14 ? BHN e S c 20241221 0429 42.960 GAU 0.0 0.0 0.0 0.0
RD15 ? BHN e S c 20241221 0429 43.250 GAU 0.0 0.0 0.0 0.0
RD12 ? BHN e S c 20241221 0429 42.660 GAU 0.0 0.0 0.0 0.0
RD12 ? BHZ e P c 20241221 0429 42.590 GAU 0.0 0.0 0.0 0.0
RD09 ? BHN e S c 20241221 0429 42.360 GAU 0.0 0.0 0.0 0.0
RD10 ? BHN e S c 20241221 0429 42.890 GAU 0.0 0.0 0.0 0.0
RD08 ? BHN e S c 20241221 0429 42.260 GAU 0.0 0.0 0.0 0.0
RD07 ? BHN e S c 20241221 0429 41.680 GAU 0.0 0.0 0.0 0.0
RD06 ? BHN e S c 20241221 0429 42.170 GAU 0.0 0.0 0.0 0.0
RD05 ? BHN e S c 20241221 0429 41.680 GAU 0.0 0.0 0.0 0.0
RD03 ? BHN e S c 20241221 0429 41.910 GAU 0.0 0.0 0.0 0.0
RD11 ? BHN e S c 20241221 0429 41.730 GAU 0.0 0.0 0.0 0.0
