RD13 ? BHN e S c 20241231 2051 36.000 GAU 0.0 0.0 0.0 0.0
RD13 ? BHZ e P c 20241231 2051 35.790 GAU 0.0 0.0 0.0 0.0
RD14 ? BHZ e P c 20241231 2051 36.520 GAU 0.0 0.0 0.0 0.0
RD15 ? BHN e S c 20241231 2051 36.200 GAU 0.0 0.0 0.0 0.0
RD15 ? BHZ e P c 20241231 2051 36.040 GAU 0.0 0.0 0.0 0.0
RD11 ? BHN e S c 20241231 2051 35.880 GAU 0.0 0.0 0.0 0.0
