RD06 ? BHN e S c 20241229 1823 35.970 GAU 0.0 0.0 0.0 0.0
RD07 ? BHZ e P c 20241229 1823 36.170 GAU 0.0 0.0 0.0 0.0
RD08 ? BHZ e P c 20241229 1823 35.730 GAU 0.0 0.0 0.0 0.0
RD09 ? BHN e S c 20241229 1823 36.440 GAU 0.0 0.0 0.0 0.0
RD10 ? BHN e S c 20241229 1823 36.690 GAU 0.0 0.0 0.0 0.0
RD11 ? BHN e S c 20241229 1823 35.570 GAU 0.0 0.0 0.0 0.0
RD11 ? BHZ e P c 20241229 1823 35.500 GAU 0.0 0.0 0.0 0.0
RD13 ? BHN e S c 20241229 1823 36.420 GAU 0.0 0.0 0.0 0.0
