RD15 ? BHZ e P c 20241226 0624 27.080 GAU 0.0 0.0 0.0 0.0
RD13 ? BHN e S c 20241226 0624 27.040 GAU 0.0 0.0 0.0 0.0
RD13 ? BHZ e P c 20241226 0624 27.050 GAU 0.0 0.0 0.0 0.0
RD14 ? BHN e S c 20241226 0624 27.290 GAU 0.0 0.0 0.0 0.0
RD10 ? BHZ e P c 20241226 0624 27.220 GAU 0.0 0.0 0.0 0.0
RD10 ? BHN e S c 20241226 0624 27.290 GAU 0.0 0.0 0.0 0.0
RD15 ? BHN e S c 20241226 0624 27.280 GAU 0.0 0.0 0.0 0.0
