RD14 ? BHZ e P c 20241226 0620 26.910 GAU 0.0 0.0 0.0 0.0
RD15 ? BHN e S c 20241226 0620 26.450 GAU 0.0 0.0 0.0 0.0
RD15 ? BHZ e P c 20241226 0620 26.280 GAU 0.0 0.0 0.0 0.0
RD14 ? BHN e S c 20241226 0620 26.920 GAU 0.0 0.0 0.0 0.0
RD13 ? BHN e S c 20241226 0620 26.730 GAU 0.0 0.0 0.0 0.0
RD11 ? BHZ e P c 20241226 0620 26.470 GAU 0.0 0.0 0.0 0.0
RD11 ? BHN e S c 20241226 0620 26.570 GAU 0.0 0.0 0.0 0.0
RD13 ? BHZ e P c 20241226 0620 26.720 GAU 0.0 0.0 0.0 0.0
