RD11 ? BHN e S c 20241213 2348 51.180 GAU 0.0 0.0 0.0 0.0
RD10 ? BHZ e P c 20241213 2348 50.810 GAU 0.0 0.0 0.0 0.0
RD06 ? BHN e S c 20241213 2348 51.370 GAU 0.0 0.0 0.0 0.0
RD07 ? BHN e S c 20241213 2348 50.890 GAU 0.0 0.0 0.0 0.0
RD05 ? BHN e S c 20241213 2348 51.550 GAU 0.0 0.0 0.0 0.0
RD03 ? BHN e S c 20241213 2348 50.980 GAU 0.0 0.0 0.0 0.0
