RD14 ? BHZ e P c 20241224 0440 23.330 GAU 0.0 0.0 0.0 0.0
RD13 ? BHZ e P c 20241224 0440 22.880 GAU 0.0 0.0 0.0 0.0
RD13 ? BHN e S c 20241224 0440 22.920 GAU 0.0 0.0 0.0 0.0
RD10 ? BHN e S c 20241224 0440 22.530 GAU 0.0 0.0 0.0 0.0
RD10 ? BHZ e P c 20241224 0440 22.440 GAU 0.0 0.0 0.0 0.0
RD11 ? BHN e S c 20241224 0440 22.670 GAU 0.0 0.0 0.0 0.0
