RD15 ? BHZ e P c 20241226 0059 56.950 GAU 0.0 0.0 0.0 0.0
RD14 ? BHZ e P c 20241226 0059 56.590 GAU 0.0 0.0 0.0 0.0
RD11 ? BHN e S c 20241226 0059 56.550 GAU 0.0 0.0 0.0 0.0
RD10 ? BHZ e P c 20241226 0059 56.750 GAU 0.0 0.0 0.0 0.0
RD09 ? BHN e S c 20241226 0059 56.840 GAU 0.0 0.0 0.0 0.0
RD09 ? BHZ e P c 20241226 0059 56.750 GAU 0.0 0.0 0.0 0.0
RD13 ? BHZ e P c 20241226 0059 56.760 GAU 0.0 0.0 0.0 0.0
RD06 ? BHN e S c 20241226 0059 57.170 GAU 0.0 0.0 0.0 0.0
RD05 ? BHZ e P c 20241226 0059 57.320 GAU 0.0 0.0 0.0 0.0
RD04 ? BHZ e P c 20241226 0059 57.260 GAU 0.0 0.0 0.0 0.0
RD02 ? BHZ e P c 20241226 0059 57.190 GAU 0.0 0.0 0.0 0.0
RD01 ? BHZ e P c 20241226 0059 57.370 GAU 0.0 0.0 0.0 0.0
RD07 ? BHZ e P c 20241226 0059 56.990 GAU 0.0 0.0 0.0 0.0
