RD15 ? BHN e S c 20241226 0100 35.370 GAU 0.0 0.0 0.0 0.0
RD14 ? BHN e S c 20241226 0100 34.970 GAU 0.0 0.0 0.0 0.0
RD13 ? BHN e S c 20241226 0100 35.180 GAU 0.0 0.0 0.0 0.0
RD12 ? BHZ e P c 20241226 0100 35.510 GAU 0.0 0.0 0.0 0.0
RD10 ? BHN e S c 20241226 0100 35.210 GAU 0.0 0.0 0.0 0.0
RD09 ? BHN e S c 20241226 0100 35.370 GAU 0.0 0.0 0.0 0.0
RD07 ? BHN e S c 20241226 0100 35.600 GAU 0.0 0.0 0.0 0.0
RD06 ? BHN e S c 20241226 0100 35.770 GAU 0.0 0.0 0.0 0.0
RD05 ? BHN e S c 20241226 0100 35.980 GAU 0.0 0.0 0.0 0.0
RD03 ? BHZ e P c 20241226 0100 36.010 GAU 0.0 0.0 0.0 0.0
RD03 ? BHN e S c 20241226 0100 36.140 GAU 0.0 0.0 0.0 0.0
RD02 ? BHN e S c 20241226 0100 36.170 GAU 0.0 0.0 0.0 0.0
RD08 ? BHN e S c 20241226 0100 35.560 GAU 0.0 0.0 0.0 0.0
