RD09 ? BHN e S c 20241217 1732 34.850 GAU 0.0 0.0 0.0 0.0
RD10 ? BHZ e P c 20241217 1732 33.960 GAU 0.0 0.0 0.0 0.0
RD10 ? BHN e S c 20241217 1732 34.600 GAU 0.0 0.0 0.0 0.0
RD11 ? BHN e S c 20241217 1732 34.520 GAU 0.0 0.0 0.0 0.0
RD12 ? BHN e S c 20241217 1732 34.370 GAU 0.0 0.0 0.0 0.0
RD13 ? BHN e S c 20241217 1732 34.770 GAU 0.0 0.0 0.0 0.0
RD14 ? BHN e S c 20241217 1732 34.580 GAU 0.0 0.0 0.0 0.0
RD15 ? BHN e S c 20241217 1732 34.920 GAU 0.0 0.0 0.0 0.0
