RD15 ? BHZ e P c 20241209 2126 32.360 GAU 0.0 0.0 0.0 0.0
RD14 ? BHN e S c 20241209 2126 32.470 GAU 0.0 0.0 0.0 0.0
RD14 ? BHZ e P c 20241209 2126 32.030 GAU 0.0 0.0 0.0 0.0
RD13 ? BHZ e P c 20241209 2126 32.170 GAU 0.0 0.0 0.0 0.0
RD12 ? BHZ e P c 20241209 2126 32.200 GAU 0.0 0.0 0.0 0.0
RD10 ? BHZ e P c 20241209 2126 32.250 GAU 0.0 0.0 0.0 0.0
RD09 ? BHZ e P c 20241209 2126 32.490 GAU 0.0 0.0 0.0 0.0
RD11 ? BHZ e P c 20241209 2126 31.920 GAU 0.0 0.0 0.0 0.0
RD07 ? BHZ e P c 20241209 2126 32.510 GAU 0.0 0.0 0.0 0.0
RD06 ? BHZ e P c 20241209 2126 32.560 GAU 0.0 0.0 0.0 0.0
RD05 ? BHZ e P c 20241209 2126 32.840 GAU 0.0 0.0 0.0 0.0
RD04 ? BHZ e P c 20241209 2126 32.640 GAU 0.0 0.0 0.0 0.0
RD03 ? BHZ e P c 20241209 2126 32.810 GAU 0.0 0.0 0.0 0.0
RD02 ? BHZ e P c 20241209 2126 32.610 GAU 0.0 0.0 0.0 0.0
RD01 ? BHZ e P c 20241209 2126 32.870 GAU 0.0 0.0 0.0 0.0
RD08 ? BHZ e P c 20241209 2126 32.450 GAU 0.0 0.0 0.0 0.0
