RD10 ? BHN e S c 20241215 0625 26.370 GAU 0.0 0.0 0.0 0.0
RD09 ? BHN e S c 20241215 0625 26.450 GAU 0.0 0.0 0.0 0.0
RD14 ? BHN e S c 20241215 0625 26.000 GAU 0.0 0.0 0.0 0.0
RD06 ? BHN e S c 20241215 0625 26.340 GAU 0.0 0.0 0.0 0.0
RD06 ? BHZ e P c 20241215 0625 26.070 GAU 0.0 0.0 0.0 0.0
RD08 ? BHN e S c 20241215 0625 26.300 GAU 0.0 0.0 0.0 0.0
