RD04 ? BHZ e P c 20241214 1603 50.560 GAU 0.0 0.0 0.0 0.0
RD05 ? BHZ e P c 20241214 1603 51.060 GAU 0.0 0.0 0.0 0.0
RD04 ? BHN e S c 20241214 1603 51.180 GAU 0.0 0.0 0.0 0.0
RD03 ? BHN e S c 20241214 1603 51.300 GAU 0.0 0.0 0.0 0.0
RD06 ? BHZ e P c 20241214 1603 50.890 GAU 0.0 0.0 0.0 0.0
RD02 ? BHZ e P c 20241214 1603 50.410 GAU 0.0 0.0 0.0 0.0
RD01 ? BHN e S c 20241214 1603 51.430 GAU 0.0 0.0 0.0 0.0
RD01 ? BHZ e P c 20241214 1603 50.620 GAU 0.0 0.0 0.0 0.0
RD02 ? BHN e S c 20241214 1603 50.830 GAU 0.0 0.0 0.0 0.0
