RD14 ? BHZ e P c 20241226 1015 10.080 GAU 0.0 0.0 0.0 0.0
RD13 ? BHZ e P c 20241226 1015 09.800 GAU 0.0 0.0 0.0 0.0
RD13 ? BHN e S c 20241226 1015 09.570 GAU 0.0 0.0 0.0 0.0
RD09 ? BHZ e P c 20241226 1015 10.240 GAU 0.0 0.0 0.0 0.0
RD10 ? BHZ e P c 20241226 1015 10.200 GAU 0.0 0.0 0.0 0.0
RD10 ? BHN e S c 20241226 1015 10.310 GAU 0.0 0.0 0.0 0.0
