RD10 ? BHZ e P c 20241218 1356 11.450 GAU 0.0 0.0 0.0 0.0
RD11 ? BHN e S c 20241218 1356 11.120 GAU 0.0 0.0 0.0 0.0
RD11 ? BHZ e P c 20241218 1356 11.170 GAU 0.0 0.0 0.0 0.0
RD14 ? BHN e S c 20241218 1356 11.600 GAU 0.0 0.0 0.0 0.0
RD14 ? BHZ e P c 20241218 1356 11.510 GAU 0.0 0.0 0.0 0.0
RD15 ? BHN e S c 20241218 1356 11.850 GAU 0.0 0.0 0.0 0.0
