RD13 ? BHN e S c 20241231 2022 27.310 GAU 0.0 0.0 0.0 0.0
RD14 ? BHN e S c 20241231 2022 27.470 GAU 0.0 0.0 0.0 0.0
RD13 ? BHZ e P c 20241231 2022 27.020 GAU 0.0 0.0 0.0 0.0
RD14 ? BHZ e P c 20241231 2022 27.390 GAU 0.0 0.0 0.0 0.0
RD11 ? BHZ e P c 20241231 2022 27.240 GAU 0.0 0.0 0.0 0.0
RD11 ? BHN e S c 20241231 2022 27.630 GAU 0.0 0.0 0.0 0.0
