RD10 ? BHN e S c 20241221 0500 39.400 GAU 0.0 0.0 0.0 0.0
RD08 ? BHN e S c 20241221 0500 39.980 GAU 0.0 0.0 0.0 0.0
RD08 ? BHZ e P c 20241221 0500 39.670 GAU 0.0 0.0 0.0 0.0
RD05 ? BHN e S c 20241221 0500 39.540 GAU 0.0 0.0 0.0 0.0
RD05 ? BHZ e P c 20241221 0500 39.510 GAU 0.0 0.0 0.0 0.0
RD06 ? BHN e S c 20241221 0500 39.330 GAU 0.0 0.0 0.0 0.0
