RD10 ? BHZ e P c 20241223 0612 42.590 GAU 0.0 0.0 0.0 0.0
RD11 ? BHN e S c 20241223 0612 42.480 GAU 0.0 0.0 0.0 0.0
RD15 ? BHN e S c 20241223 0612 43.160 GAU 0.0 0.0 0.0 0.0
RD13 ? BHZ e P c 20241223 0612 42.770 GAU 0.0 0.0 0.0 0.0
RD13 ? BHN e S c 20241223 0612 43.000 GAU 0.0 0.0 0.0 0.0
RD14 ? BHN e S c 20241223 0612 43.500 GAU 0.0 0.0 0.0 0.0
