RD07 ? BHN e S c 20241215 1638 51.260 GAU 0.0 0.0 0.0 0.0
RD07 ? BHZ e P c 20241215 1638 51.310 GAU 0.0 0.0 0.0 0.0
RD08 ? BHZ e P c 20241215 1638 51.410 GAU 0.0 0.0 0.0 0.0
RD10 ? BHN e S c 20241215 1638 51.260 GAU 0.0 0.0 0.0 0.0
RD13 ? BHN e S c 20241215 1638 51.480 GAU 0.0 0.0 0.0 0.0
RD14 ? BHN e S c 20241215 1638 51.420 GAU 0.0 0.0 0.0 0.0
RD15 ? BHN e S c 20241215 1638 51.440 GAU 0.0 0.0 0.0 0.0
