RD15 ? BHZ e P c 20241231 2204 29.240 GAU 0.0 0.0 0.0 0.0
RD15 ? BHN e S c 20241231 2204 29.370 GAU 0.0 0.0 0.0 0.0
RD13 ? BHN e S c 20241231 2204 29.510 GAU 0.0 0.0 0.0 0.0
RD14 ? BHZ e P c 20241231 2204 29.770 GAU 0.0 0.0 0.0 0.0
RD11 ? BHN e S c 20241231 2204 29.050 GAU 0.0 0.0 0.0 0.0
RD14 ? BHN e S c 20241231 2204 29.950 GAU 0.0 0.0 0.0 0.0
