RD15 ? BHN e S c 20241213 2048 50.130 GAU 0.0 0.0 0.0 0.0
RD14 ? BHN e S c 20241213 2048 49.660 GAU 0.0 0.0 0.0 0.0
RD13 ? BHZ e P c 20241213 2048 49.740 GAU 0.0 0.0 0.0 0.0
RD11 ? BHN e S c 20241213 2048 49.350 GAU 0.0 0.0 0.0 0.0
RD13 ? BHN e S c 20241213 2048 49.830 GAU 0.0 0.0 0.0 0.0
RD08 ? BHN e S c 20241213 2048 50.090 GAU 0.0 0.0 0.0 0.0
RD07 ? BHN e S c 20241213 2048 50.470 GAU 0.0 0.0 0.0 0.0
RD07 ? BHZ e P c 20241213 2048 50.380 GAU 0.0 0.0 0.0 0.0
RD03 ? BHN e S c 20241213 2048 50.750 GAU 0.0 0.0 0.0 0.0
RD06 ? BHN e S c 20241213 2048 50.350 GAU 0.0 0.0 0.0 0.0
RD10 ? BHN e S c 20241213 2048 49.780 GAU 0.0 0.0 0.0 0.0
