RD15 ? BHN e S c 20241218 1714 10.440 GAU 0.0 0.0 0.0 0.0
RD13 ? BHZ e P c 20241218 1714 10.580 GAU 0.0 0.0 0.0 0.0
RD13 ? BHN e S c 20241218 1714 10.660 GAU 0.0 0.0 0.0 0.0
RD15 ? BHZ e P c 20241218 1714 10.510 GAU 0.0 0.0 0.0 0.0
RD06 ? BHZ e P c 20241218 1714 10.440 GAU 0.0 0.0 0.0 0.0
RD06 ? BHN e S c 20241218 1714 10.490 GAU 0.0 0.0 0.0 0.0
RD11 ? BHN e S c 20241218 1714 10.470 GAU 0.0 0.0 0.0 0.0
