RD05 ? BHZ e P c 20241224 1747 16.560 GAU 0.0 0.0 0.0 0.0
RD06 ? BHZ e P c 20241224 1747 16.220 GAU 0.0 0.0 0.0 0.0
RD06 ? BHN e S c 20241224 1747 16.920 GAU 0.0 0.0 0.0 0.0
RD04 ? BHN e S c 20241224 1747 16.690 GAU 0.0 0.0 0.0 0.0
RD02 ? BHZ e P c 20241224 1747 15.770 GAU 0.0 0.0 0.0 0.0
RD03 ? BHZ e P c 20241224 1747 16.190 GAU 0.0 0.0 0.0 0.0
RD02 ? BHN e S c 20241224 1747 16.720 GAU 0.0 0.0 0.0 0.0
RD01 ? BHN e S c 20241224 1747 16.710 GAU 0.0 0.0 0.0 0.0
RD03 ? BHN e S c 20241224 1747 16.680 GAU 0.0 0.0 0.0 0.0
