RD06 ? BHN e S c 20241210 1327 55.060 GAU 0.0 0.0 0.0 0.0
RD10 ? BHN e S c 20241210 1327 54.980 GAU 0.0 0.0 0.0 0.0
RD09 ? BHN e S c 20241210 1327 54.990 GAU 0.0 0.0 0.0 0.0
RD06 ? BHZ e P c 20241210 1327 54.980 GAU 0.0 0.0 0.0 0.0
RD09 ? BHZ e P c 20241210 1327 54.960 GAU 0.0 0.0 0.0 0.0
RD04 ? BHZ e P c 20241210 1327 55.190 GAU 0.0 0.0 0.0 0.0
RD03 ? BHN e S c 20241210 1327 55.060 GAU 0.0 0.0 0.0 0.0
RD02 ? BHZ e P c 20241210 1327 55.100 GAU 0.0 0.0 0.0 0.0
RD05 ? BHZ e P c 20241210 1327 55.440 GAU 0.0 0.0 0.0 0.0
