RD08 ? BHZ e P c 20241231 0249 15.910 GAU 0.0 0.0 0.0 0.0
RD15 ? BHZ e P c 20241231 0249 15.750 GAU 0.0 0.0 0.0 0.0
RD13 ? BHZ e P c 20241231 0249 15.560 GAU 0.0 0.0 0.0 0.0
RD10 ? BHZ e P c 20241231 0249 15.570 GAU 0.0 0.0 0.0 0.0
RD09 ? BHZ e P c 20241231 0249 15.820 GAU 0.0 0.0 0.0 0.0
RD07 ? BHZ e P c 20241231 0249 16.000 GAU 0.0 0.0 0.0 0.0
RD14 ? BHZ e P c 20241231 0249 15.350 GAU 0.0 0.0 0.0 0.0
RD06 ? BHZ e P c 20241231 0249 16.050 GAU 0.0 0.0 0.0 0.0
RD05 ? BHZ e P c 20241231 0249 16.120 GAU 0.0 0.0 0.0 0.0
RD03 ? BHZ e P c 20241231 0249 16.590 GAU 0.0 0.0 0.0 0.0
RD02 ? BHZ e P c 20241231 0249 16.500 GAU 0.0 0.0 0.0 0.0
RD01 ? BHZ e P c 20241231 0249 16.510 GAU 0.0 0.0 0.0 0.0
RD06 ? BHN e S c 20241231 0249 16.460 GAU 0.0 0.0 0.0 0.0
