RD13 ? BHZ e P c 20241217 2111 24.790 GAU 0.0 0.0 0.0 0.0
RD14 ? BHN e S c 20241217 2111 24.640 GAU 0.0 0.0 0.0 0.0
RD11 ? BHN e S c 20241217 2111 24.610 GAU 0.0 0.0 0.0 0.0
RD06 ? BHZ e P c 20241217 2111 24.460 GAU 0.0 0.0 0.0 0.0
RD10 ? BHN e S c 20241217 2111 24.930 GAU 0.0 0.0 0.0 0.0
RD11 ? BHZ e P c 20241217 2111 24.480 GAU 0.0 0.0 0.0 0.0
RD06 ? BHN e S c 20241217 2111 24.470 GAU 0.0 0.0 0.0 0.0
