RD13 ? BHN e S c 20241214 1816 51.230 GAU 0.0 0.0 0.0 0.0
RD15 ? BHN e S c 20241214 1816 51.320 GAU 0.0 0.0 0.0 0.0
RD09 ? BHN e S c 20241214 1816 51.170 GAU 0.0 0.0 0.0 0.0
RD05 ? BHN e S c 20241214 1816 51.390 GAU 0.0 0.0 0.0 0.0
RD07 ? BHZ e P c 20241214 1816 51.270 GAU 0.0 0.0 0.0 0.0
RD06 ? BHN e S c 20241214 1816 51.060 GAU 0.0 0.0 0.0 0.0
RD08 ? BHZ e P c 20241214 1816 51.120 GAU 0.0 0.0 0.0 0.0
