RD14 ? BHN e S c 20241227 1552 36.000 GAU 0.0 0.0 0.0 0.0
RD13 ? BHN e S c 20241227 1552 35.770 GAU 0.0 0.0 0.0 0.0
RD15 ? BHN e S c 20241227 1552 35.910 GAU 0.0 0.0 0.0 0.0
RD11 ? BHN e S c 20241227 1552 34.990 GAU 0.0 0.0 0.0 0.0
RD10 ? BHN e S c 20241227 1552 35.930 GAU 0.0 0.0 0.0 0.0
RD08 ? BHN e S c 20241227 1552 35.420 GAU 0.0 0.0 0.0 0.0
RD08 ? BHZ e P c 20241227 1552 35.330 GAU 0.0 0.0 0.0 0.0
RD07 ? BHN e S c 20241227 1552 35.140 GAU 0.0 0.0 0.0 0.0
RD06 ? BHN e S c 20241227 1552 35.110 GAU 0.0 0.0 0.0 0.0
RD05 ? BHN e S c 20241227 1552 35.410 GAU 0.0 0.0 0.0 0.0
RD03 ? BHN e S c 20241227 1552 35.220 GAU 0.0 0.0 0.0 0.0
RD09 ? BHN e S c 20241227 1552 35.740 GAU 0.0 0.0 0.0 0.0
