RD06 ? BHZ e P c 20241217 1255 36.200 GAU 0.0 0.0 0.0 0.0
RD11 ? BHZ e P c 20241217 1255 36.090 GAU 0.0 0.0 0.0 0.0
RD07 ? BHN e S c 20241217 1255 36.160 GAU 0.0 0.0 0.0 0.0
RD04 ? BHN e S c 20241217 1255 36.420 GAU 0.0 0.0 0.0 0.0
RD01 ? BHZ e P c 20241217 1255 35.930 GAU 0.0 0.0 0.0 0.0
RD03 ? BHZ e P c 20241217 1255 36.160 GAU 0.0 0.0 0.0 0.0
RD02 ? BHN e S c 20241217 1255 36.240 GAU 0.0 0.0 0.0 0.0
RD02 ? BHZ e P c 20241217 1255 35.750 GAU 0.0 0.0 0.0 0.0
RD04 ? BHZ e P c 20241217 1255 35.810 GAU 0.0 0.0 0.0 0.0
