RD08 ? BHN e S c 20241213 2358 39.610 GAU 0.0 0.0 0.0 0.0
RD11 ? BHZ e P c 20241213 2358 39.810 GAU 0.0 0.0 0.0 0.0
RD11 ? BHN e S c 20241213 2358 39.900 GAU 0.0 0.0 0.0 0.0
RD13 ? BHZ e P c 20241213 2358 39.600 GAU 0.0 0.0 0.0 0.0
RD14 ? BHZ e P c 20241213 2358 39.610 GAU 0.0 0.0 0.0 0.0
RD15 ? BHZ e P c 20241213 2358 39.390 GAU 0.0 0.0 0.0 0.0
