RD15 ? BHN e S c 20241231 2033 41.940 GAU 0.0 0.0 0.0 0.0
RD14 ? BHZ e P c 20241231 2033 42.290 GAU 0.0 0.0 0.0 0.0
RD13 ? BHZ e P c 20241231 2033 42.230 GAU 0.0 0.0 0.0 0.0
RD13 ? BHN e S c 20241231 2033 42.200 GAU 0.0 0.0 0.0 0.0
RD11 ? BHZ e P c 20241231 2033 41.590 GAU 0.0 0.0 0.0 0.0
RD14 ? BHN e S c 20241231 2033 42.280 GAU 0.0 0.0 0.0 0.0
RD15 ? BHZ e P c 20241231 2033 41.560 GAU 0.0 0.0 0.0 0.0
RD11 ? BHN e S c 20241231 2033 41.730 GAU 0.0 0.0 0.0 0.0
