RD15 ? BHN e S c 20241231 2038 56.990 GAU 0.0 0.0 0.0 0.0
RD14 ? BHN e S c 20241231 2038 57.410 GAU 0.0 0.0 0.0 0.0
RD15 ? BHZ e P c 20241231 2038 57.020 GAU 0.0 0.0 0.0 0.0
RD13 ? BHN e S c 20241231 2038 56.850 GAU 0.0 0.0 0.0 0.0
RD13 ? BHZ e P c 20241231 2038 56.860 GAU 0.0 0.0 0.0 0.0
RD11 ? BHN e S c 20241231 2038 57.270 GAU 0.0 0.0 0.0 0.0
