RD12 ? BHZ e P c 20241209 0741 56.570 GAU 0.0 0.0 0.0 0.0
RD12 ? BHN e S c 20241209 0741 56.650 GAU 0.0 0.0 0.0 0.0
RD11 ? BHZ e P c 20241209 0741 56.250 GAU 0.0 0.0 0.0 0.0
RD09 ? BHN e S c 20241209 0741 56.380 GAU 0.0 0.0 0.0 0.0
RD07 ? BHZ e P c 20241209 0741 57.330 GAU 0.0 0.0 0.0 0.0
RD06 ? BHZ e P c 20241209 0741 56.720 GAU 0.0 0.0 0.0 0.0
RD08 ? BHN e S c 20241209 0741 56.900 GAU 0.0 0.0 0.0 0.0
