RD07 ? BHZ e P c 20241211 1746 12.210 GAU 0.0 0.0 0.0 0.0
RD14 ? BHZ e P c 20241211 1746 12.430 GAU 0.0 0.0 0.0 0.0
RD11 ? BHN e S c 20241211 1746 12.190 GAU 0.0 0.0 0.0 0.0
RD06 ? BHN e S c 20241211 1746 12.160 GAU 0.0 0.0 0.0 0.0
RD05 ? BHZ e P c 20241211 1746 11.870 GAU 0.0 0.0 0.0 0.0
RD03 ? BHZ e P c 20241211 1746 12.380 GAU 0.0 0.0 0.0 0.0
RD03 ? BHN e S c 20241211 1746 12.420 GAU 0.0 0.0 0.0 0.0
RD06 ? BHZ e P c 20241211 1746 11.670 GAU 0.0 0.0 0.0 0.0
