RD11 ? BHZ e P c 20241217 0053 09.540 GAU 0.0 0.0 0.0 0.0
RD11 ? BHN e S c 20241217 0053 09.640 GAU 0.0 0.0 0.0 0.0
RD13 ? BHZ e P c 20241217 0053 08.920 GAU 0.0 0.0 0.0 0.0
RD14 ? BHN e S c 20241217 0053 08.990 GAU 0.0 0.0 0.0 0.0
RD14 ? BHZ e P c 20241217 0053 08.900 GAU 0.0 0.0 0.0 0.0
RD15 ? BHN e S c 20241217 0053 09.310 GAU 0.0 0.0 0.0 0.0
