RD09 ? BHN e S c 20241209 1420 39.270 GAU 0.0 0.0 0.0 0.0
RD15 ? BHZ e P c 20241209 1420 39.250 GAU 0.0 0.0 0.0 0.0
RD14 ? BHZ e P c 20241209 1420 39.060 GAU 0.0 0.0 0.0 0.0
RD13 ? BHZ e P c 20241209 1420 38.770 GAU 0.0 0.0 0.0 0.0
RD11 ? BHN e S c 20241209 1420 38.920 GAU 0.0 0.0 0.0 0.0
RD11 ? BHZ e P c 20241209 1420 38.010 GAU 0.0 0.0 0.0 0.0
RD10 ? BHN e S c 20241209 1420 39.650 GAU 0.0 0.0 0.0 0.0
RD10 ? BHZ e P c 20241209 1420 38.680 GAU 0.0 0.0 0.0 0.0
RD09 ? BHZ e P c 20241209 1420 38.510 GAU 0.0 0.0 0.0 0.0
RD01 ? BHZ e P c 20241209 1420 38.750 GAU 0.0 0.0 0.0 0.0
RD07 ? BHZ e P c 20241209 1420 38.310 GAU 0.0 0.0 0.0 0.0
RD06 ? BHN e S c 20241209 1420 38.620 GAU 0.0 0.0 0.0 0.0
RD06 ? BHZ e P c 20241209 1420 38.170 GAU 0.0 0.0 0.0 0.0
RD05 ? BHN e S c 20241209 1420 38.770 GAU 0.0 0.0 0.0 0.0
RD05 ? BHZ e P c 20241209 1420 38.200 GAU 0.0 0.0 0.0 0.0
RD03 ? BHN e S c 20241209 1420 39.060 GAU 0.0 0.0 0.0 0.0
RD03 ? BHZ e P c 20241209 1420 38.350 GAU 0.0 0.0 0.0 0.0
RD02 ? BHZ e P c 20241209 1420 38.520 GAU 0.0 0.0 0.0 0.0
RD07 ? BHN e S c 20241209 1420 38.880 GAU 0.0 0.0 0.0 0.0
