RD15 ? BHZ e P c 20241209 1935 48.500 GAU 0.0 0.0 0.0 0.0
RD15 ? BHN e S c 20241209 1935 48.520 GAU 0.0 0.0 0.0 0.0
RD14 ? BHN e S c 20241209 1935 49.060 GAU 0.0 0.0 0.0 0.0
RD13 ? BHZ e P c 20241209 1935 48.120 GAU 0.0 0.0 0.0 0.0
RD13 ? BHN e S c 20241209 1935 48.130 GAU 0.0 0.0 0.0 0.0
RD14 ? BHZ e P c 20241209 1935 48.900 GAU 0.0 0.0 0.0 0.0
