RD09 ? BHN e S c 20241220 0118 19.190 GAU 0.0 0.0 0.0 0.0
RD13 ? BHN e S c 20241220 0118 19.370 GAU 0.0 0.0 0.0 0.0
RD14 ? BHN e S c 20241220 0118 19.710 GAU 0.0 0.0 0.0 0.0
RD14 ? BHZ e P c 20241220 0118 19.660 GAU 0.0 0.0 0.0 0.0
RD15 ? BHN e S c 20241220 0118 19.820 GAU 0.0 0.0 0.0 0.0
RD10 ? BHN e S c 20241220 0118 19.480 GAU 0.0 0.0 0.0 0.0
