RD11 ? BHZ e P c 20241210 0737 27.720 GAU 0.0 0.0 0.0 0.0
RD15 ? BHZ e P c 20241210 0737 28.210 GAU 0.0 0.0 0.0 0.0
RD14 ? BHZ e P c 20241210 0737 27.850 GAU 0.0 0.0 0.0 0.0
RD13 ? BHN e S c 20241210 0737 28.210 GAU 0.0 0.0 0.0 0.0
RD13 ? BHZ e P c 20241210 0737 28.080 GAU 0.0 0.0 0.0 0.0
RD08 ? BHZ e P c 20241210 0737 28.040 GAU 0.0 0.0 0.0 0.0
RD10 ? BHZ e P c 20241210 0737 27.890 GAU 0.0 0.0 0.0 0.0
RD06 ? BHZ e P c 20241210 0737 28.020 GAU 0.0 0.0 0.0 0.0
RD05 ? BHZ e P c 20241210 0737 28.490 GAU 0.0 0.0 0.0 0.0
RD07 ? BHZ e P c 20241210 0737 28.160 GAU 0.0 0.0 0.0 0.0
