RD14 ? BHZ e P c 20241228 1201 40.770 GAU 0.0 0.0 0.0 0.0
RD13 ? BHZ e P c 20241228 1201 41.050 GAU 0.0 0.0 0.0 0.0
RD15 ? BHZ e P c 20241228 1201 41.100 GAU 0.0 0.0 0.0 0.0
RD11 ? BHZ e P c 20241228 1201 41.060 GAU 0.0 0.0 0.0 0.0
RD11 ? BHN e S c 20241228 1201 41.230 GAU 0.0 0.0 0.0 0.0
RD13 ? BHN e S c 20241228 1201 40.960 GAU 0.0 0.0 0.0 0.0
