RD07 ? BHN e S c 20241228 0547 27.850 GAU 0.0 0.0 0.0 0.0
RD09 ? BHZ e P c 20241228 0547 27.330 GAU 0.0 0.0 0.0 0.0
RD10 ? BHN e S c 20241228 0547 27.280 GAU 0.0 0.0 0.0 0.0
RD11 ? BHN e S c 20241228 0547 27.590 GAU 0.0 0.0 0.0 0.0
RD11 ? BHZ e P c 20241228 0547 27.560 GAU 0.0 0.0 0.0 0.0
RD12 ? BHN e S c 20241228 0547 27.550 GAU 0.0 0.0 0.0 0.0
RD14 ? BHN e S c 20241228 0547 28.000 GAU 0.0 0.0 0.0 0.0
RD15 ? BHN e S c 20241228 0547 27.740 GAU 0.0 0.0 0.0 0.0
