RD06 ? BHZ e P c 20241208 2326 45.190 GAU 0.0 0.0 0.0 0.0
RD06 ? BHN e S c 20241208 2326 45.820 GAU 0.0 0.0 0.0 0.0
RD05 ? BHN e S c 20241208 2326 46.100 GAU 0.0 0.0 0.0 0.0
RD05 ? BHZ e P c 20241208 2326 45.400 GAU 0.0 0.0 0.0 0.0
RD01 ? BHZ e P c 20241208 2326 45.210 GAU 0.0 0.0 0.0 0.0
RD01 ? BHN e S c 20241208 2326 45.900 GAU 0.0 0.0 0.0 0.0
RD04 ? BHN e S c 20241208 2326 46.000 GAU 0.0 0.0 0.0 0.0
RD04 ? BHZ e P c 20241208 2326 45.160 GAU 0.0 0.0 0.0 0.0
RD02 ? BHN e S c 20241208 2326 45.500 GAU 0.0 0.0 0.0 0.0
RD03 ? BHN e S c 20241208 2326 45.610 GAU 0.0 0.0 0.0 0.0
RD03 ? BHZ e P c 20241208 2326 45.080 GAU 0.0 0.0 0.0 0.0
RD11 ? BHN e S c 20241208 2326 45.890 GAU 0.0 0.0 0.0 0.0
RD02 ? BHZ e P c 20241208 2326 44.850 GAU 0.0 0.0 0.0 0.0
