RD09 ? BHZ e P c 20241227 1532 18.680 GAU 0.0 0.0 0.0 0.0
RD12 ? BHZ e P c 20241227 1532 20.000 GAU 0.0 0.0 0.0 0.0
RD13 ? BHZ e P c 20241227 1532 19.200 GAU 0.0 0.0 0.0 0.0
RD08 ? BHN e S c 20241227 1532 19.290 GAU 0.0 0.0 0.0 0.0
RD08 ? BHZ e P c 20241227 1532 19.200 GAU 0.0 0.0 0.0 0.0
RD07 ? BHZ e P c 20241227 1532 18.560 GAU 0.0 0.0 0.0 0.0
RD06 ? BHZ e P c 20241227 1532 18.380 GAU 0.0 0.0 0.0 0.0
RD05 ? BHZ e P c 20241227 1532 18.620 GAU 0.0 0.0 0.0 0.0
RD15 ? BHZ e P c 20241227 1532 18.910 GAU 0.0 0.0 0.0 0.0
RD03 ? BHZ e P c 20241227 1532 18.400 GAU 0.0 0.0 0.0 0.0
RD10 ? BHZ e P c 20241227 1532 19.570 GAU 0.0 0.0 0.0 0.0
RD14 ? BHZ e P c 20241227 1532 18.780 GAU 0.0 0.0 0.0 0.0
RD02 ? BHZ e P c 20241227 1532 18.040 GAU 0.0 0.0 0.0 0.0
