RD05 ? BHN e S c 20241227 0031 02.790 GAU 0.0 0.0 0.0 0.0
RD06 ? BHZ e P c 20241227 0031 02.220 GAU 0.0 0.0 0.0 0.0
RD03 ? BHN e S c 20241227 0031 02.980 GAU 0.0 0.0 0.0 0.0
RD11 ? BHN e S c 20241227 0031 02.810 GAU 0.0 0.0 0.0 0.0
RD06 ? BHN e S c 20241227 0031 02.650 GAU 0.0 0.0 0.0 0.0
RD05 ? BHZ e P c 20241227 0031 02.270 GAU 0.0 0.0 0.0 0.0
RD01 ? BHN e S c 20241227 0031 03.530 GAU 0.0 0.0 0.0 0.0
RD02 ? BHN e S c 20241227 0031 03.350 GAU 0.0 0.0 0.0 0.0
RD02 ? BHZ e P c 20241227 0031 02.650 GAU 0.0 0.0 0.0 0.0
RD01 ? BHZ e P c 20241227 0031 02.980 GAU 0.0 0.0 0.0 0.0
RD04 ? BHZ e P c 20241227 0031 02.930 GAU 0.0 0.0 0.0 0.0
