RD10 ? BHN e S c 20241227 0628 17.550 GAU 0.0 0.0 0.0 0.0
RD10 ? BHZ e P c 20241227 0628 16.540 GAU 0.0 0.0 0.0 0.0
RD15 ? BHZ e P c 20241227 0628 17.070 GAU 0.0 0.0 0.0 0.0
RD09 ? BHN e S c 20241227 0628 17.120 GAU 0.0 0.0 0.0 0.0
RD11 ? BHN e S c 20241227 0628 16.720 GAU 0.0 0.0 0.0 0.0
RD13 ? BHZ e P c 20241227 0628 16.660 GAU 0.0 0.0 0.0 0.0
RD14 ? BHZ e P c 20241227 0628 16.930 GAU 0.0 0.0 0.0 0.0
RD11 ? BHZ e P c 20241227 0628 15.840 GAU 0.0 0.0 0.0 0.0
RD09 ? BHZ e P c 20241227 0628 16.340 GAU 0.0 0.0 0.0 0.0
RD05 ? BHN e S c 20241227 0628 16.650 GAU 0.0 0.0 0.0 0.0
RD07 ? BHZ e P c 20241227 0628 16.190 GAU 0.0 0.0 0.0 0.0
RD01 ? BHZ e P c 20241227 0628 16.840 GAU 0.0 0.0 0.0 0.0
RD03 ? BHZ e P c 20241227 0628 15.660 GAU 0.0 0.0 0.0 0.0
RD03 ? BHN e S c 20241227 0628 16.820 GAU 0.0 0.0 0.0 0.0
RD07 ? BHN e S c 20241227 0628 16.740 GAU 0.0 0.0 0.0 0.0
RD06 ? BHZ e P c 20241227 0628 16.040 GAU 0.0 0.0 0.0 0.0
RD06 ? BHN e S c 20241227 0628 16.480 GAU 0.0 0.0 0.0 0.0
RD05 ? BHZ e P c 20241227 0628 16.090 GAU 0.0 0.0 0.0 0.0
