RD03 ? BHZ e P c 20241210 2039 41.780 GAU 0.0 0.0 0.0 0.0
RD06 ? BHZ e P c 20241210 2039 41.420 GAU 0.0 0.0 0.0 0.0
RD04 ? BHN e S c 20241210 2039 41.610 GAU 0.0 0.0 0.0 0.0
RD03 ? BHN e S c 20241210 2039 41.830 GAU 0.0 0.0 0.0 0.0
RD02 ? BHN e S c 20241210 2039 41.490 GAU 0.0 0.0 0.0 0.0
RD06 ? BHN e S c 20241210 2039 41.980 GAU 0.0 0.0 0.0 0.0
