RD15 ? BHZ e P c 20241213 0108 08.230 GAU 0.0 0.0 0.0 0.0
RD15 ? BHN e S c 20241213 0108 08.480 GAU 0.0 0.0 0.0 0.0
RD14 ? BHZ e P c 20241213 0108 08.270 GAU 0.0 0.0 0.0 0.0
RD08 ? BHN e S c 20241213 0108 08.420 GAU 0.0 0.0 0.0 0.0
RD11 ? BHN e S c 20241213 0108 08.040 GAU 0.0 0.0 0.0 0.0
RD13 ? BHN e S c 20241213 0108 07.750 GAU 0.0 0.0 0.0 0.0
