RD07 ? BHN e S c 20241224 2338 55.470 GAU 0.0 0.0 0.0 0.0
RD14 ? BHZ e P c 20241224 2338 55.500 GAU 0.0 0.0 0.0 0.0
RD13 ? BHZ e P c 20241224 2338 55.350 GAU 0.0 0.0 0.0 0.0
RD11 ? BHN e S c 20241224 2338 55.670 GAU 0.0 0.0 0.0 0.0
RD11 ? BHZ e P c 20241224 2338 54.590 GAU 0.0 0.0 0.0 0.0
RD10 ? BHZ e P c 20241224 2338 55.410 GAU 0.0 0.0 0.0 0.0
RD15 ? BHZ e P c 20241224 2338 55.440 GAU 0.0 0.0 0.0 0.0
RD08 ? BHZ e P c 20241224 2338 55.750 GAU 0.0 0.0 0.0 0.0
RD08 ? BHN e S c 20241224 2338 55.830 GAU 0.0 0.0 0.0 0.0
RD07 ? BHZ e P c 20241224 2338 54.860 GAU 0.0 0.0 0.0 0.0
RD04 ? BHZ e P c 20241224 2338 54.660 GAU 0.0 0.0 0.0 0.0
RD06 ? BHZ e P c 20241224 2338 54.850 GAU 0.0 0.0 0.0 0.0
RD05 ? BHN e S c 20241224 2338 55.870 GAU 0.0 0.0 0.0 0.0
RD05 ? BHZ e P c 20241224 2338 55.000 GAU 0.0 0.0 0.0 0.0
RD03 ? BHN e S c 20241224 2338 55.390 GAU 0.0 0.0 0.0 0.0
RD03 ? BHZ e P c 20241224 2338 54.710 GAU 0.0 0.0 0.0 0.0
RD02 ? BHN e S c 20241224 2338 54.800 GAU 0.0 0.0 0.0 0.0
RD02 ? BHZ e P c 20241224 2338 54.440 GAU 0.0 0.0 0.0 0.0
RD01 ? BHZ e P c 20241224 2338 54.780 GAU 0.0 0.0 0.0 0.0
RD06 ? BHN e S c 20241224 2338 55.480 GAU 0.0 0.0 0.0 0.0
