RD11 ? BHZ e P c 20241211 0912 21.820 GAU 0.0 0.0 0.0 0.0
RD13 ? BHN e S c 20241211 0912 21.690 GAU 0.0 0.0 0.0 0.0
RD13 ? BHZ e P c 20241211 0912 21.610 GAU 0.0 0.0 0.0 0.0
RD14 ? BHN e S c 20241211 0912 21.960 GAU 0.0 0.0 0.0 0.0
RD15 ? BHZ e P c 20241211 0912 21.400 GAU 0.0 0.0 0.0 0.0
RD15 ? BHN e S c 20241211 0912 21.520 GAU 0.0 0.0 0.0 0.0
