RD05 ? BHN e S c 20241211 1226 45.200 GAU 0.0 0.0 0.0 0.0
RD11 ? BHN e S c 20241211 1226 45.150 GAU 0.0 0.0 0.0 0.0
RD06 ? BHN e S c 20241211 1226 44.960 GAU 0.0 0.0 0.0 0.0
RD06 ? BHZ e P c 20241211 1226 44.530 GAU 0.0 0.0 0.0 0.0
RD05 ? BHZ e P c 20241211 1226 44.560 GAU 0.0 0.0 0.0 0.0
RD09 ? BHZ e P c 20241211 1226 44.680 GAU 0.0 0.0 0.0 0.0
RD03 ? BHN e S c 20241211 1226 45.300 GAU 0.0 0.0 0.0 0.0
RD02 ? BHN e S c 20241211 1226 45.620 GAU 0.0 0.0 0.0 0.0
RD02 ? BHZ e P c 20241211 1226 45.240 GAU 0.0 0.0 0.0 0.0
RD01 ? BHZ e P c 20241211 1226 45.070 GAU 0.0 0.0 0.0 0.0
RD04 ? BHZ e P c 20241211 1226 45.290 GAU 0.0 0.0 0.0 0.0
