RD15 ? BHN e S c 20241222 0937 56.450 GAU 0.0 0.0 0.0 0.0
RD14 ? BHN e S c 20241222 0937 56.840 GAU 0.0 0.0 0.0 0.0
RD15 ? BHZ e P c 20241222 0937 56.140 GAU 0.0 0.0 0.0 0.0
RD13 ? BHZ e P c 20241222 0937 56.020 GAU 0.0 0.0 0.0 0.0
RD11 ? BHN e S c 20241222 0937 56.020 GAU 0.0 0.0 0.0 0.0
RD14 ? BHZ e P c 20241222 0937 56.760 GAU 0.0 0.0 0.0 0.0
