RD09 ? BHZ e P c 20241222 1133 39.850 GAU 0.0 0.0 0.0 0.0
RD10 ? BHZ e P c 20241222 1133 39.450 GAU 0.0 0.0 0.0 0.0
RD11 ? BHN e S c 20241222 1133 39.660 GAU 0.0 0.0 0.0 0.0
RD11 ? BHZ e P c 20241222 1133 39.580 GAU 0.0 0.0 0.0 0.0
RD13 ? BHN e S c 20241222 1133 39.410 GAU 0.0 0.0 0.0 0.0
RD13 ? BHZ e P c 20241222 1133 39.400 GAU 0.0 0.0 0.0 0.0
