RD15 ? BHN e S c 20241231 2055 23.010 GAU 0.0 0.0 0.0 0.0
RD15 ? BHZ e P c 20241231 2055 22.880 GAU 0.0 0.0 0.0 0.0
RD11 ? BHZ e P c 20241231 2055 22.860 GAU 0.0 0.0 0.0 0.0
RD11 ? BHN e S c 20241231 2055 23.010 GAU 0.0 0.0 0.0 0.0
RD14 ? BHZ e P c 20241231 2055 23.450 GAU 0.0 0.0 0.0 0.0
RD13 ? BHZ e P c 20241231 2055 23.080 GAU 0.0 0.0 0.0 0.0
RD13 ? BHN e S c 20241231 2055 23.230 GAU 0.0 0.0 0.0 0.0
