RD13 ? BHZ e P c 20241228 0858 35.410 GAU 0.0 0.0 0.0 0.0
RD03 ? BHN e S c 20241228 0858 35.250 GAU 0.0 0.0 0.0 0.0
RD15 ? BHZ e P c 20241228 0858 35.700 GAU 0.0 0.0 0.0 0.0
RD14 ? BHZ e P c 20241228 0858 35.560 GAU 0.0 0.0 0.0 0.0
RD11 ? BHN e S c 20241228 0858 35.530 GAU 0.0 0.0 0.0 0.0
RD01 ? BHN e S c 20241228 0858 35.270 GAU 0.0 0.0 0.0 0.0
RD05 ? BHN e S c 20241228 0858 35.720 GAU 0.0 0.0 0.0 0.0
RD06 ? BHN e S c 20241228 0858 35.490 GAU 0.0 0.0 0.0 0.0
RD10 ? BHZ e P c 20241228 0858 35.310 GAU 0.0 0.0 0.0 0.0
RD09 ? BHN e S c 20241228 0858 36.300 GAU 0.0 0.0 0.0 0.0
RD07 ? BHN e S c 20241228 0858 35.510 GAU 0.0 0.0 0.0 0.0
RD08 ? BHN e S c 20241228 0858 35.840 GAU 0.0 0.0 0.0 0.0
