RD01 ? BHZ e P c 20241210 2039 07.340 GAU 0.0 0.0 0.0 0.0
RD06 ? BHZ e P c 20241210 2039 07.410 GAU 0.0 0.0 0.0 0.0
RD04 ? BHZ e P c 20241210 2039 07.130 GAU 0.0 0.0 0.0 0.0
RD02 ? BHZ e P c 20241210 2039 06.990 GAU 0.0 0.0 0.0 0.0
RD11 ? BHN e S c 20241210 2039 07.550 GAU 0.0 0.0 0.0 0.0
RD05 ? BHZ e P c 20241210 2039 07.590 GAU 0.0 0.0 0.0 0.0
RD02 ? BHN e S c 20241210 2039 07.430 GAU 0.0 0.0 0.0 0.0
