RD10 ? BHN e S c 20241221 0429 19.650 GAU 0.0 0.0 0.0 0.0
RD08 ? BHN e S c 20241221 0429 19.550 GAU 0.0 0.0 0.0 0.0
RD10 ? BHZ e P c 20241221 0429 19.570 GAU 0.0 0.0 0.0 0.0
RD09 ? BHZ e P c 20241221 0429 19.640 GAU 0.0 0.0 0.0 0.0
RD13 ? BHZ e P c 20241221 0429 19.580 GAU 0.0 0.0 0.0 0.0
RD07 ? BHZ e P c 20241221 0429 19.400 GAU 0.0 0.0 0.0 0.0
RD15 ? BHZ e P c 20241221 0429 20.170 GAU 0.0 0.0 0.0 0.0
RD06 ? BHZ e P c 20241221 0429 19.200 GAU 0.0 0.0 0.0 0.0
RD05 ? BHZ e P c 20241221 0429 19.170 GAU 0.0 0.0 0.0 0.0
RD11 ? BHZ e P c 20241221 0429 19.330 GAU 0.0 0.0 0.0 0.0
RD03 ? BHZ e P c 20241221 0429 19.010 GAU 0.0 0.0 0.0 0.0
RD14 ? BHZ e P c 20241221 0429 19.840 GAU 0.0 0.0 0.0 0.0
