RD14 ? BHZ e P c 20241208 2346 23.950 GAU 0.0 0.0 0.0 0.0
RD05 ? BHN e S c 20241208 2346 24.110 GAU 0.0 0.0 0.0 0.0
RD01 ? BHZ e P c 20241208 2346 23.190 GAU 0.0 0.0 0.0 0.0
RD11 ? BHN e S c 20241208 2346 23.850 GAU 0.0 0.0 0.0 0.0
RD02 ? BHZ e P c 20241208 2346 22.870 GAU 0.0 0.0 0.0 0.0
RD05 ? BHZ e P c 20241208 2346 23.300 GAU 0.0 0.0 0.0 0.0
RD07 ? BHN e S c 20241208 2346 23.790 GAU 0.0 0.0 0.0 0.0
RD07 ? BHZ e P c 20241208 2346 23.200 GAU 0.0 0.0 0.0 0.0
RD03 ? BHZ e P c 20241208 2346 23.050 GAU 0.0 0.0 0.0 0.0
RD03 ? BHN e S c 20241208 2346 23.650 GAU 0.0 0.0 0.0 0.0
RD06 ? BHN e S c 20241208 2346 23.770 GAU 0.0 0.0 0.0 0.0
RD06 ? BHZ e P c 20241208 2346 23.180 GAU 0.0 0.0 0.0 0.0
RD04 ? BHZ e P c 20241208 2346 23.150 GAU 0.0 0.0 0.0 0.0
RD02 ? BHN e S c 20241208 2346 23.370 GAU 0.0 0.0 0.0 0.0
