RD15 ? BHN e S c 20241213 0307 25.050 GAU 0.0 0.0 0.0 0.0
RD15 ? BHZ e P c 20241213 0307 24.940 GAU 0.0 0.0 0.0 0.0
RD14 ? BHN e S c 20241213 0307 25.050 GAU 0.0 0.0 0.0 0.0
RD13 ? BHN e S c 20241213 0307 24.720 GAU 0.0 0.0 0.0 0.0
RD14 ? BHZ e P c 20241213 0307 24.920 GAU 0.0 0.0 0.0 0.0
RD10 ? BHN e S c 20241213 0307 24.920 GAU 0.0 0.0 0.0 0.0
RD10 ? BHZ e P c 20241213 0307 24.270 GAU 0.0 0.0 0.0 0.0
RD09 ? BHN e S c 20241213 0307 24.720 GAU 0.0 0.0 0.0 0.0
RD11 ? BHN e S c 20241213 0307 24.020 GAU 0.0 0.0 0.0 0.0
