RD15 ? BHZ e P c 20241214 1700 37.390 GAU 0.0 0.0 0.0 0.0
RD14 ? BHZ e P c 20241214 1700 37.050 GAU 0.0 0.0 0.0 0.0
RD13 ? BHZ e P c 20241214 1700 37.030 GAU 0.0 0.0 0.0 0.0
RD13 ? BHN e S c 20241214 1700 37.080 GAU 0.0 0.0 0.0 0.0
RD12 ? BHZ e P c 20241214 1700 36.900 GAU 0.0 0.0 0.0 0.0
RD11 ? BHZ e P c 20241214 1700 36.930 GAU 0.0 0.0 0.0 0.0
RD10 ? BHN e S c 20241214 1700 37.130 GAU 0.0 0.0 0.0 0.0
RD10 ? BHZ e P c 20241214 1700 36.890 GAU 0.0 0.0 0.0 0.0
RD08 ? BHZ e P c 20241214 1700 36.780 GAU 0.0 0.0 0.0 0.0
RD07 ? BHZ e P c 20241214 1700 36.580 GAU 0.0 0.0 0.0 0.0
RD06 ? BHZ e P c 20241214 1700 36.590 GAU 0.0 0.0 0.0 0.0
RD05 ? BHZ e P c 20241214 1700 36.490 GAU 0.0 0.0 0.0 0.0
RD04 ? BHZ e P c 20241214 1700 36.810 GAU 0.0 0.0 0.0 0.0
RD02 ? BHN e S c 20241214 1700 36.810 GAU 0.0 0.0 0.0 0.0
RD02 ? BHZ e P c 20241214 1700 36.690 GAU 0.0 0.0 0.0 0.0
RD01 ? BHZ e P c 20241214 1700 36.520 GAU 0.0 0.0 0.0 0.0
RD09 ? BHN e S c 20241214 1700 37.230 GAU 0.0 0.0 0.0 0.0
