RD06 ? BHN e S c 20241210 2038 40.450 GAU 0.0 0.0 0.0 0.0
RD06 ? BHZ e P c 20241210 2038 40.440 GAU 0.0 0.0 0.0 0.0
RD02 ? BHN e S c 20241210 2038 40.000 GAU 0.0 0.0 0.0 0.0
RD04 ? BHN e S c 20241210 2038 40.110 GAU 0.0 0.0 0.0 0.0
RD01 ? BHN e S c 20241210 2038 40.380 GAU 0.0 0.0 0.0 0.0
RD03 ? BHN e S c 20241210 2038 40.370 GAU 0.0 0.0 0.0 0.0
RD03 ? BHZ e P c 20241210 2038 39.580 GAU 0.0 0.0 0.0 0.0
