RD11 ? BHN e S c 20241228 0859 14.580 GAU 0.0 0.0 0.0 0.0
RD02 ? BHN e S c 20241228 0859 14.540 GAU 0.0 0.0 0.0 0.0
RD06 ? BHZ e P c 20241228 0859 14.550 GAU 0.0 0.0 0.0 0.0
RD04 ? BHN e S c 20241228 0859 14.880 GAU 0.0 0.0 0.0 0.0
RD04 ? BHZ e P c 20241228 0859 14.260 GAU 0.0 0.0 0.0 0.0
RD02 ? BHZ e P c 20241228 0859 14.060 GAU 0.0 0.0 0.0 0.0
RD01 ? BHZ e P c 20241228 0859 14.290 GAU 0.0 0.0 0.0 0.0
RD03 ? BHZ e P c 20241228 0859 14.730 GAU 0.0 0.0 0.0 0.0
