RD15 ? BHN e S c 20241214 1243 59.470 GAU 0.0 0.0 0.0 0.0
RD14 ? BHN e S c 20241214 1243 59.070 GAU 0.0 0.0 0.0 0.0
RD13 ? BHZ e P c 20241214 1243 59.180 GAU 0.0 0.0 0.0 0.0
RD13 ? BHN e S c 20241214 1243 59.270 GAU 0.0 0.0 0.0 0.0
RD12 ? BHN e S c 20241214 1243 59.250 GAU 0.0 0.0 0.0 0.0
RD11 ? BHN e S c 20241214 1243 58.490 GAU 0.0 0.0 0.0 0.0
RD10 ? BHN e S c 20241214 1243 59.010 GAU 0.0 0.0 0.0 0.0
RD09 ? BHN e S c 20241214 1243 59.670 GAU 0.0 0.0 0.0 0.0
RD07 ? BHN e S c 20241214 1243 59.660 GAU 0.0 0.0 0.0 0.0
RD06 ? BHN e S c 20241214 1243 59.910 GAU 0.0 0.0 0.0 0.0
RD11 ? BHZ e P c 20241214 1243 58.900 GAU 0.0 0.0 0.0 0.0
