RD13 ? BHN e S c 20241231 0732 17.740 GAU 0.0 0.0 0.0 0.0
RD11 ? BHN e S c 20241231 0732 17.250 GAU 0.0 0.0 0.0 0.0
RD13 ? BHZ e P c 20241231 0732 17.680 GAU 0.0 0.0 0.0 0.0
RD10 ? BHZ e P c 20241231 0732 17.360 GAU 0.0 0.0 0.0 0.0
RD09 ? BHZ e P c 20241231 0732 17.450 GAU 0.0 0.0 0.0 0.0
RD11 ? BHZ e P c 20241231 0732 17.160 GAU 0.0 0.0 0.0 0.0
