RD13 ? BHZ e P c 20241212 0637 52.180 GAU 0.0 0.0 0.0 0.0
RD05 ? BHZ e P c 20241212 0637 52.300 GAU 0.0 0.0 0.0 0.0
RD06 ? BHZ e P c 20241212 0637 51.860 GAU 0.0 0.0 0.0 0.0
RD07 ? BHZ e P c 20241212 0637 52.330 GAU 0.0 0.0 0.0 0.0
RD08 ? BHN e S c 20241212 0637 51.810 GAU 0.0 0.0 0.0 0.0
RD09 ? BHZ e P c 20241212 0637 52.090 GAU 0.0 0.0 0.0 0.0
RD11 ? BHN e S c 20241212 0637 52.100 GAU 0.0 0.0 0.0 0.0
