RD06 ? BHN e S c 20241213 0705 14.630 GAU 0.0 0.0 0.0 0.0
RD14 ? BHZ e P c 20241213 0705 14.380 GAU 0.0 0.0 0.0 0.0
RD13 ? BHZ e P c 20241213 0705 14.240 GAU 0.0 0.0 0.0 0.0
RD11 ? BHN e S c 20241213 0705 14.640 GAU 0.0 0.0 0.0 0.0
RD10 ? BHZ e P c 20241213 0705 14.150 GAU 0.0 0.0 0.0 0.0
RD07 ? BHN e S c 20241213 0705 14.810 GAU 0.0 0.0 0.0 0.0
RD06 ? BHZ e P c 20241213 0705 14.020 GAU 0.0 0.0 0.0 0.0
RD09 ? BHZ e P c 20241213 0705 14.050 GAU 0.0 0.0 0.0 0.0
RD04 ? BHZ e P c 20241213 0705 14.280 GAU 0.0 0.0 0.0 0.0
RD03 ? BHN e S c 20241213 0705 14.780 GAU 0.0 0.0 0.0 0.0
RD03 ? BHZ e P c 20241213 0705 14.080 GAU 0.0 0.0 0.0 0.0
RD02 ? BHN e S c 20241213 0705 14.810 GAU 0.0 0.0 0.0 0.0
RD02 ? BHZ e P c 20241213 0705 13.990 GAU 0.0 0.0 0.0 0.0
RD01 ? BHZ e P c 20241213 0705 14.030 GAU 0.0 0.0 0.0 0.0
RD05 ? BHN e S c 20241213 0705 14.670 GAU 0.0 0.0 0.0 0.0
