RD05 ? BHN e S c 20241210 2039 08.490 GAU 0.0 0.0 0.0 0.0
RD06 ? BHN e S c 20241210 2039 08.120 GAU 0.0 0.0 0.0 0.0
RD10 ? BHZ e P c 20241210 2039 07.980 GAU 0.0 0.0 0.0 0.0
RD03 ? BHN e S c 20241210 2039 07.960 GAU 0.0 0.0 0.0 0.0
RD07 ? BHZ e P c 20241210 2039 08.350 GAU 0.0 0.0 0.0 0.0
RD09 ? BHN e S c 20241210 2039 08.350 GAU 0.0 0.0 0.0 0.0
