RD11 ? BHZ e P c 20241222 0622 09.840 GAU 0.0 0.0 0.0 0.0
RD13 ? BHZ e P c 20241222 0622 09.800 GAU 0.0 0.0 0.0 0.0
RD15 ? BHZ e P c 20241222 0622 10.260 GAU 0.0 0.0 0.0 0.0
RD11 ? BHN e S c 20241222 0622 10.020 GAU 0.0 0.0 0.0 0.0
RD10 ? BHZ e P c 20241222 0622 10.110 GAU 0.0 0.0 0.0 0.0
RD03 ? BHZ e P c 20241222 0622 10.070 GAU 0.0 0.0 0.0 0.0
RD04 ? BHZ e P c 20241222 0622 09.710 GAU 0.0 0.0 0.0 0.0
RD03 ? BHN e S c 20241222 0622 10.150 GAU 0.0 0.0 0.0 0.0
RD02 ? BHZ e P c 20241222 0622 09.980 GAU 0.0 0.0 0.0 0.0
RD07 ? BHZ e P c 20241222 0622 10.150 GAU 0.0 0.0 0.0 0.0
