RD11 ? BHZ e P c 20241211 1634 38.680 GAU 0.0 0.0 0.0 0.0
RD13 ? BHN e S c 20241211 1634 38.720 GAU 0.0 0.0 0.0 0.0
RD13 ? BHZ e P c 20241211 1634 38.730 GAU 0.0 0.0 0.0 0.0
RD14 ? BHN e S c 20241211 1634 39.130 GAU 0.0 0.0 0.0 0.0
RD14 ? BHZ e P c 20241211 1634 39.170 GAU 0.0 0.0 0.0 0.0
RD15 ? BHZ e P c 20241211 1634 38.650 GAU 0.0 0.0 0.0 0.0
RD15 ? BHN e S c 20241211 1634 39.180 GAU 0.0 0.0 0.0 0.0
