RD04 ? BHZ e P c 20241128 1845 35.065 GAU 0.0 0.0 -264.56485 0.0
RD04 ? BHE e S ? 20241128 1845 39.263 GAU 0.0 0.0 2252.1802 0.0
RD01 ? BHZ e P c 20241128 1845 35.168 GAU 0.0 0.0 188.19511 0.0
RD01 ? BHN e S ? 20241128 1845 39.440 GAU 0.0 0.0 1410.2456 0.0
RD10 ? BHZ e P c 20241128 1845 36.566 GAU 0.0 0.0 62.579754 0.0
RD10 ? BHN e S ? 20241128 1845 41.769 GAU 0.0 0.0 512.73926 0.0
RD06 ? BHZ e P c 20241128 1845 36.070 GAU 0.0 0.0 752.09064 0.0
RD06 ? BHN e S ? 20241128 1845 40.975 GAU 0.0 0.0 -3278.1646 0.0
RD09 ? BHZ e P c 20241128 1845 36.308 GAU 0.06509092 0.0 -359.21915 0.0
RD09 ? BHE e S ? 20241128 1845 41.322 GAU 0.09948979 0.0 576.0237 0.0

