RD01 ? BHZ e P c 20241125 0140 05.975 GAU 0.034174565 0.0 1038.0175 0.0
RD01 ? BHN e S ? 20241125 0140 09.455 GAU 0.0 0.0 3348.4854 0.0
RD02 ? BHZ e P c 20241125 0140 05.657 GAU 0.017550942 0.0 89.654045 0.0
RD02 ? BHN e S ? 20241125 0140 08.955 GAU 0.0 0.0 -3562.4724 0.0
RD09 ? BHZ e P d 20241125 0140 07.199 GAU 0.0 0.0 719.8581 0.0
RD09 ? BHN e S ? 20241125 0140 11.548 GAU 0.0 0.0 -4606.0044 0.0
RD10 ? BHZ e P c 20241125 0140 06.876 GAU 0.0 0.0 -596.0884 0.0
RD10 ? BHN e S ? 20241125 0140 10.974 GAU 0.0 0.0 1084.9424 0.0

