RD05 ? BHZ e P c 20241125 0151 52.513 GAU 0.0 0.0 -774.6526 0.0
RD05 ? BHE e S ? 20241125 0151 57.055 GAU 0.0 0.0 3688.7349 0.0
RD02 ? BHZ e P c 20241125 0151 52.052 GAU 0.0 0.0 2868.644 0.0
RD02 ? BHN e S ? 20241125 0151 56.272 GAU 0.0 0.0 17556.623 0.0
RD01 ? BHZ e P c 20241125 0151 51.407 GAU 0.0 0.0 -615.5272 0.0
RD01 ? BHN e S ? 20241125 0151 55.196 GAU 0.0 0.0 1514.4207 0.0
RD06 ? BHZ e P c 20241125 0151 52.150 GAU 0.0 0.0 -997.74524 0.0
RD06 ? BHN e S ? 20241125 0151 56.433 GAU 0.0 0.0 2993.225 0.0
RD14 ? BHZ e P c 20241125 0151 52.620 GAU 0.0 0.0 82.105804 0.0
RD14 ? BHN e S ? 20241125 0151 57.270 GAU 0.0 0.0 -1138.8876 0.0
RD09 ? BHZ e P d 20241125 0151 52.393 GAU 0.0 0.0 603.6599 0.0
RD09 ? BHN e S ? 20241125 0151 56.910 GAU 0.0 0.0 2849.4265 0.0
RD10 ? BHZ e P c 20241125 0151 52.669 GAU 0.0 0.0 -501.95905 0.0
RD10 ? BHE e S ? 20241125 0151 57.258 GAU 0.0 0.0 646.69934 0.0

