RD04 ? BHZ e P c 20241125 1051 00.179 GAU 0.0 0.0 5.012831 0.0
RD04 ? BHN e S ? 20241125 1051 04.329 GAU 0.0 0.0 -2804.7412 0.0
RD01 ? BHZ e P c 20241125 1051 00.275 GAU 0.0 0.0 106.46856 0.0
RD01 ? BHN e S ? 20241125 1051 04.497 GAU 0.0 0.0 10990.357 0.0
RD06 ? BHZ e P d 20241125 1051 00.899 GAU 0.0 0.0 -487.23846 0.0
RD06 ? BHN e S ? 20241125 1051 05.550 GAU 0.0 0.0 3091.1494 0.0
RD15 ? BHZ e P c 20241125 1051 01.463 GAU 0.0 0.0 -1508.8662 0.0
RD15 ? BHE e S ? 20241125 1051 06.460 GAU 0.0 0.0 4441.551 0.0
RD09 ? BHZ e P d 20241125 1051 01.336 GAU 0.0037944312 0.0 -624.9448 0.0
RD09 ? BHE e S ? 20241125 1051 06.253 GAU 0.0 0.0 7569.3794 0.0
RD10 ? BHZ e P c 20241125 1051 01.372 GAU 0.0 0.0 -408.40414 0.0
RD10 ? BHE e S ? 20241125 1051 06.376 GAU 0.0 0.0 -3837.6372 0.0
RD14 ? BHZ e P c 20241125 1051 01.384 GAU 0.0 0.0 -399.4468 0.0
RD14 ? BHN e S ? 20241125 1051 06.394 GAU 0.0 0.0 -1829.947 0.0

