RD09 ? BHZ e P d 20241129 1716 13.259 GAU 0.0 0.0 -337.3207 0.0
RD09 ? BHN e S ? 20241129 1716 18.084 GAU 0.0 0.0 -18168.844 0.0
RD13 ? BHZ e P d 20241129 1716 13.257 GAU 0.0 0.0 -191.6513 0.0
RD13 ? BHE e S ? 20241129 1716 17.996 GAU 0.0 0.0 5816.985 0.0
RD10 ? BHZ e P d 20241129 1716 13.323 GAU 0.0 0.0 324.94882 0.0
RD10 ? BHE e S ? 20241129 1716 18.184 GAU 0.0 0.0 793.04626 0.0
RD15 ? BHZ e P c 20241129 1716 13.417 GAU 0.0 0.0 340.81793 0.0
RD15 ? BHN e S ? 20241129 1716 18.350 GAU 0.0 0.0 -19851.787 0.0
RD14 ? BHZ e P d 20241129 1716 13.428 GAU 0.0 0.0 -21.049366 0.0
RD14 ? BHE e S ? 20241129 1716 18.319 GAU 0.0 0.0 -4381.5615 0.0
RD04 ? BHZ e P d 20241129 1716 12.120 GAU 0.0 0.0 519.7985 0.0
RD04 ? BHN e S ? 20241129 1716 16.127 GAU 0.0 0.0 1625.3679 0.0
RD01 ? BHZ e P c 20241129 1716 12.343 GAU 0.0 0.0 -70.46571 0.0
RD01 ? BHN e S ? 20241129 1716 16.516 GAU 0.0 0.0 7263.4355 0.0
RD06 ? BHZ e P d 20241129 1716 12.839 GAU 0.0 0.0 1007.582 0.0
RD06 ? BHN e S ? 20241129 1716 17.346 GAU 0.0 0.0 8430.291 0.0
RD05 ? BHZ e P c 20241129 1716 13.163 GAU 0.0 0.0 -330.0448 0.0
RD05 ? BHE e S ? 20241129 1716 17.864 GAU 0.0 0.0 15210.132 0.0

