RD01 ? BHZ e P c 20241129 1758 28.029 GAU 0.0 0.0 -113.26048 0.0
RD01 ? BHN e S ? 20241129 1758 32.224 GAU 0.0 0.0 7957.8223 0.0
RD04 ? BHZ e P c 20241129 1758 28.082 GAU 0.0 0.0 -1105.4084 0.0
RD04 ? BHN e S ? 20241129 1758 32.312 GAU 0.0 0.0 1525.0593 0.0
RD06 ? BHZ e P d 20241129 1758 28.711 GAU 0.0 0.0 653.331 0.0
RD06 ? BHN e S ? 20241129 1758 33.320 GAU 0.0 0.0 7153.629 0.0
RD05 ? BHZ e P c 20241129 1758 28.854 GAU 0.0 0.0 -606.4949 0.0
RD05 ? BHE e S ? 20241129 1758 33.613 GAU 0.0 0.0 1662.5897 0.0
RD15 ? BHZ e P d 20241129 1758 29.163 GAU 0.0 0.0 171.06892 0.0
RD15 ? BHN e S ? 20241129 1758 34.231 GAU 0.0 0.0 1885.606 0.0
RD13 ? BHZ e P c 20241129 1758 29.228 GAU 0.009789215 0.0 -2770.919 0.0
RD13 ? BHN e S ? 20241129 1758 34.190 GAU 0.0 0.0 3019.9033 0.0
RD10 ? BHZ e P d 20241129 1758 29.233 GAU 0.0 0.0 -206.44423 0.0
RD10 ? BHE e S ? 20241129 1758 34.277 GAU 0.0 0.0 -324.04364 0.0
RD14 ? BHZ e P c 20241129 1758 29.296 GAU 0.0 0.0 -841.1433 0.0
RD14 ? BHE e S ? 20241129 1758 34.334 GAU 0.0 0.0 5646.3203 0.0

