RD09 ? BHZ i P c 20241129 1605 55.790 GAU 0.0 0.0 8401.113 0.0
RD09 ? BHE e S ? 20241129 1606 00.641 GAU 0.0 0.0 -112221.08 0.0
RD04 ? BHZ e P d 20241129 1605 54.794 GAU 0.0 0.0 -3398.5479 0.0
RD04 ? BHE e S ? 20241129 1605 58.880 GAU 0.0 0.0 -244818.53 0.0
RD01 ? BHZ e P c 20241129 1605 54.841 GAU 0.0 0.0 -12971.039 0.0
RD01 ? BHN e S ? 20241129 1605 58.919 GAU 0.0 0.0 166757.28 0.0
RD02 ? BHZ e P d 20241129 1605 55.061 GAU 0.0 0.0 3055.7227 0.0
RD02 ? BHN e S ? 20241129 1605 59.266 GAU 0.0 0.0 -707727.4 0.0
RD03 ? BHZ i P c 20241129 1605 55.305 GAU 0.0 0.0 -6719.6533 0.0
RD03 ? BHE e S ? 20241129 1605 59.753 GAU 0.0 0.0 243374.08 0.0
RD05 ? BHZ e P c 20241129 1605 55.380 GAU 0.0 0.0 -1804.6875 0.0
RD05 ? BHE e S ? 20241129 1605 59.996 GAU 0.0 0.0 -152634.27 0.0
RD06 ? BHZ e P d 20241129 1605 55.457 GAU 0.0 0.0 16399.346 0.0
RD06 ? BHN e S ? 20241129 1605 59.931 GAU 0.0 0.0 -21315.025 0.0
RD07 ? BHZ e P d 20241129 1605 55.531 GAU 0.0 0.0 14858.032 0.0
RD07 ? BHE e S ? 20241129 1606 00.076 GAU 0.0 0.0 295269.56 0.0
RD08 ? BHZ e P c 20241129 1605 55.647 GAU 0.0 0.0 -25418.629 0.0
RD08 ? BHE e S ? 20241129 1606 00.294 GAU 0.0 0.0 -292361.34 0.0
RD13 ? BHZ e P d 20241129 1605 55.904 GAU 0.0 0.0 29572.623 0.0
RD13 ? BHN e S ? 20241129 1606 00.698 GAU 0.0 0.0 266043.72 0.0
RD10 ? BHZ i P d 20241129 1605 55.971 GAU 0.0 0.0 15020.49 0.0
RD10 ? BHN e S ? 20241129 1606 00.811 GAU 0.011865716 0.0 -164471.94 0.0
RD12 ? BHZ e P c 20241129 1605 56.026 GAU 0.0 0.0 -5880.901 0.0
RD12 ? BHE e S ? 20241129 1606 00.893 GAU 0.0 0.0 69499.35 0.0
RD14 ? BHZ e P c 20241129 1605 55.945 GAU 0.0 0.0 1803.5486 0.0
RD14 ? BHE e S ? 20241129 1606 00.937 GAU 0.0 0.0 76026.125 0.0
RD15 ? BHZ e P c 20241129 1605 56.028 GAU 0.0 0.0 -315.57593 0.0
RD15 ? BHE e S ? 20241129 1606 00.944 GAU 0.0 0.0 21044.602 0.0

