RD04 ? BHZ i P d 20241129 1305 11.505 GAU 0.0 0.0 -380.48853 0.0
RD04 ? BHN e S ? 20241129 1305 15.713 GAU 0.0 0.0 107405.03 0.0
RD01 ? BHZ i P c 20241129 1305 11.521 GAU 0.0 0.0 -757.668 0.0
RD01 ? BHN e S ? 20241129 1305 15.769 GAU 0.0 0.0 188343.4 0.0
RD02 ? BHZ i P c 20241129 1305 11.690 GAU 0.0 0.0 -592.56494 0.0
RD02 ? BHN e S ? 20241129 1305 16.052 GAU 0.0 0.0 -19418.705 0.0
RD03 ? BHZ i P c 20241129 1305 11.964 GAU 0.0 0.0 516.7545 0.0
RD03 ? BHN e S ? 20241129 1305 16.486 GAU 0.0 0.0 -8983.344 0.0
RD07 ? BHZ e P d 20241129 1305 12.236 GAU 0.0 0.0 -1356.4221 0.0
RD07 ? BHN e S ? 20241129 1305 17.008 GAU 0.0 0.0 -83707.266 0.0
RD06 ? BHZ i P d 20241129 1305 12.239 GAU 0.0 0.0 1076.4558 0.0
RD06 ? BHN e S ? 20241129 1305 16.921 GAU 0.0 0.0 2578.748 0.0
RD05 ? BHZ i P c 20241129 1305 12.314 GAU 0.0 0.0 -5192.4893 0.0
RD05 ? BHE e S ? 20241129 1305 17.088 GAU 0.0 0.0 52722.047 0.0
RD08 ? BHZ e P c 20241129 1305 12.407 GAU 0.0 0.0 -9907.138 0.0
RD08 ? BHE e S ? 20241129 1305 17.260 GAU 0.0 0.0 93903.445 0.0
RD10 ? BHZ e P d 20241129 1305 12.683 GAU 0.0 0.0 2230.7073 0.0
RD10 ? BHN e S ? 20241129 1305 17.641 GAU 0.0 0.0 -4285.2705 0.0
RD09 ? BHZ i P d 20241129 1305 12.568 GAU 0.0 0.0 3430.8926 0.0
RD09 ? BHN e S ? 20241129 1305 17.477 GAU 0.0 0.0 98004.62 0.0
RD13 ? BHZ i P d 20241129 1305 12.627 GAU 0.0 0.0 2332.2415 0.0
RD13 ? BHE e S ? 20241129 1305 17.625 GAU 0.0 0.0 187224.53 0.0
RD14 ? BHZ i P d 20241129 1305 12.796 GAU 0.0 0.0 2326.5884 0.0
RD14 ? BHE e S ? 20241129 1305 17.919 GAU 0.0 0.0 143301.36 0.0
RD15 ? BHZ i P d 20241129 1305 12.850 GAU 0.0 0.0 5681.5938 0.0
RD15 ? BHE e S ? 20241129 1305 17.892 GAU 0.0 0.0 44460.79 0.0

