RD04 ? BHZ e P d 20241124 2203 47.107 GAU 0.0 0.0 26.126844 0.0
RD04 ? BHN e S ? 20241124 2203 50.896 GAU 0.0 0.0 -446.71335 0.0
RD01 ? BHZ e P c 20241124 2203 47.313 GAU 0.0 0.0 -211.71866 0.0
RD01 ? BHE e S ? 20241124 2203 51.215 GAU 0.0 0.0 4305.2637 0.0
RD02 ? BHZ e P d 20241124 2203 47.945 GAU 0.0 0.0 2514.415 0.0
RD02 ? BHN e S ? 20241124 2203 52.282 GAU 0.0 0.0 -16178.173 0.0
RD05 ? BHZ e P c 20241124 2203 48.048 GAU 0.0 0.0 -222.6344 0.0
RD05 ? BHE e S ? 20241124 2203 52.483 GAU 0.0 0.0 494.5396 0.0
RD06 ? BHZ e P c 20241124 2203 48.075 GAU 0.0 0.0 15.513132 0.0
RD06 ? BHN e S ? 20241124 2203 52.472 GAU 0.0 0.0 7443.186 0.0
RD15 ? BHZ e P d 20241124 2203 48.454 GAU 0.0 0.0 -1023.999 0.0
RD15 ? BHN e S ? 20241124 2203 53.254 GAU 0.0 0.0 3039.7979 0.0
RD09 ? BHZ e P c 20241124 2203 48.343 GAU 0.0 0.0 -188.4975 0.0
RD09 ? BHN e S ? 20241124 2203 53.003 GAU 0.0 0.0 3251.7444 0.0
RD10 ? BHZ e P c 20241124 2203 48.473 GAU 0.0 0.0 313.15146 0.0
RD10 ? BHE e S ? 20241124 2203 53.193 GAU 0.0 0.0 2199.7754 0.0
RD14 ? BHZ e P d 20241124 2203 48.607 GAU 0.0 0.0 942.1177 0.0
RD14 ? BHN e S ? 20241124 2203 53.356 GAU 0.0 0.0 2219.9265 0.0

