RD01 ? BHZ e P c 20241126 0954 22.919 GAU 0.0 0.0 372.0556 0.0
RD01 ? BHN e S ? 20241126 0954 26.817 GAU 0.008225775 0.0 17485.463 0.0
RD06 ? BHZ e P d 20241126 0954 23.418 GAU 0.0 0.0 -1039.3533 0.0
RD06 ? BHN e S ? 20241126 0954 27.753 GAU 0.0 0.0 5675.6816 0.0
RD09 ? BHZ i P d 20241126 0954 23.680 GAU 0.0 0.0 436.709 0.0
RD09 ? BHN e S ? 20241126 0954 28.206 GAU 0.0 0.0 3254.4336 0.0
RD05 ? BHZ i P c 20241126 0954 23.633 GAU 0.0 0.0 3296.9238 0.0
RD05 ? BHN e S ? 20241126 0954 28.101 GAU 0.0 0.0 -9141.489 0.0
RD13 ? BHZ e P c 20241126 0954 23.911 GAU 0.0 0.0 -1096.6919 0.0
RD13 ? BHE e S ? 20241126 0954 28.532 GAU 0.0 0.0 -12681.739 0.0
RD10 ? BHZ e P c 20241126 0954 23.875 GAU 0.0 0.0 -969.0296 0.0
RD10 ? BHE e S ? 20241126 0954 28.426 GAU 0.0 0.0 -2477.2131 0.0
RD14 ? BHZ i P d 20241126 0954 23.890 GAU 0.0 0.0 -2290.1992 0.0
RD14 ? BHN e S ? 20241126 0954 28.542 GAU 0.0 0.0 1877.7914 0.0
RD15 ? BHZ i P d 20241126 0954 23.961 GAU 0.0 0.0 -1056.7157 0.0
RD15 ? BHE e S ? 20241126 0954 28.596 GAU 0.0 0.0 -6555.5405 0.0

