RD10 ? BHZ i P c 20241116 0413 35.955 GAU 0.0 0.0 -1162.0073 0.0
RD10 ? BHN e S ? 20241116 0413 37.029 GAU 0.0 0.0 -152.86525 0.0
RD14 ? BHZ e P c 20241116 0413 35.971 GAU 0.0 0.0 -2118.6667 0.0
RD14 ? BHE e S ? 20241116 0413 37.056 GAU 0.0 0.0 -27.725098 0.0
RD11 ? BHZ i P c 20241116 0413 36.040 GAU 0.0 0.0 -816.9284 0.0
RD11 ? BHN e S ? 20241116 0413 37.169 GAU 0.0 0.0 -1596.5184 0.0
RD09 ? BHZ i P d 20241116 0413 38.336 GAU 0.0 0.0 -815.8404 0.0
RD09 ? BHE e S ? 20241116 0413 40.995 GAU 0.0 0.0 6921.4316 0.0

