RD01 ? BHZ e P d 20241125 0007 16.024 GAU 0.0 0.0 217.12907 0.0
RD01 ? BHE e S ? 20241125 0007 20.265 GAU 0.0 0.0 -22504.924 0.0
RD04 ? BHZ e P c 20241125 0007 16.092 GAU 0.0 0.0 701.6101 0.0
RD04 ? BHN e S ? 20241125 0007 20.340 GAU 0.0 0.0 -7133.054 0.0
RD06 ? BHZ e P c 20241125 0007 16.778 GAU 0.0 0.0 106.05817 0.0
RD06 ? BHN e S ? 20241125 0007 21.465 GAU 0.0 0.0 -17704.555 0.0
RD02 ? BHZ e P c 20241125 0007 16.826 GAU 0.0 0.0 -52.278755 0.0
RD02 ? BHE e S ? 20241125 0007 21.763 GAU 0.0 0.0 -25657.375 0.0
RD05 ? BHZ e P d 20241125 0007 16.988 GAU 0.0 0.0 -119.994354 0.0
RD05 ? BHE e S ? 20241125 0007 21.907 GAU 0.0 0.0 -21910.69 0.0
RD10 ? BHZ e P d 20241125 0007 17.359 GAU 0.0 0.0 164.56224 0.0
RD10 ? BHE e S ? 20241125 0007 22.657 GAU 0.0 0.0 18902.889 0.0
RD15 ? BHZ e P c 20241125 0007 17.335 GAU 0.0 0.0 -1367.5911 0.0
RD15 ? BHN e S ? 20241125 0007 22.455 GAU 0.0 0.0 12792.056 0.0
RD09 ? BHZ e P c 20241125 0007 17.341 GAU 0.0 0.0 -1123.9843 0.0
RD09 ? BHE e S ? 20241125 0007 22.445 GAU 0.0 0.0 21690.99 0.0
RD14 ? BHZ e P c 20241125 0007 17.387 GAU 0.0 0.0 -1996.4048 0.0
RD14 ? BHN e S ? 20241125 0007 22.417 GAU 0.11569073 0.0 -29366.654 0.0

