RD14 ? BHZ e P c 20241124 2014 16.296 GAU 0.010927962 0.0 783.1483 0.0
RD14 ? BHN e S ? 20241124 2014 18.263 GAU 0.04097986 0.0 -4266.502 0.0
RD07 ? BHZ e P c 20241124 2014 16.334 GAU 0.008170324 0.0 -5272.945 0.0
RD07 ? BHE e S ? 20241124 2014 18.354 GAU 0.0 0.0 44078.43 0.0
RD13 ? BHZ e P d 20241124 2014 16.278 GAU 0.042487916 0.0 329.16296 0.0
RD13 ? BHN e S ? 20241124 2014 18.205 GAU 0.039655387 0.0 42274.957 0.0
RD04 ? BHZ i P c 20241124 2014 16.316 GAU 0.0 0.0 2190.5994 0.0
RD04 ? BHE e S ? 20241124 2014 18.335 GAU 0.0 0.0 -9012.588 0.0
RD02 ? BHZ e P c 20241124 2014 16.313 GAU 0.0 0.0 57.65232 0.0
RD02 ? BHN e S ? 20241124 2014 18.299 GAU 0.0 0.0 -39023.008 0.0
RD15 ? BHZ e P d 20241124 2014 16.343 GAU 0.02447304 0.0 -1462.5513 0.0
RD15 ? BHN e S ? 20241124 2014 18.310 GAU 0.02622711 0.0 -15665.327 0.0
RD08 ? BHZ e P c 20241124 2014 16.359 GAU 0.013659952 0.0 -3976.5872 0.0
RD08 ? BHE e S ? 20241124 2014 18.384 GAU 0.028325278 0.0 33537.63 0.0
RD10 ? BHZ e P d 20241124 2014 16.371 GAU 0.028325278 0.0 397.25372 0.0
RD10 ? BHE e S ? 20241124 2014 18.415 GAU 0.06852451 0.0 13584.246 0.0
RD09 ? BHZ e P d 20241124 2014 16.491 GAU 0.007868133 0.0 -1220.1691 0.0
RD09 ? BHN e S ? 20241124 2014 18.545 GAU 0.06798067 0.0 15319.877 0.0
RD06 ? BHZ i P d 20241124 2014 16.508 GAU 0.0 0.0 180.80614 0.0
RD06 ? BHE e S ? 20241124 2014 18.567 GAU 0.0 0.0 28212.432 0.0
RD03 ? BHZ e P d 20241124 2014 16.583 GAU 0.045320444 0.0 1801.862 0.0
RD03 ? BHN e S ? 20241124 2014 18.715 GAU 0.095172934 0.0 -12160.293 0.0
RD01 ? BHZ e P d 20241124 2014 16.660 GAU 0.0 0.0 -256.61258 0.0
RD01 ? BHE e S ? 20241124 2014 18.899 GAU 0.0 0.0 -65808.53 0.0
RD05 ? BHZ i P d 20241124 2014 16.717 GAU 0.0 0.0 281.4735 0.0
RD05 ? BHE e S ? 20241124 2014 19.000 GAU 0.0 0.0 9528.586 0.0

