RD02 ? BHZ e P d 20241124 2046 16.211 GAU 0.0 0.0 1132.382 0.0
RD02 ? BHN e S ? 20241124 2046 18.213 GAU 0.0 0.0 14725.32 0.0
RD15 ? BHZ e P c 20241124 2046 16.267 GAU 0.0 0.0 -2124.987 0.0
RD15 ? BHN e S ? 20241124 2046 18.288 GAU 0.0 0.0 2697.875 0.0
RD14 ? BHZ e P c 20241124 2046 16.274 GAU 0.0 0.0 -1567.8855 0.0
RD14 ? BHN e S ? 20241124 2046 18.269 GAU 0.0 0.0 25.875118 0.0
RD04 ? BHZ e P c 20241124 2046 16.278 GAU 0.0 0.0 -1.8832185 0.0
RD04 ? BHE e S ? 20241124 2046 18.315 GAU 0.0 0.0 -5651.041 0.0
RD13 ? BHZ e P d 20241124 2046 16.284 GAU 0.0 0.0 1848.4546 0.0
RD13 ? BHN e S ? 20241124 2046 18.249 GAU 0.0 0.0 -161.37796 0.0
RD10 ? BHZ e P d 20241124 2046 16.346 GAU 0.0 0.0 72.07849 0.0
RD10 ? BHE e S ? 20241124 2046 18.454 GAU 0.0 0.0 -1166.6938 0.0
RD09 ? BHZ e P d 20241124 2046 16.454 GAU 0.0 0.0 285.20648 0.0
RD09 ? BHN e S ? 20241124 2046 18.596 GAU 0.0 0.0 6242.387 0.0
RD03 ? BHZ e P c 20241124 2046 16.535 GAU 0.0 0.0 -2407.9116 0.0
RD03 ? BHN e S ? 20241124 2046 18.724 GAU 0.0 0.0 17421.42 0.0
RD06 ? BHZ e P d 20241124 2046 16.475 GAU 0.0 0.0 137.87263 0.0
RD06 ? BHE e S ? 20241124 2046 18.577 GAU 0.0 0.0 1289.876 0.0
RD01 ? BHZ e P c 20241124 2046 16.615 GAU 0.015377969 0.0 -85.07753 0.0
RD01 ? BHE e S ? 20241124 2046 18.891 GAU 0.0 0.0 -7275.884 0.0
RD05 ? BHZ e P d 20241124 2046 16.723 GAU 0.0 0.0 -1246.567 0.0
RD05 ? BHE e S ? 20241124 2046 19.053 GAU 0.0 0.0 -3240.493 0.0

