RD14 ? BHZ e P c 20241124 1612 09.983 GAU 0.0 0.0 -204.97026 0.0
RD14 ? BHN e S ? 20241124 1612 12.006 GAU 0.0 0.0 1671.8125 0.0
RD04 ? BHZ i P c 20241124 1612 10.035 GAU 0.0 0.0 -144.43149 0.0
RD04 ? BHE e S ? 20241124 1612 12.080 GAU 0.0 0.0 1044.6823 0.0
RD10 ? BHZ i P c 20241124 1612 10.146 GAU 0.0 0.0 -928.7271 0.0
RD10 ? BHE e S ? 20241124 1612 12.268 GAU 0.0 0.0 -1582.3864 0.0
RD06 ? BHZ e P c 20241124 1612 10.178 GAU 0.0 0.0 -271.2448 0.0
RD06 ? BHE e S ? 20241124 1612 12.318 GAU 0.0 0.0 -243.1033 0.0
RD01 ? BHZ e P c 20241124 1612 10.360 GAU 0.0 0.0 111.95147 0.0
RD01 ? BHN e S ? 20241124 1612 12.629 GAU 0.0 0.0 -648.79333 0.0

