RD14 ? BHZ e P c 20241112 0145 31.810 GAU 0.0 0.0 -2417.9236 0.0
RD14 ? BHN e S ? 20241112 0145 33.103 GAU 0.0 0.0 8963.572 0.0
RD10 ? BHZ e P c 20241112 0145 32.738 GAU 0.0 0.0 -2475.3022 0.0
RD10 ? BHN e S ? 20241112 0145 34.609 GAU 0.0 0.0 -12831.403 0.0
RD01 ? BHZ e P c 20241112 0145 34.617 GAU 0.0 0.0 -2180.2603 0.0
RD01 ? BHN e S ? 20241112 0145 37.771 GAU 0.0 0.0 -1684.554 0.0

