RD14 ? BHZ e P d 20241124 2011 44.787 GAU 0.0 0.0 2262.4392 0.0
RD14 ? BHN e S ? 20241124 2011 46.764 GAU 0.0 0.0 768.0263 0.0
RD04 ? BHZ e P d 20241124 2011 44.819 GAU 0.0 0.0 254.83464 0.0
RD04 ? BHE e S ? 20241124 2011 46.803 GAU 0.0 0.0 -1360.8784 0.0
RD10 ? BHZ e P c 20241124 2011 44.932 GAU 0.0 0.0 29.440105 0.0
RD10 ? BHN e S ? 20241124 2011 46.998 GAU 0.0 0.0 -2132.668 0.0
RD06 ? BHZ e P c 20241124 2011 44.963 GAU 0.0 0.0 -15.321867 0.0
RD06 ? BHN e S ? 20241124 2011 47.065 GAU 0.0 0.0 -1364.6997 0.0
RD09 ? BHZ e P d 20241124 2011 44.984 GAU 0.0 0.0 -259.9053 0.0
RD09 ? BHN e S ? 20241124 2011 47.075 GAU 0.0 0.0 3341.1074 0.0
RD01 ? BHZ e P c 20241124 2011 45.160 GAU 0.0 0.0 -417.13068 0.0
RD01 ? BHN e S ? 20241124 2011 47.382 GAU 0.0 0.0 -3407.1287 0.0

