RD14 ? BHZ e P d 20241124 1938 03.825 GAU 0.0 0.0 1316.4817 0.0
RD14 ? BHN e S ? 20241124 1938 05.742 GAU 0.0 0.0 1714.3994 0.0
RD06 ? BHZ e P d 20241124 1938 04.027 GAU 0.00209604 0.0 -132.00694 0.0
RD06 ? BHE e S ? 20241124 1938 06.077 GAU 0.0030182975 0.0 2518.9077 0.0
RD04 ? BHZ e P d 20241124 1938 03.854 GAU 0.0010108218 0.0 73.378944 0.0
RD04 ? BHE e S ? 20241124 1938 05.823 GAU 0.0 0.0 -283.84482 0.0
RD10 ? BHZ e P c 20241124 1938 03.931 GAU 0.0 0.0 -770.8989 0.0
RD10 ? BHN e S ? 20241124 1938 05.916 GAU 0.0 0.0 -333.84863 0.0
RD01 ? BHZ e P c 20241124 1938 04.202 GAU 0.0 0.0 -245.91965 0.0
RD01 ? BHE e S ? 20241124 1938 06.400 GAU 0.0 0.0 -6055.9565 0.0

