RD14 ? BHZ i P c 20241124 1414 48.034 GAU 0.0 0.0 32.329063 0.0
RD14 ? BHN e S ? 20241124 1414 49.997 GAU 0.0 0.0 497.48444 0.0
RD04 ? BHZ i P c 20241124 1414 48.085 GAU 0.0 0.0 -169.05334 0.0
RD04 ? BHE e S ? 20241124 1414 50.064 GAU 0.0 0.0 -770.77655 0.0
RD10 ? BHZ i P c 20241124 1414 48.170 GAU 0.0 0.0 -469.88126 0.0
RD10 ? BHE e S ? 20241124 1414 50.221 GAU 0.0 0.0 -2534.7808 0.0
RD06 ? BHZ i P d 20241124 1414 48.227 GAU 0.0 0.0 339.69986 0.0
RD06 ? BHE e S ? 20241124 1414 50.316 GAU 0.0 0.0 2954.7996 0.0
RD01 ? BHZ e P d 20241124 1414 48.424 GAU 0.0 0.0 221.27936 0.0
RD01 ? BHE e S ? 20241124 1414 50.652 GAU 0.0 0.0 19520.352 0.0
RD02 ? BHZ e P c 20241124 1414 47.970 GAU 0.0 0.0 -1546.4998 0.0
RD02 ? BHN e S ? 20241124 1414 49.897 GAU 0.0 0.0 9709.045 0.0
RD09 ? BHZ i P d 20241124 1414 48.237 GAU 0.0 0.0 -1336.429 0.0
RD09 ? BHN e S ? 20241124 1414 50.338 GAU 0.0 0.0 4095.1775 0.0

