RD06 ? BHZ e P d 20241124 1401 37.376 GAU 0.0 0.0 388.9492 0.0
RD06 ? BHE e S ? 20241124 1401 39.569 GAU 0.0 0.0 -2065.1697 0.0
RD14 ? BHZ e P c 20241124 1401 37.063 GAU 0.0 0.0 -610.3944 0.0
RD14 ? BHN e S ? 20241124 1401 39.030 GAU 0.0 0.0 -1184.1013 0.0
RD04 ? BHZ i P c 20241124 1401 37.228 GAU 0.0 0.0 -265.35217 0.0
RD04 ? BHE e S ? 20241124 1401 39.297 GAU 0.0 0.0 30.66194 0.0
RD10 ? BHZ e P c 20241124 1401 37.312 GAU 0.0 0.0 -433.73154 0.0
RD10 ? BHE e S ? 20241124 1401 39.465 GAU 0.0 0.0 2424.987 0.0
RD01 ? BHZ e P c 20241124 1401 37.553 GAU 0.0 0.0 -16.99698 0.0
RD01 ? BHN e S ? 20241124 1401 39.845 GAU 0.0 0.0 5295.2827 0.0

