RD04 ? BHZ e P c 20241129 1552 31.078 GAU 0.0 0.0 613.0361 0.0
RD04 ? BHN e S ? 20241129 1552 35.273 GAU 0.0 0.0 20833.213 0.0
RD01 ? BHZ e P d 20241129 1552 31.245 GAU 0.0 0.0 2205.1035 0.0
RD01 ? BHN e S ? 20241129 1552 35.310 GAU 0.0 0.0 -6854.25 0.0
RD02 ? BHZ e P c 20241129 1552 31.541 GAU 0.0 0.0 -1816.1602 0.0
RD02 ? BHN e S ? 20241129 1552 36.232 GAU 0.0 0.0 -6552.756 0.0
RD11 ? BHZ e P d 20241129 1552 31.712 GAU 0.0 0.0 4986.8604 0.0
RD11 ? BHN e S ? 20241129 1552 36.377 GAU 0.0 0.0 -19739.156 0.0
RD06 ? BHZ e P d 20241129 1552 31.868 GAU 0.0 0.0 196.51617 0.0
RD06 ? BHN e S ? 20241129 1552 36.390 GAU 0.0 0.0 9582.139 0.0
RD05 ? BHZ e P c 20241129 1552 32.054 GAU 0.0 0.0 -1454.4911 0.0
RD05 ? BHE e S ? 20241129 1552 37.142 GAU 0.0 0.0 5660.341 0.0
RD09 ? BHZ e P d 20241129 1552 32.200 GAU 0.0 0.0 417.3964 0.0
RD09 ? BHN e S ? 20241129 1552 36.988 GAU 0.0 0.0 -2022.0796 0.0
RD13 ? BHZ e P d 20241129 1552 32.255 GAU 0.0 0.0 668.74805 0.0
RD13 ? BHN e S ? 20241129 1552 37.148 GAU 0.0 0.0 -12369.864 0.0
RD14 ? BHZ e P c 20241129 1552 32.258 GAU 0.0 0.0 -142.81483 0.0
RD14 ? BHN e S ? 20241129 1552 37.263 GAU 0.0 0.0 4089.8438 0.0
RD15 ? BHZ e P c 20241129 1552 32.332 GAU 0.0 0.0 455.6463 0.0
RD15 ? BHN e S ? 20241129 1552 37.407 GAU 0.0 0.0 -31956.812 0.0
RD10 ? BHZ i P d 20241129 1552 32.361 GAU 0.0 0.0 357.10217 0.0
RD10 ? BHE e S ? 20241129 1552 37.340 GAU 0.0 0.0 16851.441 0.0

