RD01 ? BHZ e P c 20241125 0116 38.579 GAU 0.0 0.0 -334.98477 0.0
RD01 ? BHE e S ? 20241125 0116 42.539 GAU 0.0 0.0 -258.8388 0.0
RD02 ? BHZ e P c 20241125 0116 38.968 GAU 0.0 0.0 478.85263 0.0
RD02 ? BHN e S ? 20241125 0116 43.353 GAU 0.0 0.0 4771.7783 0.0
RD09 ? BHZ e P c 20241125 0116 39.575 GAU 0.0 0.0 729.3401 0.0
RD09 ? BHN e S ? 20241125 0116 44.254 GAU 0.0 0.0 3743.9944 0.0
RD10 ? BHZ e P d 20241125 0116 39.679 GAU 0.0 0.0 693.13855 0.0
RD10 ? BHE e S ? 20241125 0116 44.425 GAU 0.0 0.0 -165.6253 0.0

