RD04 ? BHZ e P c 20241129 1512 15.206 GAU 0.0 0.0 4191.4136 0.0
RD04 ? BHE e S ? 20241129 1512 19.389 GAU 0.0 0.0 -14105.977 0.0
RD01 ? BHZ e P d 20241129 1512 15.271 GAU 0.0068548126 0.0 -3535.0625 0.0
RD01 ? BHN e S ? 20241129 1512 19.426 GAU 0.0 0.0 -46801.266 0.0
RD02 ? BHZ i P d 20241129 1512 15.522 GAU 0.0 0.0 3803.6511 0.0
RD02 ? BHN e S ? 20241129 1512 19.751 GAU 0.0 0.0 -101232.71 0.0
RD11 ? BHZ i P c 20241129 1512 15.719 GAU 0.0 0.0 -7440.171 0.0
RD11 ? BHN e S ? 20241129 1512 20.309 GAU 0.0 0.0 21548.809 0.0
RD03 ? BHZ i P c 20241129 1512 15.716 GAU 0.0 0.0 -1165.8895 0.0
RD03 ? BHN e S ? 20241129 1512 20.269 GAU 0.0 0.0 -8515.827 0.0
RD05 ? BHZ e P c 20241129 1512 15.837 GAU 0.0 0.0 -992.8846 0.0
RD05 ? BHN e S ? 20241129 1512 20.413 GAU 0.0 0.0 -89667.96 0.0
RD06 ? BHZ i P c 20241129 1512 15.864 GAU 0.0 0.0 -893.18646 0.0
RD06 ? BHN e S ? 20241129 1512 20.410 GAU 0.0 0.0 -48585.863 0.0
RD07 ? BHZ e P c 20241129 1512 15.921 GAU 0.0 0.0 4767.0596 0.0
RD07 ? BHE e S ? 20241129 1512 20.536 GAU 0.0 0.0 -80995.99 0.0
RD08 ? BHZ e P d 20241129 1512 16.012 GAU 0.0 0.0 969.7803 0.0
RD08 ? BHE e S ? 20241129 1512 20.842 GAU 0.0 0.0 -34383.76 0.0
RD09 ? BHZ i P c 20241129 1512 16.215 GAU 0.0 0.0 -1168.8392 0.0
RD09 ? BHE e S ? 20241129 1512 21.009 GAU 0.0 0.0 -18599.566 0.0
RD13 ? BHZ i P c 20241129 1512 16.314 GAU 0.0 0.0 1938.1621 0.0
RD13 ? BHE e S ? 20241129 1512 21.231 GAU 0.0 0.0 -89687.51 0.0
RD10 ? BHZ i P c 20241129 1512 16.409 GAU 0.0 0.0 3027.2275 0.0
RD10 ? BHE e S ? 20241129 1512 21.333 GAU 0.0 0.0 -23595.498 0.0
RD14 ? BHZ i P c 20241129 1512 16.492 GAU 0.0 0.0 2140.4773 0.0
RD14 ? BHE e S ? 20241129 1512 21.507 GAU 0.0 0.0 -123217.4 0.0
RD15 ? BHZ i P c 20241129 1512 16.526 GAU 0.0 0.0 2004.703 0.0
RD15 ? BHE e S ? 20241129 1512 21.569 GAU 0.0 0.0 68423.31 0.0

