RD04 ? BHZ e P c 20241129 1554 55.474 GAU 0.0 0.0 1507.7079 0.0
RD04 ? BHN e S ? 20241129 1554 59.586 GAU 0.0 0.0 3751.989 0.0
RD01 ? BHZ e P c 20241129 1554 55.568 GAU 0.0 0.0 -1979.7056 0.0
RD01 ? BHN e S ? 20241129 1554 59.713 GAU 0.0 0.0 -15170.624 0.0
RD02 ? BHZ e P c 20241129 1554 55.722 GAU 0.0 0.0 -1749.9878 0.0
RD02 ? BHN e S ? 20241129 1554 59.961 GAU 0.0 0.0 24922.305 0.0
RD05 ? BHZ e P d 20241129 1554 56.355 GAU 0.0 0.0 204.13611 0.0
RD05 ? BHN e S ? 20241129 1555 01.090 GAU 0.0 0.0 953.2944 0.0
RD06 ? BHZ e P d 20241129 1554 56.343 GAU 0.0 0.0 -223.77171 0.0
RD06 ? BHN e S ? 20241129 1555 00.945 GAU 0.0 0.0 -10827.4795 0.0
RD08 ? BHZ i P c 20241129 1554 56.475 GAU 0.0 0.0 -2990.8467 0.0
RD08 ? BHE e S ? 20241129 1555 01.113 GAU 0.0 0.0 -20273.1 0.0
RD09 ? BHZ e P d 20241129 1554 56.598 GAU 0.0 0.0 2506.2117 0.0
RD09 ? BHN e S ? 20241129 1555 01.446 GAU 0.0 0.0 17302.123 0.0
RD13 ? BHZ e P c 20241129 1554 56.603 GAU 0.0 0.0 1472.1915 0.0
RD13 ? BHN e S ? 20241129 1555 01.521 GAU 0.0 0.0 23698.406 0.0
RD10 ? BHZ e P d 20241129 1554 56.766 GAU 0.0 0.0 3734.484 0.0
RD10 ? BHE e S ? 20241129 1555 01.730 GAU 0.0 0.0 -6067.2583 0.0
RD14 ? BHZ e P c 20241129 1554 56.778 GAU 0.0 0.0 87.53011 0.0
RD14 ? BHN e S ? 20241129 1555 01.759 GAU 0.0 0.0 9575.466 0.0
RD15 ? BHZ e P d 20241129 1554 56.917 GAU 0.0 0.0 6565.199 0.0
RD15 ? BHN e S ? 20241129 1555 01.916 GAU 0.0 0.0 13534.223 0.0

