RD01 ? BHZ i P c 20241116 1511 15.466 GAU 0.0 0.0 -61.79078 0.0
RD01 ? BHN e S ? 20241116 1511 19.409 GAU 0.0 0.0 -235.88715 0.0
RD04 ? BHZ i P c 20241116 1511 15.551 GAU 0.0 0.0 -322.75775 0.0
RD04 ? BHN e S ? 20241116 1511 19.520 GAU 0.0 0.0 -767.0348 0.0
RD11 ? BHZ i P d 20241116 1511 16.091 GAU 0.0 0.0 838.782 0.0
RD11 ? BHE e S ? 20241116 1511 20.645 GAU 0.0 0.0 802.7738 0.0
RD09 ? BHZ e P c 20241116 1511 16.670 GAU 0.0 0.0 110.438255 0.0
RD09 ? BHE e S ? 20241116 1511 21.384 GAU 0.0 0.0 1687.0731 0.0

