RD04 ? BHZ e P c 20241122 2112 02.782 GAU 0.0 0.0 -253.12766 0.0
RD04 ? BHN e S ? 20241122 2112 06.356 GAU 0.0 0.0 -324.49835 0.0
RD01 ? BHZ e P d 20241122 2112 02.864 GAU 0.0 0.0 -599.5145 0.0
RD01 ? BHN e S ? 20241122 2112 06.430 GAU 0.0 0.0 -7640.4663 0.0
RD02 ? BHZ e P c 20241122 2112 03.158 GAU 0.0 0.0 -2892.5815 0.0
RD02 ? BHN e S ? 20241122 2112 07.112 GAU 0.0 0.0 5879.961 0.0
RD06 ? BHZ e P c 20241122 2112 03.440 GAU 0.0 0.0 -239.61308 0.0
RD06 ? BHN e S ? 20241122 2112 07.422 GAU 0.0 0.0 2577.5261 0.0
RD11 ? BHZ e P c 20241122 2112 03.493 GAU 0.0 0.0 -1489.7378 0.0
RD11 ? BHE e S ? 20241122 2112 07.557 GAU 0.0 0.0 3477.8372 0.0
RD14 ? BHZ e P d 20241122 2112 04.036 GAU 0.0 0.0 -438.43265 0.0
RD14 ? BHN e S ? 20241122 2112 08.477 GAU 0.0 0.0 2812.3296 0.0
RD09 ? BHZ i P c 20241122 2112 03.743 GAU 0.0 0.0 -728.8658 0.0
RD09 ? BHE e S ? 20241122 2112 07.968 GAU 0.0 0.0 1335.8232 0.0
RD05 ? BHZ e P c 20241122 2112 03.844 GAU 0.0 0.0 681.79755 0.0
RD05 ? BHN e S ? 20241122 2112 08.133 GAU 0.0 0.0 1443.8129 0.0
RD10 ? BHZ e P d 20241122 2112 04.050 GAU 0.0 0.0 -251.5179 0.0
RD10 ? BHE e S ? 20241122 2112 08.472 GAU 0.0 0.0 6066.813 0.0

