RD06 ? BHZ e P c 20241126 1430 29.381 GAU 0.0 0.0 -144.87825 0.0
RD06 ? BHN e S ? 20241126 1430 33.918 GAU 0.0 0.0 -1854.7808 0.0
RD04 ? BHZ e P d 20241126 1430 28.786 GAU 0.0 0.0 70.83547 0.0
RD04 ? BHE e S ? 20241126 1430 32.979 GAU 0.0 0.0 4171.329 0.0
RD01 ? BHZ e P c 20241126 1430 28.847 GAU 0.0 0.0 -88.409546 0.0
RD01 ? BHN e S ? 20241126 1430 32.918 GAU 0.0 0.0 -4132.618 0.0
RD02 ? BHZ i P c 20241126 1430 29.195 GAU 0.0 0.0 -300.1921 0.0
RD02 ? BHN e S ? 20241126 1430 33.668 GAU 0.0 0.0 -20405.912 0.0
RD05 ? BHZ e P c 20241126 1430 29.700 GAU 0.0 0.0 -598.01324 0.0
RD05 ? BHN e S ? 20241126 1430 34.455 GAU 0.0 0.0 872.9482 0.0
RD13 ? BHZ e P d 20241126 1430 29.820 GAU 0.0 0.0 1539.0468 0.0
RD13 ? BHE e S ? 20241126 1430 34.767 GAU 0.0 0.0 18705.354 0.0
RD09 ? BHZ e P d 20241126 1430 29.880 GAU 0.0 0.0 930.66437 0.0
RD09 ? BHE e S ? 20241126 1430 34.762 GAU 0.0 0.0 4329.7495 0.0
RD10 ? BHZ e P c 20241126 1430 29.940 GAU 0.0 0.0 718.2985 0.0
RD10 ? BHE e S ? 20241126 1430 34.903 GAU 0.0 0.0 5469.9414 0.0
RD14 ? BHZ i P d 20241126 1430 30.084 GAU 0.0 0.0 8.061142 0.0
RD14 ? BHE e S ? 20241126 1430 35.059 GAU 0.0 0.0 8671.19 0.0

