RD01 ? BHZ e P c 20241116 0620 48.363 GAU 0.0 0.0 -74.98793 0.0
RD01 ? BHE e S ? 20241116 0620 52.438 GAU 0.0 0.0 1360.7223 0.0
RD04 ? BHZ e P c 20241116 0620 48.407 GAU 0.0 0.0 203.60915 0.0
RD04 ? BHE e S ? 20241116 0620 52.550 GAU 0.0 0.0 -1180.9856 0.0
RD11 ? BHZ e P d 20241116 0620 48.923 GAU 0.0 0.0 508.63278 0.0
RD11 ? BHE e S ? 20241116 0620 53.395 GAU 0.0 0.0 47.94375 0.0
RD10 ? BHZ e P c 20241116 0620 49.383 GAU 0.0 0.0 0.94677734 0.0
RD10 ? BHN e S ? 20241116 0620 54.183 GAU 0.0 0.0 1189.5596 0.0

