RD04 ? BHZ e P c 20241118 1033 14.641 GAU 0.0 0.0 -704.201 0.0
RD04 ? BHN e S ? 20241118 1033 18.374 GAU 0.0 0.0 5468.1294 0.0
RD02 ? BHZ e P c 20241118 1033 14.940 GAU 0.0 0.0 -4355.3364 0.0
RD02 ? BHN e S ? 20241118 1033 18.851 GAU 0.0 0.0 24422.44 0.0
RD01 ? BHZ e P c 20241118 1033 14.946 GAU 0.0 0.0 -804.1902 0.0
RD01 ? BHN e S ? 20241118 1033 18.832 GAU 0.0 0.0 11744.072 0.0
RD06 ? BHZ i P c 20241118 1033 15.494 GAU 0.0 0.0 -1678.5101 0.0
RD06 ? BHN e S ? 20241118 1033 19.851 GAU 0.0 0.0 -1452.3446 0.0
RD11 ? BHZ i P c 20241118 1033 15.536 GAU 0.0 0.0 -3269.027 0.0
RD11 ? BHE e S ? 20241118 1033 19.889 GAU 0.0 0.0 23478.613 0.0
RD05 ? BHZ i P c 20241118 1033 15.589 GAU 0.0 0.0 -297.03436 0.0
RD05 ? BHE e S ? 20241118 1033 19.907 GAU 0.0 0.0 141.44821 0.0
RD09 ? BHZ e P c 20241118 1033 15.809 GAU 0.0 0.0 -722.18304 0.0
RD09 ? BHN e S ? 20241118 1033 20.336 GAU 0.0 0.0 -2672.1519 0.0
RD14 ? BHZ i P d 20241118 1033 15.899 GAU 0.0 0.0 1274.6107 0.0
RD14 ? BHE e S ? 20241118 1033 20.414 GAU 0.0 0.0 -2765.7666 0.0
RD10 ? BHZ e P c 20241118 1033 16.012 GAU 0.0 0.0 -534.87537 0.0
RD10 ? BHN e S ? 20241118 1033 20.686 GAU 0.0 0.0 -668.4712 0.0
RD15 ? BHZ e P c 20241118 1033 16.038 GAU 0.0 0.0 1666.2168 0.0
RD15 ? BHN e S ? 20241118 1033 20.728 GAU 0.0 0.0 6105.5234 0.0

