RD13 ? BHZ i P d 20241124 2351 48.634 GAU 0.0 0.0 2994.1018 0.0
RD13 ? BHE e S ? 20241124 2351 53.714 GAU 0.0 0.0 -31105.314 0.0
RD14 ? BHZ i P c 20241124 2351 48.729 GAU 0.0 0.0 741.7393 0.0
RD14 ? BHE e S ? 20241124 2351 54.024 GAU 0.009785096 0.0 39925.938 0.0
RD10 ? BHZ e P c 20241124 2351 48.626 GAU 0.0 0.0 505.80493 0.0
RD10 ? BHE e S ? 20241124 2351 53.756 GAU 0.0 0.0 6283.109 0.0
RD09 ? BHZ i P c 20241124 2351 48.419 GAU 0.0 0.0 -171.0817 0.0
RD09 ? BHN e S ? 20241124 2351 53.416 GAU 0.0 0.0 10212.176 0.0
RD01 ? BHZ e P c 20241124 2351 47.508 GAU 0.0 0.0 -401.92505 0.0
RD01 ? BHE e S ? 20241124 2351 51.877 GAU 0.0 0.0 50870.04 0.0
RD04 ? BHZ e P c 20241124 2351 47.433 GAU 0.0 0.0 680.89624 0.0
RD04 ? BHE e S ? 20241124 2351 51.750 GAU 0.0 0.0 -2867.0217 0.0
RD02 ? BHZ e P d 20241124 2351 47.751 GAU 0.0 0.0 418.00906 0.0
RD02 ? BHN e S ? 20241124 2351 52.196 GAU 0.0 0.0 27728.383 0.0
RD06 ? BHZ e P c 20241124 2351 48.109 GAU 0.0 0.0 -441.4595 0.0
RD06 ? BHN e S ? 20241124 2351 52.923 GAU 0.0 0.0 26090.65 0.0
RD05 ? BHZ e P d 20241124 2351 48.337 GAU 0.0 0.0 19.923683 0.0
RD05 ? BHE e S ? 20241124 2351 53.262 GAU 0.0 0.0 21956.266 0.0
RD07 ? BHZ e P c 20241124 2351 48.423 GAU 0.0 0.0 -5392.367 0.0
RD07 ? BHN e S ? 20241124 2351 53.424 GAU 0.0 0.0 -46755.63 0.0
RD15 ? BHZ e P d 20241124 2351 48.836 GAU 0.0 0.0 2506.1218 0.0
RD15 ? BHE e S ? 20241124 2351 54.013 GAU 0.20385617 0.0 -16650.896 0.0

