RD04 ? BHZ e P c 20241125 1236 37.442 GAU 0.0 0.0 -334.21103 0.0
RD04 ? BHN e S ? 20241125 1236 41.433 GAU 0.0 0.0 3012.3318 0.0
RD01 ? BHZ e P c 20241125 1236 37.523 GAU 0.0 0.0 240.7163 0.0
RD01 ? BHN e S ? 20241125 1236 41.579 GAU 0.0 0.0 -2841.108 0.0
RD14 ? BHZ e P d 20241125 1236 38.769 GAU 0.0 0.0 -10.484313 0.0
RD14 ? BHN e S ? 20241125 1236 43.660 GAU 0.0 0.0 -1520.0221 0.0
RD02 ? BHZ e P c 20241125 1236 37.901 GAU 0.0 0.0 627.5433 0.0
RD02 ? BHN e S ? 20241125 1236 42.208 GAU 0.0 0.0 524.3408 0.0
RD06 ? BHZ e P c 20241125 1236 38.268 GAU 0.0 0.0 -5.6831417 0.0
RD06 ? BHN e S ? 20241125 1236 42.816 GAU 0.0 0.0 -2225.746 0.0
RD09 ? BHZ e P c 20241125 1236 38.567 GAU 0.0 0.0 -512.7892 0.0
RD09 ? BHN e S ? 20241125 1236 43.332 GAU 0.0 0.0 3925.5964 0.0

