RD02 ? BHZ e P c 20241128 1511 26.040 GAU 0.0 0.0 -1765.9404 0.0
RD02 ? BHN e S ? 20241128 1511 30.632 GAU 0.0 0.0 -1681.912 0.0
RD04 ? BHZ e P c 20241128 1511 25.172 GAU 0.0 0.0 266.37518 0.0
RD04 ? BHN e S ? 20241128 1511 29.150 GAU 0.0 0.0 1107.9194 0.0
RD01 ? BHZ e P c 20241128 1511 25.301 GAU 0.0 0.0 140.13461 0.0
RD01 ? BHN e S ? 20241128 1511 29.408 GAU 0.0 0.0 2967.9763 0.0
RD14 ? BHZ e P c 20241128 1511 26.591 GAU 0.0 0.0 -432.46317 0.0
RD14 ? BHE e S ? 20241128 1511 31.523 GAU 0.0 0.0 -2975.8303 0.0
RD09 ? BHZ e P d 20241128 1511 26.616 GAU 0.0 0.0 -401.25607 0.0
RD09 ? BHN e S ? 20241128 1511 31.598 GAU 0.0 0.0 -3765.8606 0.0

