RD14 ? BHZ e P d 20241122 2045 35.494 GAU 0.0 0.0 464.50916 0.0
RD14 ? BHN e S ? 20241122 2045 40.488 GAU 0.0 0.0 -4004.1016 0.0
RD04 ? BHZ e P d 20241122 2045 34.292 GAU 0.0 0.0 -45.145016 0.0
RD04 ? BHN e S ? 20241122 2045 38.516 GAU 0.0 0.0 -7265.6685 0.0
RD02 ? BHZ e P d 20241122 2045 34.540 GAU 0.0 0.0 962.7962 0.0
RD02 ? BHE e S ? 20241122 2045 38.971 GAU 0.0 0.0 4114.2256 0.0
RD01 ? BHZ e P c 20241122 2045 34.500 GAU 0.0 0.0 -548.5317 0.0
RD01 ? BHN e S ? 20241122 2045 38.853 GAU 0.0 0.0 -11777.334 0.0
RD11 ? BHZ e P d 20241122 2045 34.907 GAU 0.0 0.0 -840.0295 0.0
RD11 ? BHN e S ? 20241122 2045 39.560 GAU 0.0 0.0 -4795.287 0.0
RD06 ? BHZ e P c 20241122 2045 34.947 GAU 0.0 0.0 374.58908 0.0
RD06 ? BHN e S ? 20241122 2045 39.728 GAU 0.0 0.0 -6579.482 0.0
RD05 ? BHZ e P c 20241122 2045 35.307 GAU 0.0 0.0 -627.19183 0.0
RD05 ? BHN e S ? 20241122 2045 40.203 GAU 0.0 0.0 6086.711 0.0
RD10 ? BHZ e P c 20241122 2045 35.438 GAU 0.0 0.0 1108.0858 0.0
RD10 ? BHE e S ? 20241122 2045 40.490 GAU 0.0 0.0 -1480.6929 0.0

