RD01 ? BHZ e P c 20241124 2252 52.998 GAU 0.0 0.0 -50.454613 0.0
RD01 ? BHN e S ? 20241124 2252 57.136 GAU 0.0 0.0 -3621.0613 0.0
RD04 ? BHZ e P c 20241124 2252 52.884 GAU 0.0 0.0 126.69179 0.0
RD04 ? BHN e S ? 20241124 2252 56.971 GAU 0.19222407 0.0 -2791.0056 0.0
RD02 ? BHZ e P d 20241124 2252 53.527 GAU 0.0 0.0 -367.28247 0.0
RD02 ? BHN e S ? 20241124 2252 58.168 GAU 0.0 0.0 7613.6377 0.0
RD06 ? BHZ e P c 20241124 2252 53.729 GAU 0.0 0.0 -874.4598 0.0
RD06 ? BHN e S ? 20241124 2252 58.387 GAU 0.0 0.0 -5860.8813 0.0
RD09 ? BHZ e P d 20241124 2252 54.041 GAU 0.0 0.0 74.38488 0.0
RD09 ? BHN e S ? 20241124 2252 58.977 GAU 0.0 0.0 -1618.2391 0.0
RD10 ? BHZ e P d 20241124 2252 54.142 GAU 0.0 0.0 -136.01074 0.0
RD10 ? BHE e S ? 20241124 2252 59.171 GAU 0.0 0.0 -1555.9231 0.0
RD14 ? BHZ e P d 20241124 2252 54.321 GAU 0.0 0.0 840.73425 0.0
RD14 ? BHN e S ? 20241124 2252 59.305 GAU 0.0 0.0 -2229.3298 0.0

