RD04 ? BHZ e P c 20241129 1505 08.369 GAU 0.0 0.0 -5255.606 0.0
RD04 ? BHN e S ? 20241129 1505 12.297 GAU 0.0 0.0 43868.582 0.0
RD01 ? BHZ e P c 20241129 1505 08.430 GAU 0.0 0.0 2148.642 0.0
RD01 ? BHN e S ? 20241129 1505 12.400 GAU 0.0 0.0 43077.34 0.0
RD06 ? BHZ e P d 20241129 1505 09.009 GAU 0.0 0.0 -4316.8545 0.0
RD06 ? BHN e S ? 20241129 1505 13.495 GAU 0.0 0.0 29033.783 0.0
RD02 ? BHZ e P c 20241129 1505 08.860 GAU 0.0 0.0 1458.4623 0.0
RD02 ? BHN e S ? 20241129 1505 13.156 GAU 0.0 0.0 -51679.918 0.0
RD03 ? BHZ e P c 20241129 1505 08.868 GAU 0.0 0.0 -2352.0352 0.0
RD03 ? BHN e S ? 20241129 1505 13.213 GAU 0.0 0.0 -7124.6387 0.0
RD07 ? BHZ e P c 20241129 1505 09.040 GAU 0.0 0.0 3241.0164 0.0
RD07 ? BHN e S ? 20241129 1505 13.437 GAU 0.0 0.0 -5175.0854 0.0
RD05 ? BHZ e P c 20241129 1505 09.228 GAU 0.0 0.0 -180.74467 0.0
RD05 ? BHN e S ? 20241129 1505 13.717 GAU 0.0 0.0 -2686.2583 0.0
RD08 ? BHZ e P d 20241129 1505 09.236 GAU 0.0 0.0 4191.99 0.0
RD08 ? BHE e S ? 20241129 1505 13.793 GAU 0.0 0.0 15980.492 0.0
RD09 ? BHZ e P d 20241129 1505 09.316 GAU 0.0 0.0 -3836.3276 0.0
RD09 ? BHN e S ? 20241129 1505 13.951 GAU 0.0 0.0 -16835.043 0.0
RD13 ? BHZ e P d 20241129 1505 09.341 GAU 0.0 0.0 -2922.229 0.0
RD13 ? BHN e S ? 20241129 1505 14.023 GAU 0.0 0.0 -2162.0847 0.0
RD14 ? BHZ e P c 20241129 1505 09.584 GAU 0.0 0.0 -5118.0024 0.0
RD14 ? BHN e S ? 20241129 1505 14.360 GAU 0.0 0.0 20778.125 0.0
RD10 ? BHZ e P c 20241129 1505 09.490 GAU 0.0 0.0 -2141.0427 0.0
RD10 ? BHN e S ? 20241129 1505 14.223 GAU 0.0 0.0 -8143.947 0.0
RD15 ? BHZ i P d 20241129 1505 09.571 GAU 0.0 0.0 -2848.18 0.0
RD15 ? BHN e S ? 20241129 1505 14.316 GAU 0.0 0.0 19563.152 0.0

