RD04 ? BHZ e P d 20241129 2029 33.556 GAU 0.0 0.0 316.17743 0.0
RD04 ? BHN e S ? 20241129 2029 37.469 GAU 0.0 0.0 -392.85254 0.0
RD01 ? BHZ e P d 20241129 2029 33.720 GAU 0.0 0.0 181.25758 0.0
RD01 ? BHN e S ? 20241129 2029 37.745 GAU 0.0 0.0 -3685.504 0.0
RD06 ? BHZ e P c 20241129 2029 34.538 GAU 0.0 0.0 746.4093 0.0
RD06 ? BHE e S ? 20241129 2029 39.100 GAU 0.0 0.0 -3216.7993 0.0
RD10 ? BHZ e P c 20241129 2029 34.897 GAU 0.0 0.0 -37.135433 0.0
RD10 ? BHN e S ? 20241129 2029 39.730 GAU 0.0 0.0 1702.6279 0.0

