RD04 ? BHZ e P d 20241124 2102 51.486 GAU 0.0 0.0 2501.8862 0.0
RD04 ? BHE e S ? 20241124 2102 55.805 GAU 0.0 0.0 415665.16 0.0
RD01 ? BHZ e P c 20241124 2102 51.665 GAU 0.0 0.0 7702.8257 0.0
RD01 ? BHN e S ? 20241124 2102 56.089 GAU 0.0 0.0 194152.89 0.0
RD02 ? BHZ e P c 20241124 2102 51.868 GAU 0.0 0.0 -14257.397 0.0
RD02 ? BHN e S ? 20241124 2102 56.426 GAU 0.0 0.0 -243015.02 0.0
RD03 ? BHZ i P c 20241124 2102 52.092 GAU 0.0 0.0 1770.8123 0.0
RD03 ? BHN e S ? 20241124 2102 56.819 GAU 0.00991981 0.0 149536.2 0.0
RD06 ? BHZ e P d 20241124 2102 52.321 GAU 0.0 0.0 -6636.3086 0.0
RD06 ? BHN e S ? 20241124 2102 57.172 GAU 0.0 0.0 10725.038 0.0
RD07 ? BHZ e P d 20241124 2102 52.224 GAU 0.0 0.0 -1324.0254 0.0
RD07 ? BHN e S ? 20241124 2102 56.978 GAU 0.0 0.0 -179710.3 0.0
RD05 ? BHZ e P c 20241124 2102 52.439 GAU 0.0 0.0 -5818.244 0.0
RD05 ? BHN e S ? 20241124 2102 57.408 GAU 0.0 0.0 -142011.78 0.0
RD08 ? BHZ i P c 20241124 2102 52.339 GAU 0.0 0.0 5393.305 0.0
RD08 ? BHE e S ? 20241124 2102 57.289 GAU 0.0 0.0 4012.9456 0.0
RD13 ? BHZ i P d 20241124 2102 52.591 GAU 0.0 0.0 -579.1918 0.0
RD13 ? BHN e S ? 20241124 2102 57.726 GAU 0.0 0.0 121593.32 0.0
RD09 ? BHZ e P d 20241124 2102 52.612 GAU 0.0 0.0 2651.2422 0.0
RD09 ? BHN e S ? 20241124 2102 57.734 GAU 0.0 0.0 -494829.5 0.0
RD10 ? BHZ e P d 20241124 2102 52.671 GAU 0.0 0.0 3582.3018 0.0
RD10 ? BHN e S ? 20241124 2102 57.736 GAU 0.0 0.0 -85.20103 0.0
RD14 ? BHZ e P d 20241124 2102 52.743 GAU 0.0 0.0 -2572.7244 0.0
RD14 ? BHN e S ? 20241124 2102 57.910 GAU 0.021326683 0.0 82676.93 0.0
RD15 ? BHZ i P d 20241124 2102 52.821 GAU 0.0 0.0 822.5628 0.0
RD15 ? BHN e S ? 20241124 2102 57.988 GAU 0.0 0.0 502273.53 0.0
RD12 ? BHZ e P c 20241124 2102 52.909 GAU 0.0 0.0 -26400.213 0.0
RD12 ? BHN e S ? 20241124 2102 58.179 GAU 0.0 0.0 -59243.05 0.0

