RD02 ? BHZ i P d 20241125 1326 12.046 GAU 0.0 0.0 3259.1946 0.0
RD02 ? BHN e S ? 20241125 1326 12.435 GAU 0.003277009 0.0 -251374.66 0.0
RD03 ? BHZ i P c 20241125 1326 12.359 GAU 0.0 0.0 570.43463 0.0
RD03 ? BHN e S ? 20241125 1326 12.948 GAU 0.0 0.0 109711.92 0.0
RD04 ? BHZ e P c 20241125 1326 12.363 GAU 0.01448652 0.0 4742.502 0.0
RD04 ? BHE e S ? 20241125 1326 13.001 GAU 0.0 0.0 -27514.533 0.0
RD01 ? BHZ i P d 20241125 1326 12.393 GAU 0.0 0.0 59.606766 0.0
RD01 ? BHE e S ? 20241125 1326 13.014 GAU 0.0 0.0 19177.19 0.0
RD06 ? BHZ e P d 20241125 1326 12.563 GAU 0.0 0.0 511.8794 0.0
RD06 ? BHN e S ? 20241125 1326 13.317 GAU 0.0 0.0 23640.156 0.0
RD05 ? BHZ e P d 20241125 1326 12.702 GAU 0.0027308406 0.0 -923.3508 0.0
RD05 ? BHN e S ? 20241125 1326 13.541 GAU 0.0 0.0 45365.13 0.0
RD09 ? BHZ e P c 20241125 1326 13.069 GAU 0.07474726 0.0 131.84148 0.0
RD09 ? BHN e S ? 20241125 1326 14.172 GAU 0.0 0.0 -3212.9138 0.0
RD13 ? BHZ e P c 20241125 1326 13.167 GAU 0.0 0.0 -2219.8926 0.0
RD13 ? BHE e S ? 20241125 1326 14.303 GAU 0.0 0.0 1996.0367 0.0
RD10 ? BHZ i P c 20241125 1326 13.216 GAU 0.0 0.0 -367.3942 0.0
RD10 ? BHE e S ? 20241125 1326 14.442 GAU 0.0 0.0 7189.7056 0.0
RD15 ? BHZ e P d 20241125 1326 13.357 GAU 0.0 0.0 1109.6857 0.0
RD15 ? BHN e S ? 20241125 1326 14.695 GAU 0.0 0.0 -2618.8545 0.0
RD14 ? BHZ e P d 20241125 1326 13.451 GAU 0.0 0.0 388.80182 0.0
RD14 ? BHE e S ? 20241125 1326 14.751 GAU 0.0 0.0 73.189865 0.0

