RD02 ? BHZ e P c 20241105 1644 17.924 GAU 0.0 0.0 -311.74948 0.0
RD02 ? BHN e S ? 20241105 1644 18.388 GAU 0.0 0.0 -2662.2935 0.0
RD04 ? BHZ e P c 20241105 1644 18.124 GAU 0.0 0.0 -40.910576 0.0
RD04 ? BHN e S ? 20241105 1644 18.713 GAU 0.0 0.0 -1347.353 0.0
RD01 ? BHZ e P c 20241105 1644 18.339 GAU 0.0 0.0 2190.8403 0.0
RD01 ? BHE e S ? 20241105 1644 19.077 GAU 0.0 0.0 -2294.0586 0.0
RD11 ? BHZ e P d 20241105 1644 18.358 GAU 0.0 0.0 433.88956 0.0
RD11 ? BHE e S ? 20241105 1644 19.127 GAU 0.0 0.0 -731.08105 0.0

