RD06 ? BHZ e P c 20241111 1400 28.488 GAU 0.0 0.0 -493.29242 0.0
RD06 ? BHN e S ? 20241111 1400 29.020 GAU 0.0 0.0 -6552.2993 0.0
RD05 ? BHZ i P d 20241111 1400 28.560 GAU 0.0 0.0 239.32779 0.0
RD05 ? BHE e S ? 20241111 1400 29.107 GAU 0.0019962285 0.0 -186.16757 0.0
RD02 ? BHZ e P c 20241111 1400 28.874 GAU 0.0 0.0 -659.29395 0.0
RD02 ? BHN e S ? 20241111 1400 29.664 GAU 0.0 0.0 4928.5254 0.0
RD01 ? BHZ e P c 20241111 1400 28.897 GAU 0.0 0.0 22.504353 0.0
RD01 ? BHN e S ? 20241111 1400 29.671 GAU 0.0 0.0 -483.07962 0.0
RD14 ? BHZ i P c 20241111 1400 29.417 GAU 0.0 0.0 -461.70557 0.0
RD14 ? BHE e S ? 20241111 1400 30.551 GAU 0.0 0.0 1731.638 0.0

