RD06 ? BHZ i P d 20241109 0044 52.341 GAU 0.0 0.0 256.14044 0.0
RD06 ? BHE e S ? 20241109 0044 52.871 GAU 0.0 0.0 -4488.6533 0.0
RD11 ? BHZ e P c 20241109 0044 52.514 GAU 0.0 0.0 -1014.373 0.0
RD11 ? BHN e S ? 20241109 0044 53.160 GAU 0.0 0.0 563.6488 0.0
RD10 ? BHZ i P d 20241109 0044 52.719 GAU 0.0 0.0 11.1744 0.0
RD10 ? BHE e S ? 20241109 0044 53.529 GAU 0.0 0.0 1645.856 0.0
RD14 ? BHZ i P d 20241109 0044 53.138 GAU 0.0 0.0 195.98083 0.0
RD14 ? BHN e S ? 20241109 0044 54.194 GAU 0.0 0.0 -3391.6125 0.0
RD02 ? BHZ e P c 20241109 0044 53.229 GAU 0.0 0.0 -2885.6316 0.0
RD02 ? BHN e S ? 20241109 0044 54.367 GAU 0.0 0.0 -7051.884 0.0

