RD10 ? BHZ i P c 20241125 1619 00.034 GAU 0.0 0.0 2023.9476 0.0
RD10 ? BHN e S ? 20241125 1619 00.607 GAU 0.0 0.0 1624.7261 0.0
RD13 ? BHZ e P c 20241125 1618 59.983 GAU 0.017592363 0.0 -1610.6439 0.0
RD13 ? BHE e S ? 20241125 1619 00.537 GAU 0.0 0.0 8198.183 0.0
RD14 ? BHZ e P c 20241125 1619 00.008 GAU 0.0 0.0 -1497.0609 0.0
RD14 ? BHE e S ? 20241125 1619 00.527 GAU 0.005090383 0.0 -1498.8561 0.0
RD15 ? BHZ e P c 20241125 1619 00.114 GAU 0.0 0.0 -1496.2644 0.0
RD15 ? BHE e S ? 20241125 1619 00.828 GAU 0.0 0.0 -1.2645022 0.0
RD09 ? BHZ i P c 20241125 1619 00.182 GAU 0.0 0.0 212.78189 0.0
RD09 ? BHE e S ? 20241125 1619 00.852 GAU 0.0 0.0 3831.8623 0.0
RD06 ? BHZ e P c 20241125 1619 00.541 GAU 0.0 0.0 855.62994 0.0
RD06 ? BHN e S ? 20241125 1619 01.466 GAU 0.0 0.0 -2176.2432 0.0

