RD14 ? BHZ e P d 20241109 0939 54.897 GAU 0.0 0.0 3330.9385 0.0
RD14 ? BHE e S ? 20241109 0939 55.129 GAU 0.0 0.0 7900.228 0.0
RD13 ? BHZ e P d 20241109 0939 54.979 GAU 0.0 0.0 -1688.6385 0.0
RD13 ? BHE e S ? 20241109 0939 55.284 GAU 0.0 0.0 4913.6533 0.0
RD07 ? BHZ e P c 20241109 0939 55.372 GAU 0.0 0.0 -453.91498 0.0
RD07 ? BHE e S ? 20241109 0939 55.880 GAU 0.0 0.0 -44100.97 0.0
RD06 ? BHZ e P d 20241109 0939 55.582 GAU 0.0 0.0 -545.3599 0.0
RD06 ? BHN e S ? 20241109 0939 56.235 GAU 0.0 0.0 -2962.644 0.0
RD01 ? BHZ e P d 20241109 0939 55.976 GAU 0.0022956629 0.0 3034.8523 0.0
RD01 ? BHN e S ? 20241109 0939 56.916 GAU 0.0 0.0 -2957.461 0.0

