RD06 ? BHZ e P c 20241120 0522 45.506 GAU 0.0 0.0 -987.32086 0.0
RD06 ? BHN e S ? 20241120 0522 46.013 GAU 0.0 0.0 96760.55 0.0
RD05 ? BHZ i P d 20241120 0522 45.553 GAU 0.0 0.0 -238.60637 0.0
RD05 ? BHE e S ? 20241120 0522 46.168 GAU 0.0 0.0 -14181.931 0.0
RD07 ? BHZ e P c 20241120 0522 45.662 GAU 0.0 0.0 -5433.654 0.0
RD07 ? BHE e S ? 20241120 0522 46.266 GAU 0.0 0.0 33238.42 0.0
RD09 ? BHZ e P c 20241120 0522 45.879 GAU 0.0 0.0 1133.9346 0.0
RD09 ? BHN e S ? 20241120 0522 46.616 GAU 0.0 0.0 11902.089 0.0
RD10 ? BHZ i P c 20241120 0522 46.032 GAU 0.0 0.0 1255.1001 0.0
RD10 ? BHN e S ? 20241120 0522 46.938 GAU 0.0 0.0 4789.4507 0.0
RD01 ? BHZ e P c 20241120 0522 46.039 GAU 0.0 0.0 -121.841225 0.0
RD01 ? BHN e S ? 20241120 0522 46.947 GAU 0.0 0.0 -12193.936 0.0
RD14 ? BHZ e P c 20241120 0522 46.376 GAU 0.0 0.0 501.58337 0.0
RD14 ? BHE e S ? 20241120 0522 47.465 GAU 0.0 0.0 2294.7407 0.0

