RD11 ? BHZ e P d 20241120 0523 33.707 GAU 0.0 0.0 -2587.7156 0.0
RD11 ? BHN e S ? 20241120 0523 33.968 GAU 0.0 0.0 2859.0552 0.0
RD10 ? BHZ e P c 20241120 0523 34.060 GAU 0.0 0.0 1054.7141 0.0
RD10 ? BHN e S ? 20241120 0523 34.541 GAU 0.0 0.0 262.35156 0.0
RD14 ? BHZ i P d 20241120 0523 34.074 GAU 0.0 0.0 -3924.814 0.0
RD14 ? BHN e S ? 20241120 0523 34.628 GAU 0.0 0.0 27657.246 0.0
RD09 ? BHZ i P c 20241120 0523 34.220 GAU 0.0 0.0 -1146.7734 0.0
RD09 ? BHN e S ? 20241120 0523 34.876 GAU 0.0 0.0 3960.8987 0.0
RD15 ? BHZ e P c 20241120 0523 34.294 GAU 0.0 0.0 -2798.5703 0.0
RD15 ? BHE e S ? 20241120 0523 34.922 GAU 0.0 0.0 8426.368 0.0

