RD11 ? BHZ e P c 20241120 1127 23.819 GAU 0.0 0.0 -869.3038 0.0
RD11 ? BHN e S ? 20241120 1127 24.286 GAU 0.0 0.0 427.39774 0.0
RD14 ? BHZ i P d 20241120 1127 23.966 GAU 0.0 0.0 -886.1061 0.0
RD14 ? BHN e S ? 20241120 1127 24.536 GAU 0.0 0.0 2408.6921 0.0
RD10 ? BHZ i P c 20241120 1127 23.976 GAU 0.0 0.0 -367.28253 0.0
RD10 ? BHN e S ? 20241120 1127 24.553 GAU 0.0 0.0 1082.0385 0.0

