RD11 ? BHZ i P d 20241115 1558 26.417 GAU 0.0 0.0 77.69189 0.0
RD11 ? BHE e S ? 20241115 1558 27.082 GAU 0.0 0.0 7766.731 0.0
RD10 ? BHZ i P c 20241115 1558 26.780 GAU 0.0 0.0 -1593.888 0.0
RD10 ? BHE e S ? 20241115 1558 27.413 GAU 0.0 0.0 -1003.8886 0.0
RD14 ? BHZ i P d 20241115 1558 26.790 GAU 0.0 0.0 494.25897 0.0
RD14 ? BHN e S ? 20241115 1558 27.432 GAU 0.0 0.0 -6521.4927 0.0
RD13 ? BHZ i P d 20241115 1558 26.844 GAU 0.0 0.0 -2049.9875 0.0
RD13 ? BHE e S ? 20241115 1558 27.521 GAU 0.0 0.0 -11316.294 0.0
RD09 ? BHZ e P c 20241115 1558 26.869 GAU 0.0 0.0 193.3306 0.0
RD09 ? BHN e S ? 20241115 1558 27.565 GAU 0.0 0.0 2150.8723 0.0
RD04 ? BHZ e P c 20241115 1558 27.775 GAU 0.0 0.0 -9.104218 0.0
RD04 ? BHN e S ? 20241115 1558 29.234 GAU 0.0 0.0 427.95007 0.0

