RD11 ? BHZ e P d 20241120 1019 30.361 GAU 0.0 0.0 855.0231 0.0
RD11 ? BHE e S ? 20241120 1019 30.682 GAU 0.0 0.0 6081.0664 0.0
RD10 ? BHZ i P c 20241120 1019 30.736 GAU 0.0 0.0 2636.5466 0.0
RD10 ? BHE e S ? 20241120 1019 31.308 GAU 0.0 0.0 -7024.695 0.0
RD14 ? BHZ e P d 20241120 1019 30.752 GAU 0.0 0.0 -1046.3844 0.0
RD14 ? BHN e S ? 20241120 1019 31.320 GAU 0.0 0.0 13546.86 0.0
RD09 ? BHZ e P c 20241120 1019 30.900 GAU 0.0 0.0 618.2197 0.0
RD09 ? BHN e S ? 20241120 1019 31.575 GAU 0.0 0.0 8927.912 0.0
RD15 ? BHZ i P d 20241120 1019 31.002 GAU 0.0 0.0 106.94396 0.0
RD15 ? BHE e S ? 20241120 1019 31.747 GAU 0.0 0.0 16952.88 0.0

