RD13 ? BHZ e P d 20241120 0036 44.667 GAU 0.0 0.0 -1371.981 0.0
RD13 ? BHN e S ? 20241120 0036 45.270 GAU 0.0 0.0 421.23544 0.0
RD10 ? BHZ e P c 20241120 0036 44.709 GAU 0.0 0.0 323.81183 0.0
RD10 ? BHN e S ? 20241120 0036 45.321 GAU 0.0 0.0 864.0189 0.0
RD14 ? BHZ e P d 20241120 0036 44.739 GAU 0.0 0.0 324.88898 0.0
RD14 ? BHN e S ? 20241120 0036 45.389 GAU 0.0 0.0 5435.1934 0.0
RD09 ? BHZ e P c 20241120 0036 44.983 GAU 0.0 0.0 -861.7916 0.0
RD09 ? BHN e S ? 20241120 0036 45.799 GAU 0.0 0.0 -6187.5684 0.0

