RD10 ? BHZ i P c 20241122 1856 37.272 GAU 0.0 0.0 1176.4077 0.0
RD10 ? BHN e S ? 20241122 1856 37.703 GAU 0.0 0.0 -1155.3281 0.0
RD11 ? BHZ e P d 20241122 1856 37.144 GAU 0.0 0.0 57.278294 0.0
RD11 ? BHN e S ? 20241122 1856 37.488 GAU 0.0 0.0 2557.0034 0.0
RD15 ? BHZ e P d 20241122 1856 37.466 GAU 0.0 0.0 -1479.5105 0.0
RD15 ? BHE e S ? 20241122 1856 38.036 GAU 0.0 0.0 -1519.2855 0.0
RD14 ? BHZ e P d 20241122 1856 37.321 GAU 0.0 0.0 1391.5547 0.0
RD14 ? BHE e S ? 20241122 1856 37.802 GAU 0.0 0.0 4172.439 0.0
RD13 ? BHZ i P c 20241122 1856 37.327 GAU 0.0 0.0 779.3307 0.0
RD13 ? BHE e S ? 20241122 1856 37.803 GAU 0.0 0.0 21439.984 0.0
RD09 ? BHZ e P d 20241122 1856 37.459 GAU 0.0 0.0 2166.5298 0.0
RD09 ? BHN e S ? 20241122 1856 38.024 GAU 0.0 0.0 -5520.298 0.0
RD04 ? BHZ i P c 20241122 1856 38.549 GAU 0.0 0.0 -112.04644 0.0
RD04 ? BHN e S ? 20241122 1856 39.874 GAU 0.0 0.0 -335.04324 0.0

