RD13 ? BHZ i P c 20241123 1556 04.299 GAU 0.0 0.0 -137.4038 0.0
RD13 ? BHE e S ? 20241123 1556 04.766 GAU 0.0 0.0 -8479.242 0.0
RD14 ? BHZ i P c 20241123 1556 04.335 GAU 0.0 0.0 -767.6003 0.0
RD14 ? BHE e S ? 20241123 1556 04.838 GAU 0.0 0.0 1079.2201 0.0
RD09 ? BHZ i P c 20241123 1556 04.459 GAU 0.0 0.0 1017.9713 0.0
RD09 ? BHN e S ? 20241123 1556 05.044 GAU 0.0 0.0 -8078.257 0.0
RD08 ? BHZ e P d 20241123 1556 04.552 GAU 0.0 0.0 -3803.3022 0.0
RD08 ? BHN e S ? 20241123 1556 05.204 GAU 0.0 0.0 5430.3506 0.0
RD15 ? BHZ i P d 20241123 1556 04.575 GAU 0.0 0.0 -10011.995 0.0
RD15 ? BHE e S ? 20241123 1556 05.123 GAU 0.0 0.0 10501.79 0.0
RD06 ? BHZ i P c 20241123 1556 04.834 GAU 0.0 0.0 -974.5506 0.0
RD06 ? BHE e S ? 20241123 1556 05.656 GAU 0.0 0.0 2319.4124 0.0
RD01 ? BHZ e P c 20241123 1556 05.532 GAU 0.0 0.0 21.6622 0.0
RD01 ? BHE e S ? 20241123 1556 06.749 GAU 0.0 0.0 -1099.9463 0.0
RD04 ? BHZ i P c 20241123 1556 05.555 GAU 0.0 0.0 542.9092 0.0
RD04 ? BHN e S ? 20241123 1556 06.916 GAU 0.0 0.0 -1417.1814 0.0

