RD11 ? BHZ i P c 20241122 2200 23.314 GAU 0.0 0.0 256.1688 0.0
RD11 ? BHN e S ? 20241122 2200 23.686 GAU 0.0 0.0 -8953.151 0.0
RD13 ? BHZ e P c 20241122 2200 23.713 GAU 0.0 0.0 -4789.4697 0.0
RD13 ? BHE e S ? 20241122 2200 24.305 GAU 0.0 0.0 80676.13 0.0
RD10 ? BHZ i P c 20241122 2200 23.750 GAU 0.0 0.0 2275.364 0.0
RD10 ? BHN e S ? 20241122 2200 24.390 GAU 0.0 0.0 -7468.445 0.0
RD09 ? BHZ i P c 20241122 2200 23.901 GAU 0.0 0.0 622.7841 0.0
RD09 ? BHN e S ? 20241122 2200 24.626 GAU 0.0 0.0 62339.785 0.0
RD06 ? BHZ i P d 20241122 2200 24.271 GAU 0.0 0.0 -367.72043 0.0
RD06 ? BHN e S ? 20241122 2200 25.243 GAU 0.0 0.0 7246.7583 0.0
RD05 ? BHZ e P d 20241122 2200 24.511 GAU 0.0 0.0 -79.231895 0.0
RD05 ? BHN e S ? 20241122 2200 25.657 GAU 0.0 0.0 -2804.8618 0.0
RD04 ? BHZ i P d 20241122 2200 24.989 GAU 0.0 0.0 29.127934 0.0
RD04 ? BHN e S ? 20241122 2200 26.445 GAU 0.0 0.0 246.32068 0.0

