RD09 ? BHZ i P c 20241120 0512 19.410 GAU 0.0 0.0 -638.65015 0.0
RD09 ? BHN e S ? 20241120 0512 20.010 GAU 0.0 0.0 -9959.1 0.0
RD10 ? BHZ i P c 20241120 0512 19.237 GAU 0.0 0.0 344.54102 0.0
RD10 ? BHN e S ? 20241120 0512 19.680 GAU 0.0 0.0 6716.817 0.0
RD14 ? BHZ i P d 20241120 0512 19.254 GAU 0.0 0.0 -6599.8457 0.0
RD14 ? BHN e S ? 20241120 0512 19.666 GAU 0.0010974637 0.0 -3341.144 0.0
RD13 ? BHZ e P c 20241120 0512 19.313 GAU 0.0 0.0 -14744.258 0.0
RD13 ? BHE e S ? 20241120 0512 19.793 GAU 0.0 0.0 38739.4 0.0
RD15 ? BHZ i P d 20241120 0512 19.513 GAU 0.0 0.0 -9766.075 0.0
RD15 ? BHN e S ? 20241120 0512 20.099 GAU 0.0 0.0 5615.2534 0.0

