RD02 ? BHZ e P c 20241123 1701 15.677 GAU 0.0 0.0 2631.1702 0.0
RD02 ? BHN e S ? 20241123 1701 16.108 GAU 0.0 0.0 -7033.5093 0.0
RD04 ? BHZ i P d 20241123 1701 16.002 GAU 0.0 0.0 -239.19942 0.0
RD04 ? BHE e S ? 20241123 1701 16.745 GAU 0.0 0.0 3459.0137 0.0
RD01 ? BHZ i P d 20241123 1701 16.113 GAU 0.0 0.0 -687.9476 0.0
RD01 ? BHE e S ? 20241123 1701 16.809 GAU 0.0 0.0 176.16328 0.0
RD06 ? BHZ e P c 20241123 1701 16.206 GAU 0.0 0.0 188.143 0.0
RD06 ? BHE e S ? 20241123 1701 17.004 GAU 0.0 0.0 2437.5034 0.0

