RD10 ? BHZ e P c 20241104 1850 08.719 GAU 0.0 0.0 221.95425 0.0
RD10 ? BHE e S ? 20241104 1850 09.374 GAU 0.0 0.0 -3001.05 0.0
RD11 ? BHZ i P d 20241104 1850 08.797 GAU 0.0 0.0 -1942.1863 0.0
RD11 ? BHN e S ? 20241104 1850 09.429 GAU 0.0 0.0 956.2588 0.0
RD09 ? BHZ e P d 20241104 1850 08.824 GAU 0.0 0.0 923.3294 0.0
RD09 ? BHN e S ? 20241104 1850 09.459 GAU 0.0 0.0 -15662.797 0.0
RD14 ? BHZ e P c 20241104 1850 08.920 GAU 0.0 0.0 -321.00082 0.0
RD14 ? BHE e S ? 20241104 1850 09.635 GAU 0.0 0.0 -6677.203 0.0
RD06 ? BHZ e P d 20241104 1850 09.098 GAU 0.0 0.0 4.4194427 0.0
RD06 ? BHN e S ? 20241104 1850 09.935 GAU 0.0 0.0 1332.2654 0.0
RD02 ? BHZ e P c 20241104 1850 09.753 GAU 0.0 0.0 -204.30206 0.0
RD02 ? BHN e S ? 20241104 1850 11.049 GAU 0.0 0.0 442.8044 0.0
RD01 ? BHZ e P d 20241104 1850 09.789 GAU 0.0 0.0 527.9856 0.0
RD01 ? BHN e S ? 20241104 1850 11.105 GAU 0.0 0.0 2198.1875 0.0

