RD04 ? BHZ e P c 20241125 0357 36.204 GAU 0.0 0.0 -944.6719 0.0
RD04 ? BHE e S ? 20241125 0357 36.686 GAU 0.0 0.0 3788.6086 0.0
RD01 ? BHZ e P c 20241125 0357 36.271 GAU 0.0066744653 0.0 923.5624 0.0
RD01 ? BHE e S ? 20241125 0357 36.710 GAU 0.0 0.0 -5356.0244 0.0
RD14 ? BHZ e P d 20241125 0357 37.441 GAU 0.0067952056 0.0 -563.3288 0.0
RD14 ? BHN e S ? 20241125 0357 38.776 GAU 0.0 0.0 3392.4243 0.0
RD10 ? BHZ e P c 20241125 0357 37.485 GAU 0.0 0.0 303.8092 0.0
RD10 ? BHE e S ? 20241125 0357 38.709 GAU 0.0 0.0 -5879.883 0.0

