RD11 ? BHZ i P d 20241120 0407 30.817 GAU 0.0 0.0 -754.38965 0.0
RD11 ? BHN e S ? 20241120 0407 31.300 GAU 0.0 0.0 -3906.9395 0.0
RD10 ? BHZ i P c 20241120 0407 31.170 GAU 0.0 0.0 41.128178 0.0
RD10 ? BHE e S ? 20241120 0407 31.774 GAU 0.0 0.0 12572.854 0.0
RD14 ? BHZ i P d 20241120 0407 31.173 GAU 0.0 0.0 -1454.5676 0.0
RD14 ? BHN e S ? 20241120 0407 31.697 GAU 0.0 0.0 -58516.17 0.0
RD13 ? BHZ i P c 20241120 0407 31.202 GAU 0.0 0.0 -4024.232 0.0
RD13 ? BHE e S ? 20241120 0407 31.722 GAU 0.0 0.0 90600.0 0.0
RD09 ? BHZ i P c 20241120 0407 31.338 GAU 0.0 0.0 -1226.8572 0.0
RD09 ? BHN e S ? 20241120 0407 32.031 GAU 0.0 0.0 20720.78 0.0
RD15 ? BHZ i P d 20241120 0407 31.426 GAU 0.0 0.0 -620.7091 0.0
RD15 ? BHE e S ? 20241120 0407 32.035 GAU 0.0 0.0 71802.414 0.0
RD06 ? BHZ e P c 20241120 0407 31.847 GAU 0.0 0.0 -110.54612 0.0
RD06 ? BHN e S ? 20241120 0407 32.727 GAU 0.0 0.0 2841.1943 0.0
RD05 ? BHZ e P d 20241120 0407 32.040 GAU 0.0 0.0 -1881.9506 0.0
RD05 ? BHN e S ? 20241120 0407 33.117 GAU 0.0059607066 0.0 7537.453 0.0
RD04 ? BHZ e P d 20241120 0407 32.479 GAU 0.0 0.0 224.98546 0.0
RD04 ? BHE e S ? 20241120 0407 33.951 GAU 0.0 0.0 2106.408 0.0
RD01 ? BHZ e P c 20241120 0407 32.480 GAU 0.0 0.0 -103.26843 0.0
RD01 ? BHN e S ? 20241120 0407 33.964 GAU 0.0 0.0 -2367.3171 0.0

