RD10 ? BHZ e P c 20241120 0406 55.864 GAU 0.0 0.0 1152.7638 0.0
RD10 ? BHN e S ? 20241120 0406 56.240 GAU 0.0 0.0 -2966.9758 0.0
RD14 ? BHZ i P d 20241120 0406 55.881 GAU 0.0 0.0 141.37766 0.0
RD14 ? BHN e S ? 20241120 0406 56.247 GAU 0.0 0.0 4949.755 0.0
RD13 ? BHZ e P c 20241120 0406 55.951 GAU 0.0 0.0 -5343.8735 0.0
RD13 ? BHN e S ? 20241120 0406 56.444 GAU 0.0 0.0 -11522.202 0.0
RD15 ? BHZ i P d 20241120 0406 56.136 GAU 0.0 0.0 -1837.4586 0.0
RD15 ? BHE e S ? 20241120 0406 56.688 GAU 0.0 0.0 9276.521 0.0

