RD11 ? BHZ e P c 20241122 1851 22.861 GAU 0.0 0.0 -1176.5474 0.0
RD11 ? BHN e S ? 20241122 1851 23.283 GAU 0.0 0.0 5708.3 0.0
RD14 ? BHZ i P c 20241122 1851 23.065 GAU 0.0 0.0 -1275.2512 0.0
RD14 ? BHE e S ? 20241122 1851 23.564 GAU 0.0 0.0 3228.545 0.0
RD10 ? BHZ i P c 20241122 1851 23.046 GAU 0.0 0.0 2322.3943 0.0
RD10 ? BHN e S ? 20241122 1851 23.556 GAU 0.0 0.0 3355.5757 0.0
RD13 ? BHZ i P c 20241122 1851 23.098 GAU 0.0 0.0 1427.1184 0.0
RD13 ? BHE e S ? 20241122 1851 23.619 GAU 0.0 0.0 -27891.248 0.0
RD09 ? BHZ i P c 20241122 1851 23.208 GAU 0.0 0.0 915.5311 0.0
RD09 ? BHN e S ? 20241122 1851 23.826 GAU 0.0 0.0 -4062.0325 0.0
RD15 ? BHZ i P c 20241122 1851 23.206 GAU 0.0 0.0 -2137.1265 0.0
RD15 ? BHE e S ? 20241122 1851 23.812 GAU 0.0 0.0 1001.7577 0.0
RD04 ? BHZ i P c 20241122 1851 24.337 GAU 0.0 0.0 109.361465 0.0
RD04 ? BHN e S ? 20241122 1851 25.723 GAU 0.0 0.0 662.35767 0.0

