RD11 ? BHZ e P d 20241120 1128 20.714 GAU 0.0 0.0 -670.23206 0.0
RD11 ? BHE e S ? 20241120 1128 21.144 GAU 0.0 0.0 -3100.62 0.0
RD14 ? BHZ i P d 20241120 1128 20.963 GAU 0.0 0.0 -2362.3225 0.0
RD14 ? BHN e S ? 20241120 1128 21.560 GAU 0.0 0.0 8694.676 0.0
RD10 ? BHZ i P c 20241120 1128 20.945 GAU 0.0 0.0 -240.69739 0.0
RD10 ? BHN e S ? 20241120 1128 21.530 GAU 0.0 0.0 -286.23233 0.0
RD13 ? BHZ e P c 20241120 1128 20.954 GAU 0.0 0.0 -4542.8716 0.0
RD13 ? BHE e S ? 20241120 1128 21.549 GAU 0.0 0.0 -14745.247 0.0

