RD10 ? BHZ e P c 20241127 1512 25.048 GAU 0.0 0.0 -230.45753 0.0
RD10 ? BHN e S ? 20241127 1512 25.654 GAU 0.0 0.0 -738.42303 0.0
RD14 ? BHZ e P d 20241127 1512 25.092 GAU 0.0 0.0 462.46826 0.0
RD14 ? BHE e S ? 20241127 1512 25.719 GAU 0.0 0.0 -1778.6205 0.0
RD13 ? BHZ e P c 20241127 1512 25.007 GAU 0.0 0.0 -3087.6555 0.0
RD13 ? BHE e S ? 20241127 1512 25.594 GAU 0.0 0.0 -5175.7524 0.0
RD09 ? BHZ e P d 20241127 1512 25.231 GAU 0.0 0.0 227.64255 0.0
RD09 ? BHN e S ? 20241127 1512 25.966 GAU 0.0 0.0 5548.519 0.0

