RD11 ? BHZ e P c 20241109 0154 08.388 GAU 0.0 0.0 -3.263603 0.0
RD11 ? BHE e S ? 20241109 0154 08.585 GAU 0.0 0.0 -399.81815 0.0
RD10 ? BHZ i P d 20241109 0154 08.745 GAU 0.0 0.0 722.6247 0.0
RD10 ? BHN e S ? 20241109 0154 09.190 GAU 0.0 0.0 -300.62848 0.0
RD14 ? BHZ i P d 20241109 0154 08.805 GAU 0.0 0.0 -713.31494 0.0
RD14 ? BHN e S ? 20241109 0154 09.290 GAU 0.0 0.0 704.7149 0.0
RD09 ? BHZ i P c 20241109 0154 08.982 GAU 0.0 0.0 800.1448 0.0
RD09 ? BHN e S ? 20241109 0154 09.575 GAU 0.0 0.0 -7405.3135 0.0

