RD06 ? BHZ e P c 20241120 0233 37.591 GAU 0.0 0.0 860.2171 0.0
RD06 ? BHN e S ? 20241120 0233 37.997 GAU 0.0 0.0 -1207.1031 0.0
RD03 ? BHZ e P c 20241120 0233 37.616 GAU 0.0 0.0 -1552.5194 0.0
RD03 ? BHN e S ? 20241120 0233 38.057 GAU 0.0057222783 0.0 4263.7163 0.0
RD05 ? BHZ e P d 20241120 0233 37.634 GAU 0.0 0.0 -1388.5745 0.0
RD05 ? BHE e S ? 20241120 0233 38.069 GAU 0.0033115037 0.0 -177.92154 0.0
RD01 ? BHZ e P c 20241120 0233 38.181 GAU 0.0057222783 0.0 -146.555 0.0
RD01 ? BHN e S ? 20241120 0233 38.983 GAU 0.0 0.0 2498.9211 0.0
RD04 ? BHZ e P d 20241120 0233 38.376 GAU 0.0 0.0 151.73297 0.0
RD04 ? BHN e S ? 20241120 0233 39.314 GAU 0.0 0.0 -430.2184 0.0

