RD14 ? BHZ i P c 20241121 2327 03.302 GAU 0.0 0.0 -59.84553 0.0
RD14 ? BHE e S ? 20241121 2327 03.824 GAU 0.0 0.0 2088.8447 0.0
RD13 ? BHZ e P c 20241121 2327 03.306 GAU 0.0 0.0 -1149.9464 0.0
RD13 ? BHN e S ? 20241121 2327 03.859 GAU 0.0 0.0 1318.6023 0.0
RD10 ? BHZ i P c 20241121 2327 03.330 GAU 0.0 0.0 910.0896 0.0
RD10 ? BHE e S ? 20241121 2327 03.898 GAU 0.0 0.0 479.0022 0.0
RD15 ? BHZ e P c 20241121 2327 03.521 GAU 0.0 0.0 -135.4301 0.0
RD15 ? BHE e S ? 20241121 2327 04.200 GAU 0.0 0.0 4668.2407 0.0
RD09 ? BHZ e P c 20241121 2327 03.566 GAU 0.0 0.0 -2078.7798 0.0
RD09 ? BHE e S ? 20241121 2327 04.280 GAU 0.0 0.0 -757.2611 0.0

