RD02 ? BHZ e P c 20241128 0612 55.612 GAU 0.0 0.0 -528.5215 0.0
RD02 ? BHN e S ? 20241128 0612 56.156 GAU 0.0 0.0 7366.97 0.0
RD04 ? BHZ i P d 20241128 0612 55.706 GAU 0.0 0.0 -450.66296 0.0
RD04 ? BHE e S ? 20241128 0612 56.315 GAU 0.0 0.0 -9229.626 0.0
RD01 ? BHZ i P d 20241128 0612 55.789 GAU 0.0 0.0 142.94135 0.0
RD01 ? BHN e S ? 20241128 0612 56.454 GAU 9.981142E-4 0.0 191.31158 0.0

