RD14 ? BHZ e P d 20241110 0019 38.084 GAU 0.0 0.0 570.4968 0.0
RD14 ? BHE e S ? 20241110 0019 38.479 GAU 0.0 0.0 1622.9835 0.0
RD11 ? BHZ e P c 20241110 0019 38.122 GAU 0.0 0.0 -30.863306 0.0
RD11 ? BHE e S ? 20241110 0019 38.710 GAU 0.0 0.0 -4708.3984 0.0
RD04 ? BHZ e P c 20241110 0019 38.992 GAU 0.0 0.0 143.18832 0.0
RD04 ? BHE e S ? 20241110 0019 40.076 GAU 0.0 0.0 751.46985 0.0

