RD10 ? BHZ i P d 20241120 0640 00.763 GAU 0.0 0.0 -3149.6768 0.0
RD10 ? BHE e S ? 20241120 0640 01.245 GAU 0.0 0.0 -405.02478 0.0
RD09 ? BHZ e P c 20241120 0640 00.853 GAU 0.0 0.0 -165.0584 0.0
RD09 ? BHN e S ? 20241120 0640 01.521 GAU 0.0 0.0 -8578.836 0.0
RD14 ? BHZ i P d 20241120 0640 00.701 GAU 0.0 0.0 -1683.0277 0.0
RD14 ? BHE e S ? 20241120 0640 01.160 GAU 0.0 0.0 4957.9624 0.0
RD15 ? BHZ i P d 20241120 0640 00.976 GAU 0.0 0.0 431.0533 0.0
RD15 ? BHE e S ? 20241120 0640 01.534 GAU 0.0 0.0 728.577 0.0
RD04 ? BHZ e P c 20241120 0640 02.074 GAU 0.0 0.0 194.70758 0.0
RD04 ? BHE e S ? 20241120 0640 03.454 GAU 0.0 0.0 119.548965 0.0

