RD11 ? BHZ e P d 20241101 1928 12.934 GAU 0.0 0.0 505.4836 0.0
RD11 ? BHN e S ? 20241101 1928 29.093 GAU 0.0 0.0 -54.51113 0.0
RD10 ? BHZ e P c 20241101 1928 13.010 GAU 0.0 0.0 666.2086 0.0
RD10 ? BHN e S ? 20241101 1928 29.153 GAU 0.0 0.0 3013.977 0.0
RD09 ? BHZ e P d 20241101 1928 13.204 GAU 0.0 0.0 -280.9089 0.0
RD09 ? BHN e S ? 20241101 1928 29.337 GAU 0.0 0.0 4781.921 0.0
RD06 ? BHZ e P c 20241101 1928 13.335 GAU 0.0 0.0 -218.38925 0.0
RD06 ? BHN e S ? 20241101 1928 29.697 GAU 0.0 0.0 -3102.4795 0.0
RD05 ? BHZ e P c 20241101 1928 13.621 GAU 0.0 0.0 -2787.7908 0.0
RD05 ? BHN e S ? 20241101 1928 30.097 GAU 0.0 0.0 -3077.1055 0.0
RD01 ? BHZ e P c 20241101 1928 13.817 GAU 0.0 0.0 18.002037 0.0
RD01 ? BHN e S ? 20241101 1928 30.605 GAU 0.0 0.0 108.320496 0.0
RD04 ? BHZ e P d 20241101 1928 14.096 GAU 0.0 0.0 -59.55484 0.0
RD04 ? BHE e S ? 20241101 1928 30.780 GAU 0.0 0.0 -1641.618 0.0
RD02 ? BHZ e P c 20241101 1928 14.541 GAU 0.0 0.0 573.71246 0.0
RD02 ? BHN e S ? 20241101 1928 31.794 GAU 0.0 0.0 -1024.7659 0.0

