RD01 ? BHZ e P c 20241128 0539 04.912 GAU 0.0 0.0 128.8039 0.0
RD01 ? BHN e S ? 20241128 0539 23.561 GAU 0.020469984 0.0 1649.6005 0.0
RD04 ? BHZ e P c 20241128 0539 06.437 GAU 0.0 0.0 630.7618 0.0
RD04 ? BHN e S ? 20241128 0539 26.170 GAU 0.0 0.0 -3294.0107 0.0

