RD10 ? BHZ e P c 20241130 0128 17.521 GAU 0.0 0.0 -1033.7628 0.0
RD10 ? BHN e S ? 20241130 0128 31.506 GAU 0.0 0.0 -4561.1895 0.0
RD01 ? BHZ e P c 20241130 0128 18.060 GAU 0.0 0.0 -58.11838 0.0
RD01 ? BHN e S ? 20241130 0128 32.480 GAU 0.0 0.0 -4008.5547 0.0

