RD14 ? BHZ e P c 20241115 2010 18.151 GAU 0.0 0.0 -1239.9873 0.0
RD14 ? BHN e S ? 20241115 2010 37.966 GAU 0.0 0.0 919.5381 0.0
RD11 ? BHZ e P c 20241115 2010 18.282 GAU 0.0 0.0 -1784.6245 0.0
RD11 ? BHE e S ? 20241115 2010 38.198 GAU 0.0 0.0 -3097.9336 0.0
RD13 ? BHZ e P c 20241115 2010 18.525 GAU 0.0 0.0 -877.2968 0.0
RD13 ? BHN e S ? 20241115 2010 38.570 GAU 0.0 0.0 2015.1904 0.0
RD09 ? BHZ e P c 20241115 2010 18.754 GAU 0.0 0.0 -23.291073 0.0
RD09 ? BHN e S ? 20241115 2010 39.010 GAU 0.0 0.0 -8436.079 0.0
RD04 ? BHZ e P c 20241115 2010 19.420 GAU 0.0 0.0 192.29395 0.0
RD04 ? BHE e S ? 20241115 2010 40.150 GAU 0.0 0.0 -3078.2017 0.0

