RD14 ? BHZ e P c 20241116 1126 03.494 GAU 0.0 0.0 398.78595 0.0
RD14 ? BHE e S ? 20241116 1126 15.151 GAU 0.0 0.0 -1036.2155 0.0
RD04 ? BHZ e P c 20241116 1126 04.314 GAU 0.0 0.0 89.09062 0.0
RD04 ? BHN e S ? 20241116 1126 16.544 GAU 0.0 0.0 -331.32843 0.0
RD01 ? BHZ e P c 20241116 1126 04.598 GAU 0.0 0.0 -162.75606 0.0
RD01 ? BHE e S ? 20241116 1126 16.973 GAU 0.0 0.0 605.59094 0.0

