RD11 ? BHZ e P c 20241118 1111 53.682 GAU 0.0 0.0 -1049.9973 0.0
RD11 ? BHE e S ? 20241118 1112 12.009 GAU 0.0 0.0 1078.9078 0.0
RD14 ? BHZ e P d 20241118 1111 53.506 GAU 0.0 0.0 -692.80927 0.0
RD14 ? BHE e S ? 20241118 1112 11.503 GAU 0.0 0.0 -4063.2095 0.0
RD15 ? BHZ e P c 20241118 1111 53.717 GAU 0.0 0.0 -1436.7434 0.0
RD15 ? BHN e S ? 20241118 1112 12.208 GAU 0.0 0.0 -4829.6157 0.0
RD01 ? BHZ e P d 20241118 1111 54.395 GAU 0.0 0.0 131.21216 0.0
RD01 ? BHN e S ? 20241118 1112 13.126 GAU 0.0 0.0 -694.3323 0.0

