RD02 ? BHZ e P c 20241120 0029 20.920 GAU 0.0 0.0 87.21186 0.0
RD02 ? BHN e S ? 20241120 0029 42.758 GAU 0.0 0.0 2841.0288 0.0
RD11 ? BHZ e P c 20241120 0029 21.149 GAU 0.0 0.0 -380.88904 0.0
RD11 ? BHE e S ? 20241120 0029 43.155 GAU 0.0 0.0 -5987.083 0.0
RD06 ? BHZ e P c 20241120 0029 21.148 GAU 0.0 0.0 -1385.9164 0.0
RD06 ? BHN e S ? 20241120 0029 43.144 GAU 0.0 0.0 -6496.3115 0.0
RD05 ? BHZ e P c 20241120 0029 21.038 GAU 0.0 0.0 -907.1953 0.0
RD05 ? BHE e S ? 20241120 0029 42.919 GAU 0.0 0.0 -5895.021 0.0
RD01 ? BHZ e P c 20241120 0029 20.944 GAU 0.0 0.0 -337.9766 0.0
RD01 ? BHN e S ? 20241120 0029 42.798 GAU 0.0 0.0 -1865.527 0.0

