RD11 ? BHZ e P c 20241122 0717 44.694 GAU 0.0 0.0 -253.09442 0.0
RD11 ? BHE e S ? 20241122 0717 45.118 GAU 0.0 0.0 -1220.5521 0.0
RD10 ? BHZ i P c 20241122 0717 44.619 GAU 0.0 0.0 1541.5078 0.0
RD10 ? BHN e S ? 20241122 0717 45.284 GAU 0.0 0.0 -1996.7847 0.0
RD14 ? BHZ i P d 20241122 0717 44.773 GAU 0.0 0.0 -1501.2258 0.0
RD14 ? BHN e S ? 20241122 0717 45.249 GAU 0.0 0.0 -2136.7996 0.0
RD04 ? BHZ i P c 20241122 0717 46.206 GAU 0.0 0.0 -135.80887 0.0
RD04 ? BHE e S ? 20241122 0717 47.744 GAU 0.0 0.0 345.87335 0.0

