RD02 ? BHZ e P d 20241121 1938 29.484 GAU 0.0 0.0 988.98047 0.0
RD02 ? BHN e S ? 20241121 1938 30.051 GAU 0.0 0.0 597.2376 0.0
RD04 ? BHZ i P d 20241121 1938 29.613 GAU 0.0 0.0 -102.00781 0.0
RD04 ? BHN e S ? 20241121 1938 30.295 GAU 0.0 0.0 -3236.038 0.0
RD01 ? BHZ e P d 20241121 1938 29.777 GAU 0.0 0.0 -129.29529 0.0
RD01 ? BHN e S ? 20241121 1938 30.544 GAU 0.0 0.0 831.1119 0.0

