RD09 ? BHZ e P c 20241128 0831 20.143 GAU 0.0 0.0 -2233.5747 0.0
RD09 ? BHN e S ? 20241128 0831 20.639 GAU 0.0 0.0 -875.9523 0.0
RD13 ? BHZ e P d 20241128 0831 20.159 GAU 0.0010779634 0.0 -547.58044 0.0
RD13 ? BHN e S ? 20241128 0831 20.576 GAU 0.0 0.0 -8899.012 0.0
RD10 ? BHZ e P c 20241128 0831 20.194 GAU 0.0 0.0 -557.0725 0.0
RD10 ? BHN e S ? 20241128 0831 20.634 GAU 0.0032187814 0.0 36.684864 0.0
RD14 ? BHZ e P c 20241128 0831 20.394 GAU 0.0 0.0 -334.00537 0.0
RD14 ? BHN e S ? 20241128 0831 21.015 GAU 0.0 0.0 2625.236 0.0

