RD11 ? BHZ e P d 20241122 0027 43.794 GAU 0.0 0.0 -145.1949 0.0
RD11 ? BHE e S ? 20241122 0027 44.218 GAU 0.0 0.0 -1920.4231 0.0
RD14 ? BHZ i P c 20241122 0027 43.906 GAU 0.0 0.0 -1480.7997 0.0
RD14 ? BHE e S ? 20241122 0027 44.405 GAU 0.0 0.0 6210.085 0.0
RD13 ? BHZ e P d 20241122 0027 43.938 GAU 0.0 0.0 -3637.8582 0.0
RD13 ? BHE e S ? 20241122 0027 44.459 GAU 0.0 0.0 5053.348 0.0
RD10 ? BHZ i P d 20241122 0027 43.928 GAU 0.0 0.0 -470.445 0.0
RD10 ? BHN e S ? 20241122 0027 44.444 GAU 0.0 0.0 -2720.293 0.0

