RD11 ? BHZ i P c 20241108 1903 09.398 GAU 0.0 0.0 3262.8433 0.0
RD11 ? BHN e S ? 20241108 1903 09.841 GAU 0.0 0.0 17837.9 0.0
RD10 ? BHZ i P c 20241108 1903 09.783 GAU 0.0 0.0 147.48207 0.0
RD10 ? BHE e S ? 20241108 1903 10.405 GAU 0.0 0.0 14888.702 0.0
RD14 ? BHZ e P c 20241108 1903 09.805 GAU 0.0 0.0 -1389.9232 0.0
RD14 ? BHE e S ? 20241108 1903 10.400 GAU 0.0 0.0 -2214.7568 0.0
RD13 ? BHZ i P d 20241108 1903 09.829 GAU 0.0 0.0 -7.368969 0.0
RD13 ? BHE e S ? 20241108 1903 10.376 GAU 0.0 0.0 23813.438 0.0
RD09 ? BHZ e P c 20241108 1903 09.903 GAU 0.0 0.0 -1433.8481 0.0
RD09 ? BHE e S ? 20241108 1903 10.632 GAU 0.0 0.0 -43757.543 0.0
RD08 ? BHZ i P c 20241108 1903 09.958 GAU 0.0 0.0 -280.28262 0.0
RD08 ? BHE e S ? 20241108 1903 10.603 GAU 0.0 0.0 15916.986 0.0
RD15 ? BHZ i P c 20241108 1903 10.010 GAU 0.0 0.0 -615.22015 0.0
RD15 ? BHE e S ? 20241108 1903 10.663 GAU 0.0 0.0 -5970.4746 0.0
RD06 ? BHZ e P c 20241108 1903 10.214 GAU 0.0 0.0 -447.11108 0.0
RD06 ? BHE e S ? 20241108 1903 11.077 GAU 0.0 0.0 2481.248 0.0
RD02 ? BHZ e P c 20241108 1903 10.473 GAU 0.0 0.0 -1031.5574 0.0
RD02 ? BHE e S ? 20241108 1903 11.626 GAU 0.0 0.0 746.1349 0.0
RD05 ? BHZ e P c 20241108 1903 10.607 GAU 0.0 0.0 1445.6127 0.0
RD05 ? BHN e S ? 20241108 1903 11.696 GAU 0.0 0.0 12720.649 0.0
RD01 ? BHZ i P c 20241108 1903 10.916 GAU 0.0 0.0 -76.06592 0.0
RD01 ? BHE e S ? 20241108 1903 12.277 GAU 0.0 0.0 -1617.5009 0.0
RD04 ? BHZ i P d 20241108 1903 10.910 GAU 0.0 0.0 75.21725 0.0
RD04 ? BHE e S ? 20241108 1903 12.311 GAU 0.0 0.0 2407.0237 0.0

