RD11 ? BHZ e P c 20241120 0712 12.192 GAU 0.0 0.0 604.68994 0.0
RD11 ? BHE e S ? 20241120 0712 12.620 GAU 0.0 0.0 -6576.8623 0.0
RD14 ? BHZ i P d 20241120 0712 12.320 GAU 0.0 0.0 991.2944 0.0
RD14 ? BHN e S ? 20241120 0712 12.829 GAU 0.0 0.0 1402.4296 0.0
RD10 ? BHZ e P c 20241120 0712 12.491 GAU 0.0 0.0 -667.8244 0.0
RD10 ? BHE e S ? 20241120 0712 13.117 GAU 0.0 0.0 -4030.0635 0.0

