RD09 ? BHZ e P c 20241122 1649 54.883 GAU 0.0072959047 0.0 -646.0677 0.0
RD09 ? BHN e S ? 20241122 1649 55.467 GAU 0.0 0.0 282.24045 0.0
RD14 ? BHZ e P d 20241122 1649 54.783 GAU 0.0 0.0 1459.764 0.0
RD14 ? BHN e S ? 20241122 1649 55.249 GAU 0.0 0.0 -4163.1187 0.0
RD13 ? BHZ e P d 20241122 1649 54.816 GAU 0.0 0.0 1131.7478 0.0
RD13 ? BHE e S ? 20241122 1649 55.262 GAU 0.0 0.0 19776.707 0.0
RD11 ? BHZ e P c 20241122 1649 55.261 GAU 0.0 0.0 -558.01984 0.0
RD11 ? BHE e S ? 20241122 1649 56.043 GAU 0.003104526 0.0 2938.509 0.0
RD04 ? BHZ e P c 20241122 1649 56.025 GAU 0.0 0.0 3.550058 0.0
RD04 ? BHE e S ? 20241122 1649 57.343 GAU 0.0 0.0 -82.17352 0.0

