RD11 ? BHZ i P c 20241118 1706 21.076 GAU 0.0 0.0 -54.22888 0.0
RD11 ? BHE e S ? 20241118 1706 21.387 GAU 0.0 0.0 -2279.9475 0.0
RD13 ? BHZ e P d 20241118 1706 21.399 GAU 0.0 0.0 -1221.588 0.0
RD13 ? BHN e S ? 20241118 1706 21.923 GAU 0.0 0.0 279.92734 0.0
RD14 ? BHZ i P d 20241118 1706 21.414 GAU 0.0 0.0 -151.15793 0.0
RD14 ? BHN e S ? 20241118 1706 21.941 GAU 0.0 0.0 -11318.055 0.0
RD10 ? BHZ i P d 20241118 1706 21.466 GAU 0.0 0.0 1586.5236 0.0
RD10 ? BHE e S ? 20241118 1706 22.034 GAU 0.0 0.0 -1025.8878 0.0

