RD06 ? BHZ e P d 20241109 0044 49.236 GAU 0.0 0.0 775.42053 0.0
RD06 ? BHE e S ? 20241109 0044 49.659 GAU 0.0 0.0 -1451.8203 0.0
RD05 ? BHZ e P c 20241109 0044 49.295 GAU 0.0 0.0 -869.45386 0.0
RD05 ? BHN e S ? 20241109 0044 49.791 GAU 0.0 0.0 5491.072 0.0
RD11 ? BHZ e P c 20241109 0044 49.456 GAU 0.0 0.0 -741.30725 0.0
RD11 ? BHN e S ? 20241109 0044 50.017 GAU 0.0 0.0 -3332.8062 0.0
RD10 ? BHZ i P c 20241109 0044 49.678 GAU 0.0 0.0 -972.4669 0.0
RD10 ? BHN e S ? 20241109 0044 50.435 GAU 0.0 0.0 -458.42996 0.0
RD01 ? BHZ e P c 20241109 0044 49.842 GAU 0.0 0.0 -456.88864 0.0
RD01 ? BHN e S ? 20241109 0044 50.691 GAU 0.0 0.0 -617.29456 0.0
RD14 ? BHZ i P c 20241109 0044 49.994 GAU 0.0 0.0 -2729.1658 0.0
RD14 ? BHN e S ? 20241109 0044 50.928 GAU 0.0 0.0 505.0653 0.0

