RD02 ? BHZ e P c 20241126 2202 08.283 GAU 0.0 0.0 -1094.9652 0.0
RD02 ? BHN e S ? 20241126 2202 09.307 GAU 0.0 0.0 572.53577 0.0
RD01 ? BHZ e P c 20241126 2202 08.319 GAU 0.0 0.0 -338.53897 0.0
RD01 ? BHN e S ? 20241126 2202 09.369 GAU 0.0 0.0 -1532.4474 0.0
RD04 ? BHZ e P c 20241126 2202 08.383 GAU 0.0 0.0 -2040.1708 0.0
RD04 ? BHN e S ? 20241126 2202 09.473 GAU 0.0 0.0 -2064.047 0.0

