RD10 ? BHZ i P c 20241120 0510 58.487 GAU 0.0 0.0 -302.46594 0.0
RD10 ? BHN e S ? 20241120 0510 58.894 GAU 0.0 0.0 1128.8387 0.0
RD14 ? BHZ e P d 20241120 0510 58.554 GAU 0.0 0.0 -482.58755 0.0
RD14 ? BHE e S ? 20241120 0510 59.006 GAU 0.0 0.0 12956.181 0.0
RD09 ? BHZ e P c 20241120 0510 58.679 GAU 0.0 0.0 1186.3341 0.0
RD09 ? BHN e S ? 20241120 0510 59.218 GAU 0.0 0.0 -1226.4573 0.0
RD15 ? BHZ e P c 20241120 0510 58.722 GAU 0.0 0.0 -2496.3406 0.0
RD15 ? BHN e S ? 20241120 0510 59.284 GAU 0.0 0.0 4061.313 0.0

