RD11 ? BHZ i P d 20241118 1603 46.077 GAU 0.0 0.0 1097.477 0.0
RD11 ? BHN e S ? 20241118 1603 46.322 GAU 0.0 0.0 1432.8418 0.0
RD10 ? BHZ i P c 20241118 1603 46.375 GAU 0.0 0.0 -1450.1492 0.0
RD10 ? BHN e S ? 20241118 1603 46.821 GAU 0.0 0.0 4440.5786 0.0
RD14 ? BHZ i P d 20241118 1603 46.393 GAU 0.0 0.0 -373.34473 0.0
RD14 ? BHN e S ? 20241118 1603 46.835 GAU 0.0 0.0 -3770.7236 0.0
RD13 ? BHZ i P d 20241118 1603 46.442 GAU 0.0 0.0 -1072.7823 0.0
RD13 ? BHE e S ? 20241118 1603 46.922 GAU 6.654095E-4 0.0 -358.55136 0.0
RD09 ? BHZ i P d 20241118 1603 46.625 GAU 0.0 0.0 4013.1516 0.0
RD09 ? BHN e S ? 20241118 1603 47.237 GAU 0.0 0.0 -9333.045 0.0
RD15 ? BHZ i P d 20241118 1603 46.672 GAU 0.0 0.0 250.46727 0.0
RD15 ? BHE e S ? 20241118 1603 47.308 GAU 0.0 0.0 -2566.7817 0.0

