RD10 ? BHZ i P c 20241120 0804 33.040 GAU 0.0 0.0 -1436.8146 0.0
RD10 ? BHE e S ? 20241120 0804 33.603 GAU 0.0 0.0 9981.359 0.0
RD11 ? BHZ i P c 20241120 0804 32.675 GAU 0.0 0.0 53.259167 0.0
RD11 ? BHE e S ? 20241120 0804 32.893 GAU 0.0 0.0 -3834.3662 0.0
RD14 ? BHZ i P d 20241120 0804 33.032 GAU 0.0 0.0 -1990.3635 0.0
RD14 ? BHE e S ? 20241120 0804 33.497 GAU 0.0 0.0 5602.428 0.0
RD13 ? BHZ e P d 20241120 0804 33.085 GAU 0.0 0.0 -10392.762 0.0
RD13 ? BHE e S ? 20241120 0804 33.569 GAU 0.0 0.0 57971.99 0.0
RD09 ? BHZ e P c 20241120 0804 33.239 GAU 0.0 0.0 -602.2099 0.0
RD09 ? BHN e S ? 20241120 0804 33.861 GAU 0.0 0.0 -25334.842 0.0
RD15 ? BHZ i P d 20241120 0804 33.281 GAU 0.0 0.0 -237.91792 0.0
RD15 ? BHE e S ? 20241120 0804 33.911 GAU 0.0 0.0 -2764.485 0.0
RD06 ? BHZ e P d 20241120 0804 33.650 GAU 0.0 0.0 -39.35645 0.0
RD06 ? BHE e S ? 20241120 0804 34.539 GAU 0.0 0.0 1025.725 0.0

