RD11 ? BHZ e P d 20241120 0337 58.596 GAU 0.0 0.0 490.44073 0.0
RD11 ? BHN e S ? 20241120 0337 59.026 GAU 0.0 0.0 1398.0707 0.0
RD14 ? BHZ i P d 20241120 0337 58.676 GAU 0.0 0.0 -1811.2083 0.0
RD14 ? BHE e S ? 20241120 0337 59.158 GAU 0.0 0.0 35432.945 0.0
RD10 ? BHZ i P c 20241120 0337 58.702 GAU 0.0 0.0 -169.13274 0.0
RD10 ? BHE e S ? 20241120 0337 59.201 GAU 0.0 0.0 5313.081 0.0
RD15 ? BHZ e P d 20241120 0337 58.900 GAU 0.0 0.0 471.56723 0.0
RD15 ? BHN e S ? 20241120 0337 59.528 GAU 0.0 0.0 -10089.622 0.0

