RD14 ? BHZ e P d 20241130 0129 56.956 GAU 0.0028975657 0.0 526.4986 0.0
RD14 ? BHN e S ? 20241130 0129 57.568 GAU 0.0028975657 0.0 5362.503 0.0
RD13 ? BHZ e P c 20241130 0129 56.927 GAU 0.0 0.0 -633.2155 0.0
RD13 ? BHE e S ? 20241130 0129 57.524 GAU 0.0 0.0 -36769.64 0.0
RD10 ? BHZ i P c 20241130 0129 56.942 GAU 0.0 0.0 509.90115 0.0
RD10 ? BHE e S ? 20241130 0129 57.543 GAU 0.0 0.0 -9063.545 0.0
RD09 ? BHZ e P c 20241130 0129 57.068 GAU 0.0 0.0 379.81458 0.0
RD09 ? BHN e S ? 20241130 0129 57.757 GAU 0.0 0.0 11995.028 0.0

