RD02 ? BHZ e P c 20241121 1938 34.363 GAU 0.0 0.0 -1813.6162 0.0
RD02 ? BHN e S ? 20241121 1938 34.915 GAU 0.0 0.0 -3754.3193 0.0
RD04 ? BHZ i P d 20241121 1938 34.484 GAU 0.0 0.0 -88.40745 0.0
RD04 ? BHN e S ? 20241121 1938 35.111 GAU 0.0 0.0 -937.8355 0.0
RD01 ? BHZ i P d 20241121 1938 34.659 GAU 0.0 0.0 467.7201 0.0
RD01 ? BHE e S ? 20241121 1938 35.407 GAU 0.0 0.0 -1586.5042 0.0

