RD14 ? BHZ i P d 20241122 0043 32.098 GAU 0.0 0.0 -4538.9624 0.0
RD14 ? BHN e S ? 20241122 0043 32.540 GAU 0.0 0.0 -1689.5049 0.0
RD09 ? BHZ e P c 20241122 0043 32.349 GAU 0.0 0.0 -2763.6602 0.0
RD09 ? BHN e S ? 20241122 0043 32.961 GAU 0.0 0.0 8060.6826 0.0
RD10 ? BHZ i P c 20241122 0043 32.105 GAU 0.0 0.0 2546.0046 0.0
RD10 ? BHN e S ? 20241122 0043 32.549 GAU 0.0 0.0 1602.8325 0.0
RD13 ? BHZ i P c 20241122 0043 32.164 GAU 0.0 0.0 -2764.8462 0.0
RD13 ? BHE e S ? 20241122 0043 32.650 GAU 0.0 0.0 26618.953 0.0
RD15 ? BHZ e P c 20241122 0043 32.352 GAU 0.0 0.0 -4248.6914 0.0
RD15 ? BHE e S ? 20241122 0043 32.965 GAU 0.0 0.0 -14065.047 0.0

