RD04 ? BHZ e P d 20241111 1426 14.567 GAU 0.0 0.0 82.84647 0.0
RD04 ? BHE e S ? 20241111 1426 15.115 GAU 0.0 0.0 14193.604 0.0
RD02 ? BHZ e P c 20241111 1426 14.680 GAU 0.0 0.0 518.10046 0.0
RD02 ? BHN e S ? 20241111 1426 15.323 GAU 0.0 0.0 -2117.33 0.0
RD01 ? BHZ i P c 20241111 1426 14.802 GAU 0.0 0.0 -171.9592 0.0
RD01 ? BHE e S ? 20241111 1426 15.507 GAU 0.0 0.0 -22825.936 0.0
RD06 ? BHZ e P c 20241111 1426 15.211 GAU 0.0 0.0 -456.90237 0.0
RD06 ? BHN e S ? 20241111 1426 16.198 GAU 0.0 0.0 -1693.6708 0.0
RD11 ? BHZ e P d 20241111 1426 15.450 GAU 0.0 0.0 231.2919 0.0
RD11 ? BHE e S ? 20241111 1426 16.605 GAU 0.0 0.0 1346.7466 0.0

