RD06 ? BHZ e P d 20241120 0236 10.706 GAU 0.0 0.0 685.22174 0.0
RD06 ? BHN e S ? 20241120 0236 11.063 GAU 0.0 0.0 -4167.5454 0.0
RD05 ? BHZ e P c 20241120 0236 10.788 GAU 0.0 0.0 5668.0293 0.0
RD05 ? BHN e S ? 20241120 0236 11.200 GAU 0.0 0.0 -1288.0554 0.0
RD01 ? BHZ e P d 20241120 0236 11.299 GAU 0.0 0.0 400.62296 0.0
RD01 ? BHN e S ? 20241120 0236 12.054 GAU 0.0 0.0 376.59973 0.0

