RD14 ? BHZ i P d 20241121 2003 58.417 GAU 0.0 0.0 468.8139 0.0
RD14 ? BHN e S ? 20241121 2003 58.963 GAU 0.0 0.0 -24968.086 0.0
RD10 ? BHZ i P c 20241121 2003 58.443 GAU 0.0 0.0 1859.1107 0.0
RD10 ? BHE e S ? 20241121 2003 58.842 GAU 0.0 0.0 -3065.554 0.0
RD13 ? BHZ i P c 20241121 2003 58.512 GAU 0.0 0.0 -1200.841 0.0
RD13 ? BHE e S ? 20241121 2003 59.000 GAU 0.0 0.0 -4995.434 0.0
RD09 ? BHZ e P c 20241121 2003 58.543 GAU 0.0 0.0 -1110.5334 0.0
RD09 ? BHN e S ? 20241121 2003 59.007 GAU 0.0 0.0 -2568.416 0.0
RD15 ? BHZ i P d 20241121 2003 58.678 GAU 0.0 0.0 -903.3008 0.0
RD15 ? BHE e S ? 20241121 2003 59.208 GAU 0.0 0.0 -10815.171 0.0
RD04 ? BHZ e P d 20241121 2003 59.744 GAU 0.0 0.0 -99.366875 0.0
RD04 ? BHN e S ? 20241121 2004 01.075 GAU 0.0 0.0 -278.16098 0.0

