RD02 ? BHZ i P d 20241102 0134 30.286 GAU 0.0 0.0 -1664.9509 0.0
RD02 ? BHN e S ? 20241102 0134 30.731 GAU 0.0 0.0 -31944.812 0.0
RD04 ? BHZ e P d 20241102 0134 30.303 GAU 0.0 0.0 296.767 0.0
RD04 ? BHN e S ? 20241102 0134 30.909 GAU 0.0 0.0 -18119.383 0.0
RD01 ? BHZ i P d 20241102 0134 30.404 GAU 0.0 0.0 -864.9928 0.0
RD01 ? BHE e S ? 20241102 0134 30.925 GAU 0.0 0.0 2528.592 0.0
RD11 ? BHZ e P d 20241102 0134 30.787 GAU 0.0 0.0 -849.0622 0.0
RD11 ? BHE e S ? 20241102 0134 31.783 GAU 0.0 0.0 -2054.8655 0.0
RD06 ? BHZ e P d 20241102 0134 30.768 GAU 0.0 0.0 557.3401 0.0
RD06 ? BHE e S ? 20241102 0134 31.559 GAU 0.0 0.0 -3364.281 0.0
RD05 ? BHZ i P d 20241102 0134 30.906 GAU 0.0 0.0 269.7072 0.0
RD05 ? BHN e S ? 20241102 0134 31.781 GAU 0.0 0.0 2310.2708 0.0
RD10 ? BHZ i P c 20241102 0134 31.434 GAU 0.0 0.0 -1181.6758 0.0
RD10 ? BHN e S ? 20241102 0134 32.711 GAU 0.0 0.0 -760.4747 0.0

