RD14 ? BHZ e P d 20241120 1016 51.533 GAU 0.0 0.0 -73.59436 0.0
RD14 ? BHN e S ? 20241120 1016 52.059 GAU 0.0 0.0 -3433.6328 0.0
RD10 ? BHZ i P d 20241120 1016 51.562 GAU 0.0 0.0 922.72797 0.0
RD10 ? BHE e S ? 20241120 1016 52.113 GAU 0.0 0.0 1387.2281 0.0
RD15 ? BHZ e P d 20241120 1016 51.783 GAU 0.0 0.0 475.8049 0.0
RD15 ? BHN e S ? 20241120 1016 52.468 GAU 0.0 0.0 2322.3767 0.0
RD09 ? BHZ e P d 20241120 1016 51.756 GAU 0.0 0.0 -3752.3247 0.0
RD09 ? BHE e S ? 20241120 1016 52.468 GAU 0.0 0.0 -2097.9692 0.0

