RD10 ? BHZ i P c 20241122 0015 27.564 GAU 0.0 0.0 2502.9749 0.0
RD10 ? BHE e S ? 20241122 0015 28.015 GAU 0.0 0.0 1949.4141 0.0
RD13 ? BHZ e P c 20241122 0015 27.575 GAU 0.0 0.0 903.98883 0.0
RD13 ? BHE e S ? 20241122 0015 28.072 GAU 0.0 0.0 11514.426 0.0
RD14 ? BHZ i P d 20241122 0015 27.581 GAU 0.0 0.0 -105.66889 0.0
RD14 ? BHE e S ? 20241122 0015 28.088 GAU 0.0 0.0 4536.5225 0.0
RD09 ? BHZ i P c 20241122 0015 27.736 GAU 0.0 0.0 607.47644 0.0
RD09 ? BHN e S ? 20241122 0015 28.338 GAU 0.0 0.0 -16024.705 0.0
RD15 ? BHZ i P d 20241122 0015 27.800 GAU 0.0 0.0 1271.8193 0.0
RD15 ? BHE e S ? 20241122 0015 28.434 GAU 0.0 0.0 -17.115479 0.0

