RD10 ? BHZ i P c 20241105 1657 57.380 GAU 0.0 0.0 2.3920822 0.0
RD10 ? BHN e S ? 20241105 1657 57.845 GAU 0.0 0.0 -1396.7485 0.0
RD14 ? BHZ e P c 20241105 1657 57.437 GAU 0.0 0.0 -869.3381 0.0
RD14 ? BHN e S ? 20241105 1657 57.943 GAU 0.0 0.0 2168.0408 0.0
RD09 ? BHZ e P d 20241105 1657 57.556 GAU 0.0 0.0 -450.75873 0.0
RD09 ? BHN e S ? 20241105 1657 58.144 GAU 0.0 0.0 -2158.6614 0.0
RD13 ? BHZ e P d 20241105 1657 57.435 GAU 0.0016557518 0.0 -1059.9391 0.0
RD13 ? BHE e S ? 20241105 1657 57.938 GAU 0.0 0.0 -2982.068 0.0

