RD14 ? BHZ i P d 20241120 0008 36.577 GAU 0.0 0.0 -992.30054 0.0
RD14 ? BHN e S ? 20241120 0008 37.139 GAU 0.0 0.0 17264.46 0.0
RD10 ? BHZ i P c 20241120 0008 36.604 GAU 0.0 0.0 1486.3358 0.0
RD10 ? BHN e S ? 20241120 0008 37.185 GAU 0.0 0.0 1633.2847 0.0
RD09 ? BHZ e P c 20241120 0008 36.747 GAU 0.0 0.0 -1937.6055 0.0
RD09 ? BHN e S ? 20241120 0008 37.423 GAU 0.0 0.0 -1757.316 0.0

