RD05 ? BHZ e P c 20241101 1456 40.525 GAU 0.0 0.0 -433.64133 0.0
RD05 ? BHE e S ? 20241101 1456 41.010 GAU 0.0 0.0 2224.2043 0.0
RD06 ? BHZ e P d 20241101 1456 40.515 GAU 0.0 0.0 -641.24695 0.0
RD06 ? BHE e S ? 20241101 1456 40.950 GAU 0.0 0.0 574.9925 0.0
RD01 ? BHZ e P d 20241101 1456 41.138 GAU 0.0 0.0 341.2626 0.0
RD01 ? BHE e S ? 20241101 1456 41.978 GAU 0.008034078 0.0 -31.522215 0.0
RD04 ? BHZ e P c 20241101 1456 41.358 GAU 0.00186847 0.0 -446.5443 0.0
RD04 ? BHN e S ? 20241101 1456 42.390 GAU 0.0 0.0 -28.918434 0.0

