RD11 ? BHZ e P c 20241120 0633 27.891 GAU 0.0 0.0 -1136.2257 0.0
RD11 ? BHE e S ? 20241120 0633 28.233 GAU 0.0 0.0 -1439.7426 0.0
RD10 ? BHZ i P c 20241120 0633 28.100 GAU 0.0 0.0 -1166.4581 0.0
RD10 ? BHN e S ? 20241120 0633 28.590 GAU 0.0 0.0 1368.949 0.0
RD14 ? BHZ e P d 20241120 0633 28.051 GAU 0.0 0.0 -1615.0702 0.0
RD14 ? BHN e S ? 20241120 0633 28.501 GAU 0.0 0.0 -7657.4995 0.0
RD09 ? BHZ e P c 20241120 0633 28.304 GAU 0.0 0.0 -4190.4673 0.0
RD09 ? BHN e S ? 20241120 0633 28.922 GAU 0.0 0.0 6960.348 0.0
RD15 ? BHZ e P d 20241120 0633 28.217 GAU 0.0 0.0 959.8845 0.0
RD15 ? BHN e S ? 20241120 0633 28.781 GAU 0.0 0.0 2310.2554 0.0

