RD11 ? BHZ e P c 20241120 1004 53.083 GAU 0.0 0.0 480.6845 0.0
RD11 ? BHE e S ? 20241120 1004 53.393 GAU 0.0 0.0 -2405.785 0.0
RD14 ? BHZ i P d 20241120 1004 53.407 GAU 0.0 0.0 -87.02468 0.0
RD14 ? BHE e S ? 20241120 1004 53.932 GAU 0.0 0.0 50280.863 0.0
RD10 ? BHZ i P c 20241120 1004 53.450 GAU 0.0 0.0 -61.579067 0.0
RD10 ? BHE e S ? 20241120 1004 54.006 GAU 0.0 0.0 -5208.6694 0.0
RD15 ? BHZ i P d 20241120 1004 53.683 GAU 0.0 0.0 1607.7637 0.0
RD15 ? BHN e S ? 20241120 1004 54.389 GAU 0.0 0.0 13721.661 0.0
RD04 ? BHZ e P c 20241120 1004 54.774 GAU 0.0 0.0 -173.63594 0.0
RD04 ? BHE e S ? 20241120 1004 56.277 GAU 0.0 0.0 1195.3711 0.0

