RD09 ? BHZ e P c 20241125 0214 15.611 GAU 0.0 0.0 -701.0957 0.0
RD09 ? BHN e S ? 20241125 0214 17.115 GAU 0.0 0.0 -6486.047 0.0
RD02 ? BHZ e P c 20241125 0214 14.038 GAU 0.005932858 0.0 -3257.0723 0.0
RD02 ? BHN e S ? 20241125 0214 14.489 GAU 0.0 0.0 5984.639 0.0
RD10 ? BHZ e P c 20241125 0214 13.922 GAU 0.0 0.0 -135.13573 0.0
RD10 ? BHN e S ? 20241125 0214 14.232 GAU 0.0 0.0 3656.605 0.0
RD14 ? BHZ e P c 20241125 0214 13.916 GAU 0.0 0.0 -652.88367 0.0
RD14 ? BHE e S ? 20241125 0214 14.298 GAU 0.0 0.0 -5411.07 0.0

