RD13 ? BHZ e P c 20241127 1454 41.716 GAU 0.0 0.0 -672.6123 0.0
RD13 ? BHN e S ? 20241127 1454 42.050 GAU 0.0 0.0 1814.0237 0.0
RD09 ? BHZ e P d 20241127 1454 41.915 GAU 0.0 0.0 -436.63348 0.0
RD09 ? BHE e S ? 20241127 1454 42.404 GAU 0.0 0.0 3396.956 0.0
RD14 ? BHZ e P c 20241127 1454 41.753 GAU 0.0 0.0 96.92766 0.0
RD14 ? BHE e S ? 20241127 1454 42.131 GAU 0.0 0.0 -2580.9973 0.0
RD04 ? BHZ e P c 20241127 1454 42.896 GAU 0.0 0.0 -179.03235 0.0
RD04 ? BHN e S ? 20241127 1454 44.038 GAU 0.0 0.0 -359.15128 0.0

