RD09 ? BHZ e P c 20241126 2212 26.231 GAU 0.0 0.0 -849.53094 0.0
RD09 ? BHN e S ? 20241126 2212 26.860 GAU 0.0 0.0 -753.43567 0.0
RD14 ? BHZ e P c 20241126 2212 25.993 GAU 0.0 0.0 -1132.7126 0.0
RD14 ? BHE e S ? 20241126 2212 26.466 GAU 0.0 0.0 268.99072 0.0
RD10 ? BHZ e P c 20241126 2212 26.116 GAU 0.0 0.0 -1222.9678 0.0
RD10 ? BHE e S ? 20241126 2212 26.670 GAU 0.0 0.0 -2014.5403 0.0

