RD11 ? BHZ e P c 20241122 0821 11.207 GAU 0.0 0.0 -254.28712 0.0
RD11 ? BHN e S ? 20241122 0821 11.622 GAU 0.0 0.0 2234.6836 0.0
RD13 ? BHZ e P c 20241122 0821 11.335 GAU 0.0 0.0 -2195.8813 0.0
RD13 ? BHE e S ? 20241122 0821 11.838 GAU 0.0 0.0 13423.646 0.0
RD14 ? BHZ i P d 20241122 0821 11.308 GAU 0.0 0.0 -934.8769 0.0
RD14 ? BHN e S ? 20241122 0821 11.792 GAU 0.0 0.0 -6484.2153 0.0
RD10 ? BHZ i P c 20241122 0821 11.315 GAU 0.0 0.0 3953.9756 0.0
RD10 ? BHE e S ? 20241122 0821 11.804 GAU 0.0 0.0 4566.8164 0.0
RD15 ? BHZ e P c 20241122 0821 11.537 GAU 0.0 0.0 406.84064 0.0
RD15 ? BHN e S ? 20241122 0821 12.177 GAU 0.0 0.0 7668.6396 0.0

