RD01 ? BHZ i P c 20241123 1029 45.675 GAU 0.0 0.0 -133.48174 0.0
RD01 ? BHN e S ? 20241123 1029 46.094 GAU 0.0 0.0 2443.5466 0.0
RD02 ? BHZ e P c 20241123 1029 45.393 GAU 0.0 0.0 -3511.5454 0.0
RD02 ? BHN e S ? 20241123 1029 45.646 GAU 0.0 0.0 19204.924 0.0
RD04 ? BHZ e P d 20241123 1029 45.684 GAU 0.0 0.0 1271.1112 0.0
RD04 ? BHE e S ? 20241123 1029 46.193 GAU 0.0 0.0 432.50763 0.0
RD06 ? BHZ e P d 20241123 1029 45.971 GAU 0.0 0.0 627.3363 0.0
RD06 ? BHE e S ? 20241123 1029 46.612 GAU 0.0 0.0 -467.1842 0.0

