RD11 ? BHZ e P c 20241107 0747 57.043 GAU 0.0 0.0 -260.05914 0.0
RD11 ? BHN e S ? 20241107 0748 09.056 GAU 0.0 0.0 4268.9644 0.0
RD01 ? BHZ e P c 20241107 0747 58.008 GAU 0.0 0.0 -1225.7064 0.0
RD01 ? BHE e S ? 20241107 0748 10.697 GAU 0.0 0.0 -80.991776 0.0
RD14 ? BHZ e P c 20241107 0747 57.334 GAU 0.0 0.0 959.97284 0.0
RD14 ? BHE e S ? 20241107 0748 09.593 GAU 0.0 0.0 5444.125 0.0
RD10 ? BHZ e P c 20241107 0747 57.185 GAU 0.0 0.0 737.56396 0.0
RD10 ? BHN e S ? 20241107 0748 09.280 GAU 0.0 0.0 1299.6594 0.0
RD09 ? BHZ e P d 20241107 0747 57.339 GAU 0.0 0.0 2426.3005 0.0
RD09 ? BHN e S ? 20241107 0748 09.575 GAU 0.0 0.0 10647.905 0.0
RD06 ? BHZ e P c 20241107 0747 57.530 GAU 0.0 0.0 20.843145 0.0
RD06 ? BHN e S ? 20241107 0748 09.907 GAU 0.0 0.0 3732.0823 0.0
RD05 ? BHZ e P c 20241107 0747 57.584 GAU 0.0 0.0 -830.3499 0.0
RD05 ? BHN e S ? 20241107 0748 09.955 GAU 0.0 0.0 1667.0802 0.0

