RD11 ? BHZ e P c 20241107 0931 47.179 GAU 0.0 0.0 -3550.6292 0.0
RD11 ? BHE e S ? 20241107 0931 58.458 GAU 0.0 0.0 13263.569 0.0
RD14 ? BHZ e P c 20241107 0931 47.356 GAU 0.0 0.0 429.59735 0.0
RD14 ? BHE e S ? 20241107 0931 58.679 GAU 0.0 0.0 -3985.3076 0.0
RD10 ? BHZ e P c 20241107 0931 47.448 GAU 0.0 0.0 -679.8296 0.0
RD10 ? BHN e S ? 20241107 0931 58.940 GAU 0.0 0.0 -4731.5996 0.0
RD15 ? BHZ e P c 20241107 0931 47.619 GAU 0.0 0.0 703.19006 0.0
RD15 ? BHN e S ? 20241107 0931 59.179 GAU 0.0 0.0 17172.318 0.0
RD09 ? BHZ e P c 20241107 0931 47.676 GAU 0.0 0.0 1782.36 0.0
RD09 ? BHE e S ? 20241107 0931 59.327 GAU 0.0 0.0 1170.0381 0.0
RD05 ? BHZ e P c 20241107 0931 47.861 GAU 0.0 0.0 -263.70276 0.0
RD05 ? BHN e S ? 20241107 0931 59.672 GAU 0.0 0.0 2528.1743 0.0
RD06 ? BHZ e P d 20241107 0931 48.009 GAU 0.0 0.0 1541.4766 0.0
RD06 ? BHE e S ? 20241107 0931 59.782 GAU 0.0 0.0 -4513.9565 0.0
RD07 ? BHZ e P d 20241107 0931 47.928 GAU 0.0 0.0 1100.449 0.0
RD07 ? BHE e S ? 20241107 0931 59.708 GAU 0.0 0.0 -6726.778 0.0
RD02 ? BHZ e P c 20241107 0931 48.146 GAU 0.0 0.0 -93.51685 0.0
RD02 ? BHN e S ? 20241107 0932 00.049 GAU 0.0 0.0 4912.2725 0.0
RD04 ? BHZ e P c 20241107 0931 48.338 GAU 0.0 0.0 409.90176 0.0
RD04 ? BHE e S ? 20241107 0932 00.442 GAU 0.0 0.0 741.4427 0.0
RD01 ? BHZ e P d 20241107 0931 48.466 GAU 0.0 0.0 11.40214 0.0
RD01 ? BHE e S ? 20241107 0932 00.657 GAU 0.0 0.0 -613.9243 0.0

