RD11 ? BHZ e P c 20241113 1841 06.857 GAU 0.0 0.0 793.59265 0.0
RD11 ? BHN e S ? 20241113 1841 27.330 GAU 0.0 0.0 46631.04 0.0
RD14 ? BHZ e P d 20241113 1841 07.137 GAU 0.0 0.0 -2815.5984 0.0
RD14 ? BHN e S ? 20241113 1841 27.793 GAU 0.0 0.0 -20313.547 0.0
RD13 ? BHZ e P d 20241113 1841 07.199 GAU 0.0 0.0 3034.006 0.0
RD13 ? BHN e S ? 20241113 1841 27.899 GAU 0.0 0.0 33684.742 0.0
RD15 ? BHZ e P d 20241113 1841 07.366 GAU 0.0 0.0 939.1241 0.0
RD15 ? BHE e S ? 20241113 1841 28.185 GAU 0.0 0.0 10321.868 0.0
RD10 ? BHZ e P d 20241113 1841 07.461 GAU 0.0 0.0 4251.837 0.0
RD10 ? BHN e S ? 20241113 1841 28.336 GAU 0.0 0.0 -87781.1 0.0
RD08 ? BHZ e P d 20241113 1841 07.833 GAU 0.0 0.0 5263.505 0.0
RD08 ? BHE e S ? 20241113 1841 28.971 GAU 0.0 0.0 137484.94 0.0
RD09 ? BHZ e P c 20241113 1841 07.582 GAU 0.0 0.0 -960.22656 0.0
RD09 ? BHN e S ? 20241113 1841 28.545 GAU 0.0 0.0 -70226.78 0.0
RD06 ? BHZ e P c 20241113 1841 07.837 GAU 0.0 0.0 66.9613 0.0
RD06 ? BHN e S ? 20241113 1841 28.971 GAU 0.0 0.0 16946.0 0.0
RD05 ? BHZ e P d 20241113 1841 07.841 GAU 0.0 0.0 495.91254 0.0
RD05 ? BHN e S ? 20241113 1841 28.978 GAU 0.0 0.0 18917.875 0.0
RD02 ? BHZ e P c 20241113 1841 07.930 GAU 0.0 0.0 390.62918 0.0
RD02 ? BHN e S ? 20241113 1841 29.131 GAU 0.0 0.0 49341.055 0.0
RD07 ? BHZ e P c 20241113 1841 08.033 GAU 0.0 0.0 -4109.0015 0.0
RD07 ? BHE e S ? 20241113 1841 29.308 GAU 0.0 0.0 -42605.17 0.0
RD03 ? BHZ e P c 20241113 1841 08.094 GAU 0.0 0.0 -3505.6218 0.0
RD03 ? BHE e S ? 20241113 1841 29.399 GAU 0.0 0.0 41172.266 0.0
RD04 ? BHZ e P c 20241113 1841 08.350 GAU 0.0 0.0 1196.8936 0.0
RD04 ? BHE e S ? 20241113 1841 29.844 GAU 0.0 0.0 2339.0552 0.0
RD01 ? BHZ e P c 20241113 1841 08.352 GAU 0.0 0.0 -156.45952 0.0
RD01 ? BHN e S ? 20241113 1841 29.837 GAU 0.0 0.0 -31916.969 0.0

