RD11 ? BHZ e P c 20241113 2153 30.489 GAU 0.0 0.0 472.45544 0.0
RD11 ? BHE e S ? 20241113 2153 45.767 GAU 0.0 0.0 925.25653 0.0
RD10 ? BHZ e P c 20241113 2153 30.546 GAU 0.0 0.0 241.24512 0.0
RD10 ? BHN e S ? 20241113 2153 45.862 GAU 0.0 0.0 513.0681 0.0
RD09 ? BHZ e P d 20241113 2153 30.744 GAU 0.0 0.0 1354.0386 0.0
RD09 ? BHE e S ? 20241113 2153 46.182 GAU 0.0 0.0 -3426.266 0.0
RD14 ? BHZ e P c 20241113 2153 30.926 GAU 0.0 0.0 -1402.1943 0.0
RD14 ? BHN e S ? 20241113 2153 46.500 GAU 0.0 0.0 -5696.051 0.0
RD06 ? BHZ e P c 20241113 2153 30.971 GAU 0.0 0.0 188.04112 0.0
RD06 ? BHN e S ? 20241113 2153 46.378 GAU 0.0 0.0 -1730.3744 0.0
RD05 ? BHZ e P c 20241113 2153 30.991 GAU 0.0 0.0 208.1837 0.0
RD05 ? BHE e S ? 20241113 2153 46.601 GAU 0.0 0.0 -845.6607 0.0
RD01 ? BHZ e P c 20241113 2153 31.389 GAU 0.0 0.0 -388.1491 0.0
RD01 ? BHN e S ? 20241113 2153 47.275 GAU 0.0 0.0 3360.0242 0.0
RD04 ? BHZ e P d 20241113 2153 31.608 GAU 0.0 0.0 94.92487 0.0
RD04 ? BHN e S ? 20241113 2153 47.642 GAU 0.0 0.0 -1249.6183 0.0

