RD11 ? BHZ e P c 20241114 1533 37.259 GAU 0.0 0.0 -47.971004 0.0
RD11 ? BHE e S ? 20241114 1534 05.719 GAU 0.0 0.0 6651.349 0.0
RD14 ? BHZ e P c 20241114 1533 37.928 GAU 0.0 0.0 -2274.9229 0.0
RD14 ? BHE e S ? 20241114 1534 06.837 GAU 0.0 0.0 1272.9364 0.0
RD04 ? BHZ e P c 20241114 1533 38.284 GAU 0.0 0.0 -381.548 0.0
RD04 ? BHE e S ? 20241114 1534 07.432 GAU 0.0 0.0 193.28766 0.0
RD01 ? BHZ e P c 20241114 1533 38.417 GAU 0.0 0.0 4.7359853 0.0
RD01 ? BHN e S ? 20241114 1534 07.658 GAU 0.0 0.0 -106.12016 0.0
RD05 ? BHZ e P c 20241114 1533 39.162 GAU 0.0 0.0 -2408.3223 0.0
RD05 ? BHE e S ? 20241114 1534 08.901 GAU 0.0 0.0 3804.4436 0.0

