RD11 ? BHZ e P d 20241114 1908 50.915 GAU 0.0 0.0 454.17508 0.0
RD11 ? BHN e S ? 20241114 1909 16.714 GAU 0.0 0.0 82286.32 0.0
RD14 ? BHZ e P c 20241114 1908 51.155 GAU 0.0 0.0 -483.15536 0.0
RD14 ? BHE e S ? 20241114 1909 17.121 GAU 0.0 0.0 80051.766 0.0
RD13 ? BHZ e P c 20241114 1908 51.370 GAU 0.0 0.0 1620.5676 0.0
RD13 ? BHN e S ? 20241114 1909 17.487 GAU 0.0 0.0 -17621.838 0.0
RD10 ? BHZ e P c 20241114 1908 51.494 GAU 0.0 0.0 1098.4669 0.0
RD10 ? BHE e S ? 20241114 1909 17.685 GAU 0.0 0.0 -20775.06 0.0
RD09 ? BHZ e P c 20241114 1908 51.535 GAU 0.0 0.0 1633.9921 0.0
RD09 ? BHN e S ? 20241114 1909 17.754 GAU 0.0 0.0 -70553.78 0.0
RD02 ? BHZ e P c 20241114 1908 51.706 GAU 0.0 0.0 -553.63995 0.0
RD02 ? BHN e S ? 20241114 1909 18.045 GAU 0.0 0.0 11593.265 0.0
RD04 ? BHZ e P c 20241114 1908 51.719 GAU 0.0 0.0 224.71468 0.0
RD04 ? BHE e S ? 20241114 1909 18.070 GAU 0.0 0.0 -46060.49 0.0
RD06 ? BHZ e P c 20241114 1908 51.742 GAU 0.0 0.0 163.2181 0.0
RD06 ? BHE e S ? 20241114 1909 18.112 GAU 0.0 0.0 61404.133 0.0
RD15 ? BHZ e P c 20241114 1908 51.752 GAU 0.0 0.0 -11568.616 0.0
RD15 ? BHE e S ? 20241114 1909 18.141 GAU 0.0 0.0 61331.426 0.0
RD07 ? BHZ e P c 20241114 1908 51.868 GAU 0.0 0.0 -2837.9746 0.0
RD07 ? BHE e S ? 20241114 1909 18.278 GAU 0.0 0.0 79518.875 0.0
RD01 ? BHZ e P d 20241114 1908 52.021 GAU 0.0 0.0 16.838171 0.0
RD01 ? BHN e S ? 20241114 1909 18.573 GAU 0.0 0.0 53235.523 0.0
RD03 ? BHZ e P c 20241114 1908 52.034 GAU 0.0 0.0 -4299.0776 0.0
RD03 ? BHN e S ? 20241114 1909 18.594 GAU 0.0 0.0 42690.574 0.0
RD05 ? BHZ e P c 20241114 1908 52.056 GAU 0.0 0.0 3177.413 0.0
RD05 ? BHN e S ? 20241114 1909 18.636 GAU 0.0 0.0 35429.24 0.0

