RD14 ? BHZ e P d 20241116 0009 31.382 GAU 0.0 0.0 -1172.0273 0.0
RD14 ? BHN e S ? 20241116 0009 54.689 GAU 0.0 0.0 -7461.3525 0.0
RD09 ? BHZ e P c 20241116 0009 31.544 GAU 0.0 0.0 -2351.1353 0.0
RD09 ? BHN e S ? 20241116 0009 54.974 GAU 0.0 0.0 -12553.148 0.0
RD10 ? BHZ e P c 20241116 0009 31.520 GAU 0.0 0.0 -609.35876 0.0
RD10 ? BHE e S ? 20241116 0009 54.929 GAU 0.0 0.0 1485.3942 0.0
RD01 ? BHZ e P d 20241116 0009 32.019 GAU 0.0 0.0 -869.3039 0.0
RD01 ? BHN e S ? 20241116 0009 55.797 GAU 0.0 0.0 442.90497 0.0

