RD11 ? BHZ e P c 20241116 2137 43.556 GAU 0.0 0.0 724.2287 0.0
RD11 ? BHN e S ? 20241116 2137 57.469 GAU 0.0 0.0 2052.771 0.0
RD10 ? BHZ e P d 20241116 2137 43.757 GAU 0.0 0.0 -1182.5507 0.0
RD10 ? BHN e S ? 20241116 2137 57.801 GAU 0.0 0.0 -1874.8528 0.0
RD14 ? BHZ e P d 20241116 2137 43.766 GAU 0.0 0.0 -244.82916 0.0
RD14 ? BHE e S ? 20241116 2137 57.842 GAU 0.0 0.0 11748.939 0.0
RD15 ? BHZ e P c 20241116 2137 44.186 GAU 0.0 0.0 -2457.0688 0.0
RD15 ? BHN e S ? 20241116 2137 58.564 GAU 0.0 0.0 -8778.422 0.0
RD09 ? BHZ e P c 20241116 2137 43.946 GAU 0.0 0.0 -1385.1614 0.0
RD09 ? BHE e S ? 20241116 2137 58.138 GAU 0.0 0.0 11290.485 0.0
RD07 ? BHZ e P d 20241116 2137 44.267 GAU 0.0 0.0 -1567.5797 0.0
RD07 ? BHE e S ? 20241116 2137 58.681 GAU 0.0 0.0 31448.02 0.0
RD02 ? BHZ e P d 20241116 2137 44.321 GAU 0.0 0.0 1209.0265 0.0
RD02 ? BHE e S ? 20241116 2137 58.766 GAU 0.0 0.0 14821.351 0.0
RD01 ? BHZ e P d 20241116 2137 44.570 GAU 0.0 0.0 3.1597435 0.0
RD01 ? BHN e S ? 20241116 2137 59.179 GAU 0.0 0.0 6242.544 0.0
RD06 ? BHZ e P c 20241116 2137 44.625 GAU 0.0 0.0 -676.37573 0.0
RD06 ? BHN e S ? 20241116 2137 59.402 GAU 0.0 0.0 -996.97424 0.0
RD04 ? BHZ e P c 20241116 2137 44.650 GAU 0.0 0.0 259.3962 0.0
RD04 ? BHN e S ? 20241116 2137 59.375 GAU 0.0 0.0 2955.594 0.0
RD03 ? BHZ e P c 20241116 2137 44.804 GAU 0.0 0.0 1095.841 0.0
RD03 ? BHN e S ? 20241116 2137 59.572 GAU 0.0 0.0 21998.922 0.0

