RD11 ? BHZ e P c 20241118 1146 08.609 GAU 0.0 0.0 -146.34732 0.0
RD11 ? BHE e S ? 20241118 1146 26.073 GAU 0.0 0.0 34599.5 0.0
RD10 ? BHZ e P d 20241118 1146 08.836 GAU 0.0 0.0 969.26 0.0
RD10 ? BHN e S ? 20241118 1146 26.439 GAU 0.0 0.0 -14005.157 0.0
RD14 ? BHZ e P d 20241118 1146 08.852 GAU 0.0 0.0 509.4416 0.0
RD14 ? BHE e S ? 20241118 1146 26.393 GAU 0.0 0.0 1188.641 0.0
RD09 ? BHZ e P d 20241118 1146 09.039 GAU 0.0 0.0 1466.7722 0.0
RD09 ? BHE e S ? 20241118 1146 26.749 GAU 0.0 0.0 54271.695 0.0
RD06 ? BHZ e P c 20241118 1146 09.246 GAU 0.0 0.0 -93.65079 0.0
RD06 ? BHE e S ? 20241118 1146 27.146 GAU 0.014305696 0.0 -28590.031 0.0
RD05 ? BHZ e P d 20241118 1146 09.352 GAU 0.0 0.0 604.38165 0.0
RD05 ? BHE e S ? 20241118 1146 27.323 GAU 0.0 0.0 -20710.13 0.0
RD03 ? BHZ e P c 20241118 1146 09.513 GAU 0.0 0.0 472.1346 0.0
RD03 ? BHN e S ? 20241118 1146 27.608 GAU 0.0 0.0 26584.371 0.0
RD01 ? BHZ e P c 20241118 1146 09.555 GAU 0.0 0.0 -102.37846 0.0
RD01 ? BHE e S ? 20241118 1146 27.682 GAU 0.0 0.0 1560.3823 0.0
RD02 ? BHZ e P c 20241118 1146 09.700 GAU 0.0 0.0 -3436.2532 0.0
RD02 ? BHN e S ? 20241118 1146 27.926 GAU 0.0 0.0 -14039.408 0.0
RD04 ? BHZ e P d 20241118 1146 09.919 GAU 0.0 0.0 599.0748 0.0
RD04 ? BHE e S ? 20241118 1146 28.303 GAU 0.0 0.0 10313.252 0.0

