RD11 ? BHZ e P c 20241119 2130 14.424 GAU 0.0 0.0 -769.8139 0.0
RD11 ? BHE e S ? 20241119 2130 59.757 GAU 0.0 0.0 -4430.2964 0.0
RD10 ? BHZ e P c 20241119 2130 14.868 GAU 0.0 0.0 -302.43707 0.0
RD10 ? BHN e S ? 20241119 2131 00.532 GAU 0.0 0.0 1853.7445 0.0
RD01 ? BHZ e P c 20241119 2130 14.731 GAU 0.0 0.0 14.1331415 0.0
RD01 ? BHE e S ? 20241119 2131 00.274 GAU 0.0 0.0 929.2557 0.0
RD04 ? BHZ e P d 20241119 2130 14.986 GAU 0.0 0.0 211.70204 0.0
RD04 ? BHE e S ? 20241119 2131 00.706 GAU 0.0 0.0 116.22731 0.0
RD02 ? BHZ e P d 20241119 2130 15.010 GAU 0.0 0.0 1091.4775 0.0
RD02 ? BHN e S ? 20241119 2131 00.738 GAU 0.0 0.0 9141.386 0.0
RD06 ? BHZ e P d 20241119 2130 15.233 GAU 0.0 0.0 1392.5807 0.0
RD06 ? BHN e S ? 20241119 2131 01.124 GAU 0.0 0.0 -832.022 0.0

