RD06 ? BHZ e P c 20241120 0029 20.590 GAU 0.0 0.0 -208.19743 0.0
RD06 ? BHN e S ? 20241120 0029 42.043 GAU 0.0 0.0 -1227.9735 0.0
RD11 ? BHZ e P d 20241120 0029 20.768 GAU 0.0 0.0 -423.5193 0.0
RD11 ? BHN e S ? 20241120 0029 42.292 GAU 0.0 0.0 -3628.2603 0.0
RD01 ? BHZ e P c 20241120 0029 21.004 GAU 0.0 0.0 -208.95404 0.0
RD01 ? BHN e S ? 20241120 0029 42.721 GAU 0.0 0.0 -1031.3864 0.0
RD05 ? BHZ e P c 20241120 0029 21.121 GAU 0.0 0.0 -572.01056 0.0
RD05 ? BHN e S ? 20241120 0029 42.921 GAU 0.0 0.0 -2880.7278 0.0
RD02 ? BHZ e P c 20241120 0029 21.307 GAU 0.0 0.0 -430.57416 0.0
RD02 ? BHE e S ? 20241120 0029 43.235 GAU 0.0 0.0 -1897.1128 0.0

